<?xml version="1.0" encoding="UTF-8" standalone="no"?>
<gpx xmlns="http://www.topografix.com/GPX/1/1" version="1.1" xmlns:xsi="http://www.w3.org/2001/XMLSchema-instance" xsi:schemaLocation="http://www.topografix.com/GPX/1/1 http://www.topografix.com/GPX/1/1/gpx.xsd" creator="Cirkwi"><metadata><name><![CDATA[Chemin du Patrimoine - n°160]]></name><desc><![CDATA[Des chasses ombragées du Sentier du littoral aux verts pâturages traversés sur les hauteurs, les magnifiques points de vue sur l'anse de Vauville, le mont-Saint-Pierre, les landes et les dunes s'offrent à vos yeux. Un parcours riche et contrasté accessible à tous. Partez du parking de la mairie, prenez la rue de l'église située entre l'église et la mairie puis prenez une petite rue à gauche (Siouville-Hague). Coordonnées GPS : 49°33'29.6"N, 1°51'23.2"W Suivez le circuit selon le sens des aiguilles d'une montre. Le balisage "chemin du patrimoine". Le long du littoral, suivez le balisage du GR223 (rouge et blanc). Vous retrouverez ce circuit dans le topoguide "La Hague - Des Pieux et autour de Martinvast "de l'Office de tourisme du Cotentin.   Départ accessible avec le réseau de bus Cap Cotentin à l'arrêt "Siouville-Hague - Place des Tamaris" (plus d'infos sur capcotentin.fr)]]></desc><author><name><![CDATA[Cotentin unique]]></name></author><link href="http://fichier0.cirkwi.com/image/photo/circuit/1300x1300/680358/fr/0.jpg"><text><![CDATA[|]]></text></link><link href="http://fichier0.cirkwi.com/image/photo/circuit/1300x1300/680358/fr/1.jpg"><text><![CDATA[|@ Baptiste Almodovar]]></text></link><link href="http://fichier0.cirkwi.com/image/photo/circuit/1300x1300/680358/fr/2.jpg"><text><![CDATA[|@Cap Cotentin]]></text></link><time>2026-08-17T08:58:10Z</time></metadata><trk><trkseg><trkpt lat="49.55826" lon="-1.83986"><ele>73.55</ele></trkpt><trkpt lat="49.55843" lon="-1.83999"><ele>73.15</ele></trkpt><trkpt lat="49.55864" lon="-1.83905"><ele>74.82</ele></trkpt><trkpt lat="49.55872" lon="-1.83866"><ele>74.94</ele></trkpt><trkpt lat="49.55947" lon="-1.83737"><ele>70.98</ele></trkpt><trkpt lat="49.56067" lon="-1.83871"><ele>55.01</ele></trkpt><trkpt lat="49.56063" lon="-1.83919"><ele>52.46</ele></trkpt><trkpt lat="49.56164" lon="-1.84025"><ele>38.65</ele></trkpt><trkpt lat="49.56212" lon="-1.84057"><ele>31.77</ele></trkpt><trkpt lat="49.56215" lon="-1.84133"><ele>26.73</ele></trkpt><trkpt lat="49.56201" lon="-1.84158"><ele>26.42</ele></trkpt><trkpt lat="49.56388" lon="-1.84373"><ele>10.03</ele></trkpt><trkpt lat="49.56462" lon="-1.84458"><ele>8.65</ele></trkpt><trkpt lat="49.56489" lon="-1.84468"><ele>7.99</ele></trkpt><trkpt lat="49.56592" lon="-1.84349"><ele>8.23</ele></trkpt><trkpt lat="49.56647" lon="-1.84345"><ele>8.38</ele></trkpt><trkpt lat="49.56688" lon="-1.84361"><ele>9.08</ele></trkpt><trkpt lat="49.56714" lon="-1.8435"><ele>9.56</ele></trkpt><trkpt lat="49.56744" lon="-1.84362"><ele>11.63</ele></trkpt><trkpt lat="49.56913" lon="-1.84313"><ele>11.36</ele></trkpt><trkpt lat="49.57027" lon="-1.84275"><ele>11.48</ele></trkpt><trkpt lat="49.5704" lon="-1.8427"><ele>11.3</ele></trkpt><trkpt lat="49.57032" lon="-1.84209"><ele>10.78</ele></trkpt><trkpt lat="49.57023" lon="-1.84176"><ele>10.95</ele></trkpt><trkpt lat="49.57049" lon="-1.84164"><ele>10.47</ele></trkpt><trkpt lat="49.57061" lon="-1.84103"><ele>7.55</ele></trkpt><trkpt lat="49.57069" lon="-1.84061"><ele>6.43</ele></trkpt><trkpt lat="49.57081" lon="-1.83937"><ele>7.18</ele></trkpt><trkpt lat="49.57098" lon="-1.83823"><ele>8.12</ele></trkpt><trkpt lat="49.57156" lon="-1.83788"><ele>6.76</ele></trkpt><trkpt lat="49.57163" lon="-1.8374"><ele>7.28</ele></trkpt><trkpt lat="49.57177" lon="-1.83604"><ele>8.33</ele></trkpt><trkpt lat="49.57032" lon="-1.83576"><ele>8.87</ele></trkpt><trkpt lat="49.5695" lon="-1.83569"><ele>9.47</ele></trkpt><trkpt lat="49.57044" lon="-1.83417"><ele>9.64</ele></trkpt><trkpt lat="49.57022" lon="-1.8335"><ele>10.45</ele></trkpt><trkpt lat="49.56988" lon="-1.83244"><ele>12.1</ele></trkpt><trkpt lat="49.56973" lon="-1.8315"><ele>14.14</ele></trkpt><trkpt lat="49.56971" lon="-1.83002"><ele>23.55</ele></trkpt><trkpt lat="49.56975" lon="-1.82903"><ele>30.72</ele></trkpt><trkpt lat="49.56978" lon="-1.82827"><ele>35.64</ele></trkpt><trkpt lat="49.56995" lon="-1.82777"><ele>37.66</ele></trkpt><trkpt lat="49.5702" lon="-1.82692"><ele>39.4</ele></trkpt><trkpt lat="49.57029" lon="-1.82634"><ele>40.54</ele></trkpt><trkpt lat="49.5704" lon="-1.82553"><ele>42.72</ele></trkpt><trkpt lat="49.5698" lon="-1.82519"><ele>48.17</ele></trkpt><trkpt lat="49.5692" lon="-1.8249"><ele>56.25</ele></trkpt><trkpt lat="49.56877" lon="-1.82443"><ele>60</ele></trkpt><trkpt lat="49.56819" lon="-1.8241"><ele>63.15</ele></trkpt><trkpt lat="49.56759" lon="-1.82376"><ele>66.82</ele></trkpt><trkpt lat="49.56752" lon="-1.82334"><ele>70.13</ele></trkpt><trkpt lat="49.56759" lon="-1.82099"><ele>58.3</ele></trkpt><trkpt lat="49.56758" lon="-1.82063"><ele>55.28</ele></trkpt><trkpt lat="49.56711" lon="-1.82016"><ele>47.22</ele></trkpt><trkpt lat="49.56697" lon="-1.8202"><ele>48.15</ele></trkpt><trkpt lat="49.56657" lon="-1.81948"><ele>42.1</ele></trkpt><trkpt lat="49.56609" lon="-1.81922"><ele>41.17</ele></trkpt><trkpt lat="49.56545" lon="-1.81848"><ele>36.1</ele></trkpt><trkpt lat="49.56506" lon="-1.81742"><ele>37.57</ele></trkpt><trkpt lat="49.56488" lon="-1.81713"><ele>38.45</ele></trkpt><trkpt lat="49.56433" lon="-1.81762"><ele>43.51</ele></trkpt><trkpt lat="49.56376" lon="-1.81841"><ele>46.6</ele></trkpt><trkpt lat="49.56344" lon="-1.81878"><ele>49.71</ele></trkpt><trkpt lat="49.56296" lon="-1.81972"><ele>54.59</ele></trkpt><trkpt lat="49.5622" lon="-1.82058"><ele>63.19</ele></trkpt><trkpt lat="49.56153" lon="-1.82169"><ele>70.95</ele></trkpt><trkpt lat="49.56141" lon="-1.82188"><ele>73.59</ele></trkpt><trkpt lat="49.563" lon="-1.8222"><ele>71.17</ele></trkpt><trkpt lat="49.56441" lon="-1.82272"><ele>75.89</ele></trkpt><trkpt lat="49.56511" lon="-1.82287"><ele>75.68</ele></trkpt><trkpt lat="49.56656" lon="-1.82322"><ele>73.12</ele></trkpt><trkpt lat="49.56695" lon="-1.82347"><ele>73.16</ele></trkpt><trkpt lat="49.56711" lon="-1.82343"><ele>73.46</ele></trkpt><trkpt lat="49.56696" lon="-1.82377"><ele>74.12</ele></trkpt><trkpt lat="49.56647" lon="-1.82397"><ele>73.89</ele></trkpt><trkpt lat="49.56609" lon="-1.82377"><ele>73.64</ele></trkpt><trkpt lat="49.56571" lon="-1.82482"><ele>71</ele></trkpt><trkpt lat="49.56537" lon="-1.82463"><ele>71.42</ele></trkpt><trkpt lat="49.56537" lon="-1.82461"><ele>71.42</ele></trkpt><trkpt lat="49.56533" lon="-1.82461"><ele>71.32</ele></trkpt><trkpt lat="49.56529" lon="-1.8246"><ele>71.25</ele></trkpt><trkpt lat="49.56521" lon="-1.82461"><ele>71.27</ele></trkpt><trkpt lat="49.56497" lon="-1.82474"><ele>70.79</ele></trkpt><trkpt lat="49.56472" lon="-1.82489"><ele>70.06</ele></trkpt><trkpt lat="49.56462" lon="-1.82497"><ele>70.19</ele></trkpt><trkpt lat="49.56455" lon="-1.82503"><ele>69.65</ele></trkpt><trkpt lat="49.5643" lon="-1.82516"><ele>69.03</ele></trkpt><trkpt lat="49.56426" lon="-1.8252"><ele>68.9</ele></trkpt><trkpt lat="49.56424" lon="-1.82525"><ele>68.53</ele></trkpt><trkpt lat="49.56416" lon="-1.8257"><ele>65.88</ele></trkpt><trkpt lat="49.5641" lon="-1.82589"><ele>64.08</ele></trkpt><trkpt lat="49.56408" lon="-1.82594"><ele>63.23</ele></trkpt><trkpt lat="49.56399" lon="-1.82611"><ele>61.31</ele></trkpt><trkpt lat="49.56388" lon="-1.82627"><ele>59.04</ele></trkpt><trkpt lat="49.5638" lon="-1.82633"><ele>58.09</ele></trkpt><trkpt lat="49.56356" lon="-1.82644"><ele>55.14</ele></trkpt><trkpt lat="49.56337" lon="-1.82654"><ele>54.53</ele></trkpt><trkpt lat="49.56333" lon="-1.82664"><ele>54.15</ele></trkpt><trkpt lat="49.56331" lon="-1.82667"><ele>54.03</ele></trkpt><trkpt lat="49.56328" lon="-1.82675"><ele>53.8</ele></trkpt><trkpt lat="49.56321" lon="-1.82675"><ele>54.09</ele></trkpt><trkpt lat="49.56321" lon="-1.82683"><ele>54.69</ele></trkpt><trkpt lat="49.56321" lon="-1.82699"><ele>56.26</ele></trkpt><trkpt lat="49.5632" lon="-1.82731"><ele>61.04</ele></trkpt><trkpt lat="49.56315" lon="-1.82771"><ele>64.4</ele></trkpt><trkpt lat="49.56315" lon="-1.82778"><ele>65.36</ele></trkpt><trkpt lat="49.56314" lon="-1.82792"><ele>65.66</ele></trkpt><trkpt lat="49.56315" lon="-1.82853"><ele>67.74</ele></trkpt><trkpt lat="49.56315" lon="-1.8286"><ele>68.14</ele></trkpt><trkpt lat="49.56316" lon="-1.82952"><ele>70.65</ele></trkpt><trkpt lat="49.56316" lon="-1.82958"><ele>70.94</ele></trkpt><trkpt lat="49.56315" lon="-1.83"><ele>71.56</ele></trkpt><trkpt lat="49.56313" lon="-1.83041"><ele>72.14</ele></trkpt><trkpt lat="49.5631" lon="-1.8307"><ele>72.31</ele></trkpt><trkpt lat="49.5631" lon="-1.83074"><ele>72.42</ele></trkpt><trkpt lat="49.56308" lon="-1.83089"><ele>72.54</ele></trkpt><trkpt lat="49.56302" lon="-1.83112"><ele>72.87</ele></trkpt><trkpt lat="49.563" lon="-1.83116"><ele>73.16</ele></trkpt><trkpt lat="49.56295" lon="-1.83129"><ele>73.52</ele></trkpt><trkpt lat="49.56284" lon="-1.83145"><ele>74.66</ele></trkpt><trkpt lat="49.56269" lon="-1.83162"><ele>75.58</ele></trkpt><trkpt lat="49.56266" lon="-1.83167"><ele>75.92</ele></trkpt><trkpt lat="49.56243" lon="-1.83192"><ele>77.91</ele></trkpt><trkpt lat="49.56231" lon="-1.83229"><ele>80.43</ele></trkpt><trkpt lat="49.56218" lon="-1.83257"><ele>81.97</ele></trkpt><trkpt lat="49.56204" lon="-1.83286"><ele>82.61</ele></trkpt><trkpt lat="49.56188" lon="-1.83324"><ele>84.49</ele></trkpt><trkpt lat="49.56178" lon="-1.83348"><ele>85.88</ele></trkpt><trkpt lat="49.56176" lon="-1.83346"><ele>86.38</ele></trkpt><trkpt lat="49.56102" lon="-1.83417"><ele>86.1</ele></trkpt><trkpt lat="49.56091" lon="-1.8349"><ele>83.96</ele></trkpt><trkpt lat="49.56053" lon="-1.83567"><ele>81.53</ele></trkpt><trkpt lat="49.55996" lon="-1.83663"><ele>76.45</ele></trkpt><trkpt lat="49.55957" lon="-1.83739"><ele>70.37</ele></trkpt><trkpt lat="49.55938" lon="-1.83751"><ele>70.71</ele></trkpt><trkpt lat="49.5592" lon="-1.83788"><ele>71.41</ele></trkpt><trkpt lat="49.55903" lon="-1.83827"><ele>72.5</ele></trkpt><trkpt lat="49.55874" lon="-1.83868"><ele>74.79</ele></trkpt><trkpt lat="49.55862" lon="-1.83911"><ele>74.69</ele></trkpt><trkpt lat="49.55844" lon="-1.83988"><ele>73.43</ele></trkpt><trkpt lat="49.55842" lon="-1.84002"><ele>72.95</ele></trkpt><trkpt lat="49.55824" lon="-1.83987"><ele>73.38</ele></trkpt></trkseg></trk></gpx>
