<?xml version="1.0" encoding="UTF-8" standalone="no"?>
<gpx xmlns="http://www.topografix.com/GPX/1/1" version="1.1" xmlns:xsi="http://www.w3.org/2001/XMLSchema-instance" xsi:schemaLocation="http://www.topografix.com/GPX/1/1 http://www.topografix.com/GPX/1/1/gpx.xsd" creator="Cirkwi"><metadata><name><![CDATA[Entre mare et dunes - n°106]]></name><desc><![CDATA[Vauville et sa plage bénéficient d'un micro-climat particulièrement doux. Située au bord d'une anse magnifique, on y découvre des panoramas superbes qui attirent les amoureux de la nature. La Réserve naturelle nationale de la Mare de Vauville peut être fermée lorsqu'elle est inondée en hiver. Dans ce cas, quittez le parcours avant le camping pour contourner la mare par la route vers le Petit Thôt.  Partez du parking du bourg, passez devant la mairie et, au niveau du lavoir, sur la rue principale, prenez à droite (Vauville, La Hague). Coordonnées GPS : 49°38'13.8"N, 1°50'40.3"W Suivez le circuit selon le sens inverse des aiguilles d'une montre. Le balisage est de couleur jaune. Le long du littoral, suivez le balisage du GR223 (rouge et blanc). Vous retrouverez ce circuit dans les topoguides "La Hague - Des Pieux et autour de Martinvast " et " Hors des Sentiers Battus " de l'Office de tourisme du Cotentin.   Pour une randonnée avec un chien, il est interdit de traverser la Mare de Vauville. Le passage sur la plage n'est pas toujours autorisé, renseignez-vous sur les affichages dédiés. Départ accessible en bus avec le réseau Cap Cotentin les week-ends et pendant les vacances scolaires à l'arrêt "Vauville - Le Bourg" (plus d'infos sur capcotentin.fr)]]></desc><author><name><![CDATA[Cotentin unique]]></name></author><link href="http://fichier0.cirkwi.com/image/photo/circuit/1300x1300/60173/fr/0.jpg"><text><![CDATA[|]]></text></link><link href="http://fichier0.cirkwi.com/image/photo/circuit/1300x1300/60173/fr/1.jpg"><text><![CDATA[|© Cap Cotentin]]></text></link><link href="http://fichier0.cirkwi.com/image/photo/circuit/1300x1300/60173/fr/2.jpg"><text><![CDATA[|© Cap Cotentin]]></text></link><link href="http://fichier0.cirkwi.com/image/photo/circuit/1300x1300/60173/fr/3.jpg"><text><![CDATA[|© Cap Cotentin]]></text></link><link href="http://fichier0.cirkwi.com/image/photo/circuit/1300x1300/60173/fr/4.jpg"><text><![CDATA[|© Cap Cotentin]]></text></link><time>2026-08-17T08:57:18Z</time></metadata><trk><trkseg><trkpt lat="49.63715" lon="-1.84429"><ele>19.13</ele></trkpt><trkpt lat="49.63714" lon="-1.84435"><ele>19.08</ele></trkpt><trkpt lat="49.6371" lon="-1.84455"><ele>18.91</ele></trkpt><trkpt lat="49.63699" lon="-1.84491"><ele>18.13</ele></trkpt><trkpt lat="49.63699" lon="-1.84493"><ele>18.13</ele></trkpt><trkpt lat="49.63695" lon="-1.84518"><ele>17.85</ele></trkpt><trkpt lat="49.63695" lon="-1.8452"><ele>17.78</ele></trkpt><trkpt lat="49.63694" lon="-1.84536"><ele>17.87</ele></trkpt><trkpt lat="49.63694" lon="-1.84545"><ele>18.01</ele></trkpt><trkpt lat="49.6369" lon="-1.84543"><ele>17.62</ele></trkpt><trkpt lat="49.63686" lon="-1.84542"><ele>18.18</ele></trkpt><trkpt lat="49.63686" lon="-1.84552"><ele>17.78</ele></trkpt><trkpt lat="49.63682" lon="-1.84569"><ele>17.57</ele></trkpt><trkpt lat="49.63673" lon="-1.84591"><ele>17.36</ele></trkpt><trkpt lat="49.63671" lon="-1.84597"><ele>17.18</ele></trkpt><trkpt lat="49.63667" lon="-1.8461"><ele>16.98</ele></trkpt><trkpt lat="49.63666" lon="-1.84613"><ele>16.98</ele></trkpt><trkpt lat="49.63663" lon="-1.84623"><ele>17.02</ele></trkpt><trkpt lat="49.63669" lon="-1.84636"><ele>16.79</ele></trkpt><trkpt lat="49.63672" lon="-1.84641"><ele>16.6</ele></trkpt><trkpt lat="49.63679" lon="-1.84651"><ele>16.06</ele></trkpt><trkpt lat="49.63688" lon="-1.84668"><ele>16.02</ele></trkpt><trkpt lat="49.63691" lon="-1.84674"><ele>16.57</ele></trkpt><trkpt lat="49.63694" lon="-1.8468"><ele>16.18</ele></trkpt><trkpt lat="49.63696" lon="-1.84683"><ele>15.75</ele></trkpt><trkpt lat="49.63706" lon="-1.84701"><ele>16.45</ele></trkpt><trkpt lat="49.63709" lon="-1.84706"><ele>16.65</ele></trkpt><trkpt lat="49.6372" lon="-1.84728"><ele>16.68</ele></trkpt><trkpt lat="49.6373" lon="-1.84748"><ele>17.17</ele></trkpt><trkpt lat="49.63736" lon="-1.84755"><ele>17.53</ele></trkpt><trkpt lat="49.63737" lon="-1.84756"><ele>17.53</ele></trkpt><trkpt lat="49.63738" lon="-1.84759"><ele>17.53</ele></trkpt><trkpt lat="49.63742" lon="-1.84766"><ele>17.65</ele></trkpt><trkpt lat="49.63743" lon="-1.84769"><ele>17.51</ele></trkpt><trkpt lat="49.63746" lon="-1.8477"><ele>17.83</ele></trkpt><trkpt lat="49.6375" lon="-1.84774"><ele>17.55</ele></trkpt><trkpt lat="49.63753" lon="-1.84775"><ele>17.49</ele></trkpt><trkpt lat="49.63761" lon="-1.84778"><ele>17.51</ele></trkpt><trkpt lat="49.63767" lon="-1.84779"><ele>17.74</ele></trkpt><trkpt lat="49.63778" lon="-1.84779"><ele>18.99</ele></trkpt><trkpt lat="49.63788" lon="-1.8478"><ele>19.2</ele></trkpt><trkpt lat="49.63808" lon="-1.84781"><ele>20.41</ele></trkpt><trkpt lat="49.63864" lon="-1.8478"><ele>23.4</ele></trkpt><trkpt lat="49.63886" lon="-1.84782"><ele>24.94</ele></trkpt><trkpt lat="49.639" lon="-1.84783"><ele>25.83</ele></trkpt><trkpt lat="49.63905" lon="-1.84784"><ele>26.36</ele></trkpt><trkpt lat="49.63921" lon="-1.84787"><ele>26.35</ele></trkpt><trkpt lat="49.63992" lon="-1.84806"><ele>23.9</ele></trkpt><trkpt lat="49.63995" lon="-1.84788"><ele>24.23</ele></trkpt><trkpt lat="49.63996" lon="-1.84776"><ele>24.41</ele></trkpt><trkpt lat="49.63998" lon="-1.84756"><ele>24.96</ele></trkpt><trkpt lat="49.63998" lon="-1.84748"><ele>25.18</ele></trkpt><trkpt lat="49.63999" lon="-1.8472"><ele>26</ele></trkpt><trkpt lat="49.64" lon="-1.847"><ele>26.64</ele></trkpt><trkpt lat="49.64001" lon="-1.84693"><ele>26.7</ele></trkpt><trkpt lat="49.64002" lon="-1.84687"><ele>26.79</ele></trkpt><trkpt lat="49.64008" lon="-1.84667"><ele>27.7</ele></trkpt><trkpt lat="49.64015" lon="-1.84657"><ele>28.57</ele></trkpt><trkpt lat="49.64022" lon="-1.8465"><ele>29.4</ele></trkpt><trkpt lat="49.64026" lon="-1.84645"><ele>29.58</ele></trkpt><trkpt lat="49.6403" lon="-1.84639"><ele>29.73</ele></trkpt><trkpt lat="49.64038" lon="-1.84618"><ele>31.24</ele></trkpt><trkpt lat="49.64042" lon="-1.84604"><ele>32.53</ele></trkpt><trkpt lat="49.64046" lon="-1.8459"><ele>33.31</ele></trkpt><trkpt lat="49.64048" lon="-1.84584"><ele>33.82</ele></trkpt><trkpt lat="49.6405" lon="-1.8458"><ele>33.74</ele></trkpt><trkpt lat="49.64058" lon="-1.84564"><ele>34.93</ele></trkpt><trkpt lat="49.64062" lon="-1.8456"><ele>35.19</ele></trkpt><trkpt lat="49.64059" lon="-1.84577"><ele>35.54</ele></trkpt><trkpt lat="49.64058" lon="-1.84585"><ele>36.58</ele></trkpt><trkpt lat="49.64057" lon="-1.84597"><ele>38.45</ele></trkpt><trkpt lat="49.64056" lon="-1.84614"><ele>37.45</ele></trkpt><trkpt lat="49.64058" lon="-1.84623"><ele>38.88</ele></trkpt><trkpt lat="49.6406" lon="-1.84633"><ele>38.84</ele></trkpt><trkpt lat="49.64063" lon="-1.84638"><ele>39.63</ele></trkpt><trkpt lat="49.64065" lon="-1.84642"><ele>39.35</ele></trkpt><trkpt lat="49.64067" lon="-1.84643"><ele>40.28</ele></trkpt><trkpt lat="49.64074" lon="-1.84647"><ele>41.01</ele></trkpt><trkpt lat="49.64101" lon="-1.8465"><ele>44.17</ele></trkpt><trkpt lat="49.6411" lon="-1.84651"><ele>45.43</ele></trkpt><trkpt lat="49.64122" lon="-1.84654"><ele>47.28</ele></trkpt><trkpt lat="49.64132" lon="-1.8466"><ele>48.59</ele></trkpt><trkpt lat="49.6415" lon="-1.84669"><ele>50.6</ele></trkpt><trkpt lat="49.64154" lon="-1.84672"><ele>50.99</ele></trkpt><trkpt lat="49.64165" lon="-1.84679"><ele>52.7</ele></trkpt><trkpt lat="49.64182" lon="-1.84693"><ele>55.43</ele></trkpt><trkpt lat="49.64197" lon="-1.84707"><ele>57.2</ele></trkpt><trkpt lat="49.64201" lon="-1.84711"><ele>57.59</ele></trkpt><trkpt lat="49.6422" lon="-1.84735"><ele>60.47</ele></trkpt><trkpt lat="49.64238" lon="-1.84761"><ele>62.48</ele></trkpt><trkpt lat="49.6425" lon="-1.84778"><ele>64.53</ele></trkpt><trkpt lat="49.64253" lon="-1.84781"><ele>64.25</ele></trkpt><trkpt lat="49.6426" lon="-1.84782"><ele>65.51</ele></trkpt><trkpt lat="49.64262" lon="-1.84793"><ele>64.95</ele></trkpt><trkpt lat="49.64267" lon="-1.84807"><ele>64.05</ele></trkpt><trkpt lat="49.64268" lon="-1.84811"><ele>63.56</ele></trkpt><trkpt lat="49.64273" lon="-1.84819"><ele>63.44</ele></trkpt><trkpt lat="49.6428" lon="-1.84826"><ele>62.75</ele></trkpt><trkpt lat="49.6431" lon="-1.84856"><ele>56.56</ele></trkpt><trkpt lat="49.64328" lon="-1.84873"><ele>53.17</ele></trkpt><trkpt lat="49.64338" lon="-1.84884"><ele>51.08</ele></trkpt><trkpt lat="49.64345" lon="-1.84893"><ele>49.87</ele></trkpt><trkpt lat="49.64347" lon="-1.84897"><ele>49.78</ele></trkpt><trkpt lat="49.64352" lon="-1.84908"><ele>48.25</ele></trkpt><trkpt lat="49.64352" lon="-1.84909"><ele>48.25</ele></trkpt><trkpt lat="49.6436" lon="-1.84933"><ele>44.52</ele></trkpt><trkpt lat="49.64362" lon="-1.8494"><ele>42.81</ele></trkpt><trkpt lat="49.64363" lon="-1.84946"><ele>42.17</ele></trkpt><trkpt lat="49.64366" lon="-1.84956"><ele>41.11</ele></trkpt><trkpt lat="49.64369" lon="-1.84948"><ele>41.56</ele></trkpt><trkpt lat="49.6437" lon="-1.84943"><ele>41.98</ele></trkpt><trkpt lat="49.6437" lon="-1.84939"><ele>42.48</ele></trkpt><trkpt lat="49.6437" lon="-1.8493"><ele>43.41</ele></trkpt><trkpt lat="49.64372" lon="-1.84902"><ele>44.32</ele></trkpt><trkpt lat="49.64372" lon="-1.849"><ele>44.35</ele></trkpt><trkpt lat="49.64372" lon="-1.84899"><ele>44.35</ele></trkpt><trkpt lat="49.64373" lon="-1.84898"><ele>44.35</ele></trkpt><trkpt lat="49.64381" lon="-1.84898"><ele>44.11</ele></trkpt><trkpt lat="49.64391" lon="-1.849"><ele>44.15</ele></trkpt><trkpt lat="49.644" lon="-1.84903"><ele>44.58</ele></trkpt><trkpt lat="49.64403" lon="-1.84903"><ele>44.58</ele></trkpt><trkpt lat="49.64418" lon="-1.84903"><ele>46.09</ele></trkpt><trkpt lat="49.64421" lon="-1.84902"><ele>46.09</ele></trkpt><trkpt lat="49.64428" lon="-1.849"><ele>47.64</ele></trkpt><trkpt lat="49.64438" lon="-1.84897"><ele>48.63</ele></trkpt><trkpt lat="49.6444" lon="-1.84897"><ele>49.41</ele></trkpt><trkpt lat="49.64444" lon="-1.84897"><ele>50.48</ele></trkpt><trkpt lat="49.64452" lon="-1.84896"><ele>52.22</ele></trkpt><trkpt lat="49.64456" lon="-1.84897"><ele>53.35</ele></trkpt><trkpt lat="49.64479" lon="-1.84899"><ele>57</ele></trkpt><trkpt lat="49.64492" lon="-1.84904"><ele>56.56</ele></trkpt><trkpt lat="49.64494" lon="-1.84905"><ele>56.56</ele></trkpt><trkpt lat="49.64511" lon="-1.849"><ele>56.29</ele></trkpt><trkpt lat="49.64527" lon="-1.84892"><ele>54.28</ele></trkpt><trkpt lat="49.64531" lon="-1.8489"><ele>53.28</ele></trkpt><trkpt lat="49.64535" lon="-1.84888"><ele>52.31</ele></trkpt><trkpt lat="49.64544" lon="-1.84886"><ele>51.65</ele></trkpt><trkpt lat="49.64549" lon="-1.84884"><ele>51.17</ele></trkpt><trkpt lat="49.64559" lon="-1.84883"><ele>50.84</ele></trkpt><trkpt lat="49.64562" lon="-1.84884"><ele>50.56</ele></trkpt><trkpt lat="49.6458" lon="-1.84889"><ele>50.55</ele></trkpt><trkpt lat="49.64587" lon="-1.84891"><ele>50.38</ele></trkpt><trkpt lat="49.64595" lon="-1.84895"><ele>50.16</ele></trkpt><trkpt lat="49.64597" lon="-1.84898"><ele>50.14</ele></trkpt><trkpt lat="49.64603" lon="-1.84905"><ele>49.9</ele></trkpt><trkpt lat="49.64605" lon="-1.84908"><ele>49.42</ele></trkpt><trkpt lat="49.64612" lon="-1.84911"><ele>48.49</ele></trkpt><trkpt lat="49.6463" lon="-1.84918"><ele>47.11</ele></trkpt><trkpt lat="49.64637" lon="-1.84921"><ele>47.51</ele></trkpt><trkpt lat="49.64644" lon="-1.84928"><ele>46.61</ele></trkpt><trkpt lat="49.64646" lon="-1.8493"><ele>46.99</ele></trkpt><trkpt lat="49.64656" lon="-1.84942"><ele>45.76</ele></trkpt><trkpt lat="49.6466" lon="-1.84946"><ele>45.4</ele></trkpt><trkpt lat="49.64671" lon="-1.84955"><ele>44.6</ele></trkpt><trkpt lat="49.64674" lon="-1.84963"><ele>43.18</ele></trkpt><trkpt lat="49.64654" lon="-1.84953"><ele>42.44</ele></trkpt><trkpt lat="49.6465" lon="-1.84955"><ele>41.93</ele></trkpt><trkpt lat="49.64648" lon="-1.84957"><ele>41.15</ele></trkpt><trkpt lat="49.64645" lon="-1.84969"><ele>39.95</ele></trkpt><trkpt lat="49.64643" lon="-1.84977"><ele>39.23</ele></trkpt><trkpt lat="49.6464" lon="-1.84996"><ele>37.83</ele></trkpt><trkpt lat="49.64639" lon="-1.85002"><ele>37.72</ele></trkpt><trkpt lat="49.64637" lon="-1.85019"><ele>37.31</ele></trkpt><trkpt lat="49.64636" lon="-1.85023"><ele>37.52</ele></trkpt><trkpt lat="49.64636" lon="-1.85026"><ele>37.52</ele></trkpt><trkpt lat="49.64634" lon="-1.85043"><ele>37.89</ele></trkpt><trkpt lat="49.64633" lon="-1.85052"><ele>38.39</ele></trkpt><trkpt lat="49.64635" lon="-1.85064"><ele>38.91</ele></trkpt><trkpt lat="49.64649" lon="-1.85071"><ele>40.53</ele></trkpt><trkpt lat="49.64653" lon="-1.85073"><ele>40.87</ele></trkpt><trkpt lat="49.6465" lon="-1.85086"><ele>42.16</ele></trkpt><trkpt lat="49.64659" lon="-1.8509"><ele>43.21</ele></trkpt><trkpt lat="49.64667" lon="-1.85095"><ele>44.66</ele></trkpt><trkpt lat="49.6467" lon="-1.85096"><ele>44.66</ele></trkpt><trkpt lat="49.64676" lon="-1.851"><ele>45.77</ele></trkpt><trkpt lat="49.64682" lon="-1.8511"><ele>47.12</ele></trkpt><trkpt lat="49.64696" lon="-1.85128"><ele>49.58</ele></trkpt><trkpt lat="49.64696" lon="-1.85129"><ele>50.24</ele></trkpt><trkpt lat="49.64705" lon="-1.8514"><ele>51.98</ele></trkpt><trkpt lat="49.6471" lon="-1.85144"><ele>53.09</ele></trkpt><trkpt lat="49.64712" lon="-1.85146"><ele>54.98</ele></trkpt><trkpt lat="49.64717" lon="-1.85147"><ele>54.8</ele></trkpt><trkpt lat="49.64721" lon="-1.85147"><ele>55.22</ele></trkpt><trkpt lat="49.64729" lon="-1.85148"><ele>57.2</ele></trkpt><trkpt lat="49.64764" lon="-1.85142"><ele>63.13</ele></trkpt><trkpt lat="49.6477" lon="-1.85141"><ele>63.42</ele></trkpt><trkpt lat="49.64782" lon="-1.85139"><ele>66.62</ele></trkpt><trkpt lat="49.64784" lon="-1.85139"><ele>66.62</ele></trkpt><trkpt lat="49.64806" lon="-1.85136"><ele>69.99</ele></trkpt><trkpt lat="49.64817" lon="-1.85134"><ele>73.03</ele></trkpt><trkpt lat="49.64835" lon="-1.85132"><ele>74.25</ele></trkpt><trkpt lat="49.64843" lon="-1.85132"><ele>75.94</ele></trkpt><trkpt lat="49.64853" lon="-1.85132"><ele>77.54</ele></trkpt><trkpt lat="49.64864" lon="-1.85132"><ele>80.11</ele></trkpt><trkpt lat="49.6488" lon="-1.85129"><ele>83.58</ele></trkpt><trkpt lat="49.64889" lon="-1.85129"><ele>85.9</ele></trkpt><trkpt lat="49.64898" lon="-1.85129"><ele>88.13</ele></trkpt><trkpt lat="49.64907" lon="-1.8513"><ele>89.49</ele></trkpt><trkpt lat="49.64925" lon="-1.85133"><ele>92.92</ele></trkpt><trkpt lat="49.64943" lon="-1.85136"><ele>93.21</ele></trkpt><trkpt lat="49.64961" lon="-1.85141"><ele>94.85</ele></trkpt><trkpt lat="49.64963" lon="-1.85141"><ele>95.04</ele></trkpt><trkpt lat="49.64977" lon="-1.85147"><ele>97.28</ele></trkpt><trkpt lat="49.64978" lon="-1.85147"><ele>97.28</ele></trkpt><trkpt lat="49.64984" lon="-1.85151"><ele>97.19</ele></trkpt><trkpt lat="49.65005" lon="-1.85165"><ele>97.52</ele></trkpt><trkpt lat="49.65011" lon="-1.85169"><ele>98.16</ele></trkpt><trkpt lat="49.65025" lon="-1.85177"><ele>99.3</ele></trkpt><trkpt lat="49.65028" lon="-1.85177"><ele>99.49</ele></trkpt><trkpt lat="49.65034" lon="-1.85178"><ele>99.99</ele></trkpt><trkpt lat="49.65036" lon="-1.85182"><ele>101.84</ele></trkpt><trkpt lat="49.65037" lon="-1.85204"><ele>107.12</ele></trkpt><trkpt lat="49.65037" lon="-1.85206"><ele>108.06</ele></trkpt><trkpt lat="49.65035" lon="-1.85215"><ele>110.36</ele></trkpt><trkpt lat="49.65038" lon="-1.85231"><ele>112.35</ele></trkpt><trkpt lat="49.65035" lon="-1.85236"><ele>115.21</ele></trkpt><trkpt lat="49.65031" lon="-1.85238"><ele>115.8</ele></trkpt><trkpt lat="49.65022" lon="-1.85234"><ele>115.87</ele></trkpt><trkpt lat="49.6501" lon="-1.85229"><ele>115.44</ele></trkpt><trkpt lat="49.65005" lon="-1.8523"><ele>115.6</ele></trkpt><trkpt lat="49.65005" lon="-1.85231"><ele>115.6</ele></trkpt><trkpt lat="49.65001" lon="-1.85235"><ele>116.78</ele></trkpt><trkpt lat="49.64997" lon="-1.85244"><ele>118.31</ele></trkpt><trkpt lat="49.64995" lon="-1.85253"><ele>120.08</ele></trkpt><trkpt lat="49.64995" lon="-1.85254"><ele>120.08</ele></trkpt><trkpt lat="49.64994" lon="-1.85281"><ele>122.84</ele></trkpt><trkpt lat="49.64993" lon="-1.85296"><ele>124.13</ele></trkpt><trkpt lat="49.64991" lon="-1.85308"><ele>124.87</ele></trkpt><trkpt lat="49.64989" lon="-1.85321"><ele>125.54</ele></trkpt><trkpt lat="49.64985" lon="-1.85327"><ele>126.37</ele></trkpt><trkpt lat="49.64982" lon="-1.85331"><ele>126.49</ele></trkpt><trkpt lat="49.64967" lon="-1.85346"><ele>126.96</ele></trkpt><trkpt lat="49.64965" lon="-1.85348"><ele>126.89</ele></trkpt><trkpt lat="49.64964" lon="-1.85355"><ele>126.97</ele></trkpt><trkpt lat="49.64963" lon="-1.85372"><ele>127.29</ele></trkpt><trkpt lat="49.64963" lon="-1.85373"><ele>127.3</ele></trkpt><trkpt lat="49.64977" lon="-1.85406"><ele>127.97</ele></trkpt><trkpt lat="49.64972" lon="-1.85435"><ele>127.72</ele></trkpt><trkpt lat="49.64985" lon="-1.85438"><ele>128.41</ele></trkpt><trkpt lat="49.65001" lon="-1.85441"><ele>128.99</ele></trkpt><trkpt lat="49.65015" lon="-1.85441"><ele>129.48</ele></trkpt><trkpt lat="49.65033" lon="-1.85441"><ele>130.47</ele></trkpt><trkpt lat="49.65044" lon="-1.8544"><ele>131.06</ele></trkpt><trkpt lat="49.65051" lon="-1.8544"><ele>131.28</ele></trkpt><trkpt lat="49.65058" lon="-1.85439"><ele>131.79</ele></trkpt><trkpt lat="49.65071" lon="-1.85435"><ele>132.18</ele></trkpt><trkpt lat="49.65073" lon="-1.85434"><ele>132.18</ele></trkpt><trkpt lat="49.65086" lon="-1.85428"><ele>132.21</ele></trkpt><trkpt lat="49.65097" lon="-1.85428"><ele>132.6</ele></trkpt><trkpt lat="49.6512" lon="-1.85434"><ele>133.67</ele></trkpt><trkpt lat="49.6514" lon="-1.85435"><ele>134.01</ele></trkpt><trkpt lat="49.65151" lon="-1.85431"><ele>134.38</ele></trkpt><trkpt lat="49.65166" lon="-1.85421"><ele>134.55</ele></trkpt><trkpt lat="49.65176" lon="-1.85416"><ele>134.66</ele></trkpt><trkpt lat="49.65187" lon="-1.85412"><ele>134.8</ele></trkpt><trkpt lat="49.65189" lon="-1.85411"><ele>134.75</ele></trkpt><trkpt lat="49.65202" lon="-1.85409"><ele>134.91</ele></trkpt><trkpt lat="49.65209" lon="-1.8541"><ele>135.05</ele></trkpt><trkpt lat="49.65227" lon="-1.85412"><ele>135.24</ele></trkpt><trkpt lat="49.65236" lon="-1.85412"><ele>135.33</ele></trkpt><trkpt lat="49.65249" lon="-1.85412"><ele>135.67</ele></trkpt><trkpt lat="49.6529" lon="-1.854"><ele>137.3</ele></trkpt><trkpt lat="49.65302" lon="-1.85398"><ele>137.95</ele></trkpt><trkpt lat="49.65314" lon="-1.85393"><ele>138.63</ele></trkpt><trkpt lat="49.65321" lon="-1.85386"><ele>138.97</ele></trkpt><trkpt lat="49.65333" lon="-1.85403"><ele>138.84</ele></trkpt><trkpt lat="49.65331" lon="-1.85426"><ele>137.89</ele></trkpt><trkpt lat="49.65331" lon="-1.85431"><ele>137.67</ele></trkpt><trkpt lat="49.65332" lon="-1.85438"><ele>136.99</ele></trkpt><trkpt lat="49.65335" lon="-1.85452"><ele>136.34</ele></trkpt><trkpt lat="49.65337" lon="-1.85466"><ele>135.57</ele></trkpt><trkpt lat="49.65337" lon="-1.85477"><ele>134.74</ele></trkpt><trkpt lat="49.65337" lon="-1.85488"><ele>134.2</ele></trkpt><trkpt lat="49.65337" lon="-1.85494"><ele>133.72</ele></trkpt><trkpt lat="49.65337" lon="-1.85522"><ele>131.92</ele></trkpt><trkpt lat="49.65337" lon="-1.85534"><ele>131.04</ele></trkpt><trkpt lat="49.65335" lon="-1.85566"><ele>128.38</ele></trkpt><trkpt lat="49.65333" lon="-1.85577"><ele>127.6</ele></trkpt><trkpt lat="49.65332" lon="-1.85579"><ele>127.27</ele></trkpt><trkpt lat="49.65329" lon="-1.85586"><ele>126.61</ele></trkpt><trkpt lat="49.65325" lon="-1.8559"><ele>126</ele></trkpt><trkpt lat="49.65316" lon="-1.85595"><ele>125.03</ele></trkpt><trkpt lat="49.65302" lon="-1.85598"><ele>123.87</ele></trkpt><trkpt lat="49.65301" lon="-1.85598"><ele>123.29</ele></trkpt><trkpt lat="49.65284" lon="-1.85598"><ele>121.43</ele></trkpt><trkpt lat="49.6528" lon="-1.85598"><ele>120.73</ele></trkpt><trkpt lat="49.65266" lon="-1.85596"><ele>118.45</ele></trkpt><trkpt lat="49.65256" lon="-1.85595"><ele>116.63</ele></trkpt><trkpt lat="49.65251" lon="-1.85597"><ele>115.63</ele></trkpt><trkpt lat="49.6525" lon="-1.85601"><ele>115.24</ele></trkpt><trkpt lat="49.65248" lon="-1.85606"><ele>114.47</ele></trkpt><trkpt lat="49.65244" lon="-1.85627"><ele>112.42</ele></trkpt><trkpt lat="49.65243" lon="-1.85635"><ele>110.99</ele></trkpt><trkpt lat="49.65233" lon="-1.8568"><ele>105.83</ele></trkpt><trkpt lat="49.65233" lon="-1.85682"><ele>105.19</ele></trkpt><trkpt lat="49.65229" lon="-1.85697"><ele>103.6</ele></trkpt><trkpt lat="49.65228" lon="-1.85707"><ele>103.21</ele></trkpt><trkpt lat="49.65229" lon="-1.85739"><ele>96.69</ele></trkpt><trkpt lat="49.65233" lon="-1.85758"><ele>93.84</ele></trkpt><trkpt lat="49.6524" lon="-1.85778"><ele>91</ele></trkpt><trkpt lat="49.65253" lon="-1.85808"><ele>87.48</ele></trkpt><trkpt lat="49.65257" lon="-1.85816"><ele>85.95</ele></trkpt><trkpt lat="49.65257" lon="-1.85817"><ele>85.95</ele></trkpt><trkpt lat="49.65266" lon="-1.85844"><ele>82.25</ele></trkpt><trkpt lat="49.65267" lon="-1.85851"><ele>80.06</ele></trkpt><trkpt lat="49.65267" lon="-1.85858"><ele>79.21</ele></trkpt><trkpt lat="49.65267" lon="-1.85873"><ele>78</ele></trkpt><trkpt lat="49.65267" lon="-1.85882"><ele>76.91</ele></trkpt><trkpt lat="49.65265" lon="-1.85913"><ele>73.63</ele></trkpt><trkpt lat="49.65264" lon="-1.85916"><ele>72.7</ele></trkpt><trkpt lat="49.65259" lon="-1.8594"><ele>68.31</ele></trkpt><trkpt lat="49.65257" lon="-1.8595"><ele>67.95</ele></trkpt><trkpt lat="49.65252" lon="-1.85965"><ele>66.29</ele></trkpt><trkpt lat="49.65251" lon="-1.8597"><ele>64.55</ele></trkpt><trkpt lat="49.65241" lon="-1.85995"><ele>61.68</ele></trkpt><trkpt lat="49.65235" lon="-1.86007"><ele>60.35</ele></trkpt><trkpt lat="49.65231" lon="-1.86017"><ele>59.26</ele></trkpt><trkpt lat="49.6522" lon="-1.86039"><ele>57.15</ele></trkpt><trkpt lat="49.65217" lon="-1.86045"><ele>57.54</ele></trkpt><trkpt lat="49.65212" lon="-1.86064"><ele>55.28</ele></trkpt><trkpt lat="49.65206" lon="-1.86086"><ele>54.55</ele></trkpt><trkpt lat="49.65205" lon="-1.8609"><ele>53.99</ele></trkpt><trkpt lat="49.65202" lon="-1.86098"><ele>54.8</ele></trkpt><trkpt lat="49.65195" lon="-1.86117"><ele>52.58</ele></trkpt><trkpt lat="49.65193" lon="-1.86136"><ele>52.83</ele></trkpt><trkpt lat="49.65193" lon="-1.86141"><ele>52.45</ele></trkpt><trkpt lat="49.65194" lon="-1.86159"><ele>49.44</ele></trkpt><trkpt lat="49.65195" lon="-1.86169"><ele>49.19</ele></trkpt><trkpt lat="49.652" lon="-1.86195"><ele>47.79</ele></trkpt><trkpt lat="49.652" lon="-1.86197"><ele>48.14</ele></trkpt><trkpt lat="49.65207" lon="-1.86221"><ele>45.98</ele></trkpt><trkpt lat="49.65208" lon="-1.86226"><ele>46.19</ele></trkpt><trkpt lat="49.65212" lon="-1.8624"><ele>46.3</ele></trkpt><trkpt lat="49.65215" lon="-1.86246"><ele>47.13</ele></trkpt><trkpt lat="49.65218" lon="-1.86253"><ele>45.84</ele></trkpt><trkpt lat="49.65222" lon="-1.86271"><ele>44.77</ele></trkpt><trkpt lat="49.65224" lon="-1.86282"><ele>42.74</ele></trkpt><trkpt lat="49.65227" lon="-1.86298"><ele>43.02</ele></trkpt><trkpt lat="49.65231" lon="-1.86316"><ele>41.08</ele></trkpt><trkpt lat="49.65238" lon="-1.86343"><ele>38.68</ele></trkpt><trkpt lat="49.65241" lon="-1.86349"><ele>37.32</ele></trkpt><trkpt lat="49.65248" lon="-1.86368"><ele>36.71</ele></trkpt><trkpt lat="49.65251" lon="-1.8637"><ele>35.29</ele></trkpt><trkpt lat="49.65252" lon="-1.86371"><ele>35.29</ele></trkpt><trkpt lat="49.65262" lon="-1.86368"><ele>34.24</ele></trkpt><trkpt lat="49.65267" lon="-1.86368"><ele>33.33</ele></trkpt><trkpt lat="49.65269" lon="-1.86387"><ele>31.76</ele></trkpt><trkpt lat="49.65269" lon="-1.86409"><ele>30.24</ele></trkpt><trkpt lat="49.65266" lon="-1.86424"><ele>29.78</ele></trkpt><trkpt lat="49.65263" lon="-1.86438"><ele>28.09</ele></trkpt><trkpt lat="49.6526" lon="-1.86445"><ele>27.67</ele></trkpt><trkpt lat="49.65251" lon="-1.86435"><ele>28.88</ele></trkpt><trkpt lat="49.65245" lon="-1.86429"><ele>29.51</ele></trkpt><trkpt lat="49.65241" lon="-1.86424"><ele>30.42</ele></trkpt><trkpt lat="49.65228" lon="-1.86409"><ele>30.95</ele></trkpt><trkpt lat="49.65219" lon="-1.86391"><ele>31.72</ele></trkpt><trkpt lat="49.65207" lon="-1.8637"><ele>33.2</ele></trkpt><trkpt lat="49.65204" lon="-1.86366"><ele>32.51</ele></trkpt><trkpt lat="49.65196" lon="-1.86348"><ele>33.12</ele></trkpt><trkpt lat="49.65194" lon="-1.86345"><ele>33.89</ele></trkpt><trkpt lat="49.65184" lon="-1.86324"><ele>33.5</ele></trkpt><trkpt lat="49.65172" lon="-1.86292"><ele>34.37</ele></trkpt><trkpt lat="49.65167" lon="-1.86278"><ele>35.64</ele></trkpt><trkpt lat="49.65163" lon="-1.86266"><ele>35.37</ele></trkpt><trkpt lat="49.6516" lon="-1.86253"><ele>37.55</ele></trkpt><trkpt lat="49.65156" lon="-1.8624"><ele>37.87</ele></trkpt><trkpt lat="49.65154" lon="-1.86234"><ele>37.58</ele></trkpt><trkpt lat="49.65152" lon="-1.86228"><ele>38.24</ele></trkpt><trkpt lat="49.65145" lon="-1.86207"><ele>38.89</ele></trkpt><trkpt lat="49.65131" lon="-1.86171"><ele>41.75</ele></trkpt><trkpt lat="49.65126" lon="-1.8616"><ele>42.22</ele></trkpt><trkpt lat="49.65124" lon="-1.86156"><ele>42.08</ele></trkpt><trkpt lat="49.65118" lon="-1.86146"><ele>42.99</ele></trkpt><trkpt lat="49.65113" lon="-1.86135"><ele>43.9</ele></trkpt><trkpt lat="49.65112" lon="-1.86134"><ele>43.74</ele></trkpt><trkpt lat="49.65106" lon="-1.86122"><ele>44.27</ele></trkpt><trkpt lat="49.651" lon="-1.86115"><ele>44.28</ele></trkpt><trkpt lat="49.65096" lon="-1.8611"><ele>44.1</ele></trkpt><trkpt lat="49.65088" lon="-1.86094"><ele>45.02</ele></trkpt><trkpt lat="49.65082" lon="-1.8608"><ele>45.53</ele></trkpt><trkpt lat="49.65078" lon="-1.86071"><ele>46.7</ele></trkpt><trkpt lat="49.65069" lon="-1.86048"><ele>46.83</ele></trkpt><trkpt lat="49.65069" lon="-1.86047"><ele>46.83</ele></trkpt><trkpt lat="49.65065" lon="-1.86033"><ele>50.09</ele></trkpt><trkpt lat="49.65055" lon="-1.86004"><ele>52.17</ele></trkpt><trkpt lat="49.65044" lon="-1.85974"><ele>56.17</ele></trkpt><trkpt lat="49.65042" lon="-1.85967"><ele>56.96</ele></trkpt><trkpt lat="49.65036" lon="-1.85954"><ele>58.47</ele></trkpt><trkpt lat="49.65034" lon="-1.8595"><ele>58.7</ele></trkpt><trkpt lat="49.65019" lon="-1.85935"><ele>59.32</ele></trkpt><trkpt lat="49.65004" lon="-1.8592"><ele>58.89</ele></trkpt><trkpt lat="49.65003" lon="-1.85918"><ele>58.89</ele></trkpt><trkpt lat="49.64974" lon="-1.85891"><ele>59.37</ele></trkpt><trkpt lat="49.64958" lon="-1.85876"><ele>59.24</ele></trkpt><trkpt lat="49.64952" lon="-1.85871"><ele>58.1</ele></trkpt><trkpt lat="49.64952" lon="-1.8587"><ele>59.06</ele></trkpt><trkpt lat="49.64931" lon="-1.85845"><ele>57.59</ele></trkpt><trkpt lat="49.64912" lon="-1.85826"><ele>57.89</ele></trkpt><trkpt lat="49.64908" lon="-1.85825"><ele>57.32</ele></trkpt><trkpt lat="49.64903" lon="-1.85823"><ele>56.75</ele></trkpt><trkpt lat="49.64896" lon="-1.8582"><ele>55.22</ele></trkpt><trkpt lat="49.64888" lon="-1.85819"><ele>53.6</ele></trkpt><trkpt lat="49.64888" lon="-1.85817"><ele>53.6</ele></trkpt><trkpt lat="49.64897" lon="-1.85818"><ele>55.23</ele></trkpt><trkpt lat="49.64904" lon="-1.8582"><ele>56.75</ele></trkpt><trkpt lat="49.6491" lon="-1.85819"><ele>57.7</ele></trkpt><trkpt lat="49.6491" lon="-1.85815"><ele>57.7</ele></trkpt><trkpt lat="49.64903" lon="-1.85797"><ele>59.96</ele></trkpt><trkpt lat="49.64899" lon="-1.85786"><ele>60.36</ele></trkpt><trkpt lat="49.64884" lon="-1.8575"><ele>63.03</ele></trkpt><trkpt lat="49.64878" lon="-1.85735"><ele>64.23</ele></trkpt><trkpt lat="49.64857" lon="-1.85704"><ele>66.85</ele></trkpt><trkpt lat="49.64841" lon="-1.8568"><ele>69.29</ele></trkpt><trkpt lat="49.6483" lon="-1.85664"><ele>71.09</ele></trkpt><trkpt lat="49.64811" lon="-1.8565"><ele>71.73</ele></trkpt><trkpt lat="49.6479" lon="-1.85627"><ele>73.95</ele></trkpt><trkpt lat="49.64772" lon="-1.85607"><ele>76.32</ele></trkpt><trkpt lat="49.64769" lon="-1.85603"><ele>76.95</ele></trkpt><trkpt lat="49.64747" lon="-1.85571"><ele>79.34</ele></trkpt><trkpt lat="49.64731" lon="-1.85543"><ele>79.99</ele></trkpt><trkpt lat="49.64727" lon="-1.85525"><ele>79.98</ele></trkpt><trkpt lat="49.64723" lon="-1.85499"><ele>79.35</ele></trkpt><trkpt lat="49.64719" lon="-1.85462"><ele>78.08</ele></trkpt><trkpt lat="49.64711" lon="-1.85414"><ele>75.39</ele></trkpt><trkpt lat="49.64705" lon="-1.85392"><ele>75.51</ele></trkpt><trkpt lat="49.64696" lon="-1.85367"><ele>74.84</ele></trkpt><trkpt lat="49.64689" lon="-1.85357"><ele>73.74</ele></trkpt><trkpt lat="49.64672" lon="-1.85345"><ele>71.96</ele></trkpt><trkpt lat="49.64667" lon="-1.85342"><ele>71.51</ele></trkpt><trkpt lat="49.64652" lon="-1.85324"><ele>68.19</ele></trkpt><trkpt lat="49.64628" lon="-1.85291"><ele>63.63</ele></trkpt><trkpt lat="49.64607" lon="-1.85257"><ele>57.54</ele></trkpt><trkpt lat="49.64596" lon="-1.85235"><ele>54.56</ele></trkpt><trkpt lat="49.64593" lon="-1.85225"><ele>54.82</ele></trkpt><trkpt lat="49.64585" lon="-1.85198"><ele>54.26</ele></trkpt><trkpt lat="49.64578" lon="-1.85167"><ele>54.02</ele></trkpt><trkpt lat="49.64574" lon="-1.8514"><ele>51.98</ele></trkpt><trkpt lat="49.64573" lon="-1.85133"><ele>51.48</ele></trkpt><trkpt lat="49.64574" lon="-1.85125"><ele>50.23</ele></trkpt><trkpt lat="49.64577" lon="-1.85115"><ele>48.01</ele></trkpt><trkpt lat="49.64586" lon="-1.85091"><ele>44.72</ele></trkpt><trkpt lat="49.64588" lon="-1.85086"><ele>44.57</ele></trkpt><trkpt lat="49.64596" lon="-1.85085"><ele>43.79</ele></trkpt><trkpt lat="49.64607" lon="-1.85086"><ele>43.13</ele></trkpt><trkpt lat="49.64618" lon="-1.85086"><ele>43.07</ele></trkpt><trkpt lat="49.64623" lon="-1.85085"><ele>42.99</ele></trkpt><trkpt lat="49.6464" lon="-1.85083"><ele>43.04</ele></trkpt><trkpt lat="49.64649" lon="-1.8508"><ele>41.37</ele></trkpt><trkpt lat="49.64653" lon="-1.85073"><ele>40.87</ele></trkpt><trkpt lat="49.64644" lon="-1.85067"><ele>39.7</ele></trkpt><trkpt lat="49.64632" lon="-1.85061"><ele>38.86</ele></trkpt><trkpt lat="49.64622" lon="-1.85057"><ele>37.68</ele></trkpt><trkpt lat="49.64604" lon="-1.85051"><ele>35.92</ele></trkpt><trkpt lat="49.64589" lon="-1.85048"><ele>34.71</ele></trkpt><trkpt lat="49.64579" lon="-1.85047"><ele>33.58</ele></trkpt><trkpt lat="49.6456" lon="-1.85042"><ele>32.16</ele></trkpt><trkpt lat="49.6454" lon="-1.85041"><ele>30.59</ele></trkpt><trkpt lat="49.64522" lon="-1.8504"><ele>29.71</ele></trkpt><trkpt lat="49.64508" lon="-1.85042"><ele>29.25</ele></trkpt><trkpt lat="49.64502" lon="-1.85046"><ele>29.04</ele></trkpt><trkpt lat="49.64494" lon="-1.85055"><ele>28.82</ele></trkpt><trkpt lat="49.6446" lon="-1.85109"><ele>26.54</ele></trkpt><trkpt lat="49.64448" lon="-1.85127"><ele>25.66</ele></trkpt><trkpt lat="49.6444" lon="-1.85136"><ele>25.28</ele></trkpt><trkpt lat="49.64446" lon="-1.85139"><ele>25.12</ele></trkpt><trkpt lat="49.6445" lon="-1.85136"><ele>24.78</ele></trkpt><trkpt lat="49.64455" lon="-1.85145"><ele>25.01</ele></trkpt><trkpt lat="49.64447" lon="-1.85162"><ele>23.45</ele></trkpt><trkpt lat="49.64439" lon="-1.85181"><ele>24.26</ele></trkpt><trkpt lat="49.64438" lon="-1.85187"><ele>23.17</ele></trkpt><trkpt lat="49.64435" lon="-1.85201"><ele>24.49</ele></trkpt><trkpt lat="49.64434" lon="-1.85217"><ele>23.55</ele></trkpt><trkpt lat="49.64434" lon="-1.8523"><ele>23.85</ele></trkpt><trkpt lat="49.64433" lon="-1.85245"><ele>24.16</ele></trkpt><trkpt lat="49.64432" lon="-1.85253"><ele>24.74</ele></trkpt><trkpt lat="49.64429" lon="-1.85262"><ele>24.56</ele></trkpt><trkpt lat="49.6442" lon="-1.8528"><ele>23.98</ele></trkpt><trkpt lat="49.64409" lon="-1.85295"><ele>22.81</ele></trkpt><trkpt lat="49.64394" lon="-1.85271"><ele>20.72</ele></trkpt><trkpt lat="49.64391" lon="-1.85277"><ele>20.59</ele></trkpt><trkpt lat="49.64348" lon="-1.85321"><ele>17.46</ele></trkpt><trkpt lat="49.64327" lon="-1.85347"><ele>17.02</ele></trkpt><trkpt lat="49.64313" lon="-1.85365"><ele>15.06</ele></trkpt><trkpt lat="49.64304" lon="-1.85376"><ele>13.92</ele></trkpt><trkpt lat="49.64298" lon="-1.85384"><ele>13.13</ele></trkpt><trkpt lat="49.64294" lon="-1.85397"><ele>12.04</ele></trkpt><trkpt lat="49.64288" lon="-1.8543"><ele>9.84</ele></trkpt><trkpt lat="49.64283" lon="-1.85442"><ele>9.41</ele></trkpt><trkpt lat="49.64263" lon="-1.85475"><ele>8.76</ele></trkpt><trkpt lat="49.64257" lon="-1.85471"><ele>11.14</ele></trkpt><trkpt lat="49.64255" lon="-1.85476"><ele>8.99</ele></trkpt><trkpt lat="49.64253" lon="-1.85474"><ele>12.59</ele></trkpt><trkpt lat="49.64251" lon="-1.85473"><ele>12.59</ele></trkpt><trkpt lat="49.6425" lon="-1.85474"><ele>12.59</ele></trkpt><trkpt lat="49.64249" lon="-1.85472"><ele>13.85</ele></trkpt><trkpt lat="49.64248" lon="-1.85468"><ele>14.11</ele></trkpt><trkpt lat="49.64234" lon="-1.85463"><ele>13.98</ele></trkpt><trkpt lat="49.64222" lon="-1.85455"><ele>14.17</ele></trkpt><trkpt lat="49.64201" lon="-1.85441"><ele>13.99</ele></trkpt><trkpt lat="49.6419" lon="-1.85431"><ele>13.75</ele></trkpt><trkpt lat="49.64169" lon="-1.85427"><ele>12.77</ele></trkpt><trkpt lat="49.6415" lon="-1.8542"><ele>12.29</ele></trkpt><trkpt lat="49.64139" lon="-1.85413"><ele>11.84</ele></trkpt><trkpt lat="49.64136" lon="-1.85411"><ele>12.04</ele></trkpt><trkpt lat="49.64125" lon="-1.85406"><ele>11.39</ele></trkpt><trkpt lat="49.64106" lon="-1.85396"><ele>10.58</ele></trkpt><trkpt lat="49.64098" lon="-1.85393"><ele>10.13</ele></trkpt><trkpt lat="49.64078" lon="-1.85381"><ele>10.31</ele></trkpt><trkpt lat="49.64064" lon="-1.85374"><ele>9.69</ele></trkpt><trkpt lat="49.6405" lon="-1.85366"><ele>9.61</ele></trkpt><trkpt lat="49.64047" lon="-1.85364"><ele>9.65</ele></trkpt><trkpt lat="49.64042" lon="-1.8536"><ele>9.48</ele></trkpt><trkpt lat="49.64033" lon="-1.85354"><ele>9</ele></trkpt><trkpt lat="49.64026" lon="-1.8535"><ele>9.22</ele></trkpt><trkpt lat="49.64016" lon="-1.85344"><ele>9.14</ele></trkpt><trkpt lat="49.64014" lon="-1.85342"><ele>9.38</ele></trkpt><trkpt lat="49.64011" lon="-1.85342"><ele>9.41</ele></trkpt><trkpt lat="49.64007" lon="-1.85341"><ele>9.37</ele></trkpt><trkpt lat="49.64003" lon="-1.85341"><ele>9.32</ele></trkpt><trkpt lat="49.63981" lon="-1.85333"><ele>9.4</ele></trkpt><trkpt lat="49.6397" lon="-1.85324"><ele>9.48</ele></trkpt><trkpt lat="49.63941" lon="-1.85307"><ele>9.48</ele></trkpt><trkpt lat="49.63936" lon="-1.85304"><ele>9.31</ele></trkpt><trkpt lat="49.63933" lon="-1.85306"><ele>9.27</ele></trkpt><trkpt lat="49.63928" lon="-1.85306"><ele>9.3</ele></trkpt><trkpt lat="49.6391" lon="-1.85295"><ele>9.3</ele></trkpt><trkpt lat="49.6387" lon="-1.85272"><ele>9.25</ele></trkpt><trkpt lat="49.6386" lon="-1.85266"><ele>9.27</ele></trkpt><trkpt lat="49.6385" lon="-1.85265"><ele>9.38</ele></trkpt><trkpt lat="49.63837" lon="-1.85258"><ele>9.4</ele></trkpt><trkpt lat="49.63829" lon="-1.85252"><ele>8.84</ele></trkpt><trkpt lat="49.63827" lon="-1.85251"><ele>8.84</ele></trkpt><trkpt lat="49.63825" lon="-1.8525"><ele>8.84</ele></trkpt><trkpt lat="49.63809" lon="-1.85242"><ele>9.07</ele></trkpt><trkpt lat="49.63797" lon="-1.85233"><ele>8.95</ele></trkpt><trkpt lat="49.63786" lon="-1.85225"><ele>9.16</ele></trkpt><trkpt lat="49.63776" lon="-1.85219"><ele>9.13</ele></trkpt><trkpt lat="49.63764" lon="-1.85216"><ele>9.25</ele></trkpt><trkpt lat="49.63746" lon="-1.85199"><ele>8.99</ele></trkpt><trkpt lat="49.63737" lon="-1.85189"><ele>8.6</ele></trkpt><trkpt lat="49.63724" lon="-1.85172"><ele>8</ele></trkpt><trkpt lat="49.63718" lon="-1.85163"><ele>7.38</ele></trkpt><trkpt lat="49.63711" lon="-1.85154"><ele>7.65</ele></trkpt><trkpt lat="49.63707" lon="-1.85153"><ele>8.42</ele></trkpt><trkpt lat="49.63705" lon="-1.85154"><ele>8.19</ele></trkpt><trkpt lat="49.63703" lon="-1.85155"><ele>8.49</ele></trkpt><trkpt lat="49.63701" lon="-1.85156"><ele>8.49</ele></trkpt><trkpt lat="49.63692" lon="-1.85159"><ele>8.74</ele></trkpt><trkpt lat="49.6368" lon="-1.85162"><ele>9.1</ele></trkpt><trkpt lat="49.63671" lon="-1.85163"><ele>9.7</ele></trkpt><trkpt lat="49.63662" lon="-1.85163"><ele>9.67</ele></trkpt><trkpt lat="49.63653" lon="-1.85163"><ele>9.54</ele></trkpt><trkpt lat="49.63647" lon="-1.85162"><ele>9.69</ele></trkpt><trkpt lat="49.63639" lon="-1.85159"><ele>9.88</ele></trkpt><trkpt lat="49.63631" lon="-1.85157"><ele>10.05</ele></trkpt><trkpt lat="49.63625" lon="-1.85153"><ele>10.02</ele></trkpt><trkpt lat="49.63619" lon="-1.85149"><ele>10.01</ele></trkpt><trkpt lat="49.63612" lon="-1.85142"><ele>9.88</ele></trkpt><trkpt lat="49.63604" lon="-1.85135"><ele>9.86</ele></trkpt><trkpt lat="49.63599" lon="-1.85128"><ele>9.95</ele></trkpt><trkpt lat="49.63593" lon="-1.85116"><ele>10.12</ele></trkpt><trkpt lat="49.63588" lon="-1.85105"><ele>10.28</ele></trkpt><trkpt lat="49.63585" lon="-1.85098"><ele>10.25</ele></trkpt><trkpt lat="49.63582" lon="-1.85091"><ele>10.36</ele></trkpt><trkpt lat="49.63579" lon="-1.85088"><ele>10.42</ele></trkpt><trkpt lat="49.63576" lon="-1.85085"><ele>10.34</ele></trkpt><trkpt lat="49.6357" lon="-1.85083"><ele>10.19</ele></trkpt><trkpt lat="49.63566" lon="-1.85083"><ele>10.32</ele></trkpt><trkpt lat="49.63559" lon="-1.85079"><ele>10.59</ele></trkpt><trkpt lat="49.63551" lon="-1.85075"><ele>10.71</ele></trkpt><trkpt lat="49.63544" lon="-1.85073"><ele>10.53</ele></trkpt><trkpt lat="49.63537" lon="-1.85072"><ele>10.67</ele></trkpt><trkpt lat="49.6353" lon="-1.85066"><ele>10.72</ele></trkpt><trkpt lat="49.63524" lon="-1.85061"><ele>10.86</ele></trkpt><trkpt lat="49.63519" lon="-1.85054"><ele>10.86</ele></trkpt><trkpt lat="49.63515" lon="-1.8505"><ele>10.87</ele></trkpt><trkpt lat="49.63511" lon="-1.8505"><ele>10.71</ele></trkpt><trkpt lat="49.63507" lon="-1.85051"><ele>10.41</ele></trkpt><trkpt lat="49.63497" lon="-1.85053"><ele>10.45</ele></trkpt><trkpt lat="49.63495" lon="-1.85045"><ele>10.44</ele></trkpt><trkpt lat="49.6349" lon="-1.85028"><ele>10.34</ele></trkpt><trkpt lat="49.63487" lon="-1.8501"><ele>10.31</ele></trkpt><trkpt lat="49.63479" lon="-1.85006"><ele>10.26</ele></trkpt><trkpt lat="49.63466" lon="-1.84999"><ele>10.06</ele></trkpt><trkpt lat="49.63452" lon="-1.84992"><ele>9.97</ele></trkpt><trkpt lat="49.63435" lon="-1.84985"><ele>9.9</ele></trkpt><trkpt lat="49.63368" lon="-1.84948"><ele>9.22</ele></trkpt><trkpt lat="49.63347" lon="-1.8494"><ele>8.97</ele></trkpt><trkpt lat="49.6334" lon="-1.84938"><ele>8.95</ele></trkpt><trkpt lat="49.63326" lon="-1.84936"><ele>8.37</ele></trkpt><trkpt lat="49.63326" lon="-1.84938"><ele>8.37</ele></trkpt><trkpt lat="49.63317" lon="-1.84937"><ele>7.99</ele></trkpt><trkpt lat="49.63312" lon="-1.84937"><ele>7.82</ele></trkpt><trkpt lat="49.63309" lon="-1.84937"><ele>7.69</ele></trkpt><trkpt lat="49.63296" lon="-1.84937"><ele>7.67</ele></trkpt><trkpt lat="49.63268" lon="-1.84933"><ele>6.94</ele></trkpt><trkpt lat="49.63255" lon="-1.8493"><ele>6.88</ele></trkpt><trkpt lat="49.63247" lon="-1.84925"><ele>6.83</ele></trkpt><trkpt lat="49.63234" lon="-1.84917"><ele>6.67</ele></trkpt><trkpt lat="49.63228" lon="-1.84914"><ele>6.67</ele></trkpt><trkpt lat="49.63191" lon="-1.84887"><ele>6.84</ele></trkpt><trkpt lat="49.6318" lon="-1.84877"><ele>7.03</ele></trkpt><trkpt lat="49.63165" lon="-1.84869"><ele>7.1</ele></trkpt><trkpt lat="49.63151" lon="-1.84865"><ele>6.93</ele></trkpt><trkpt lat="49.63112" lon="-1.84862"><ele>6.27</ele></trkpt><trkpt lat="49.63092" lon="-1.84858"><ele>6.8</ele></trkpt><trkpt lat="49.63083" lon="-1.84853"><ele>6.3</ele></trkpt><trkpt lat="49.63065" lon="-1.84836"><ele>6.76</ele></trkpt><trkpt lat="49.63049" lon="-1.84827"><ele>6.58</ele></trkpt><trkpt lat="49.63012" lon="-1.84814"><ele>6.95</ele></trkpt><trkpt lat="49.63009" lon="-1.84813"><ele>6.99</ele></trkpt><trkpt lat="49.62991" lon="-1.84809"><ele>6.55</ele></trkpt><trkpt lat="49.62972" lon="-1.84805"><ele>6.39</ele></trkpt><trkpt lat="49.62946" lon="-1.84797"><ele>6.42</ele></trkpt><trkpt lat="49.62939" lon="-1.84791"><ele>6.39</ele></trkpt><trkpt lat="49.62934" lon="-1.84784"><ele>6.14</ele></trkpt><trkpt lat="49.62923" lon="-1.84765"><ele>6.44</ele></trkpt><trkpt lat="49.62915" lon="-1.84755"><ele>6.3</ele></trkpt><trkpt lat="49.62898" lon="-1.84738"><ele>6.37</ele></trkpt><trkpt lat="49.62884" lon="-1.84725"><ele>6.52</ele></trkpt><trkpt lat="49.62865" lon="-1.84715"><ele>6.31</ele></trkpt><trkpt lat="49.62854" lon="-1.84711"><ele>6.44</ele></trkpt><trkpt lat="49.62849" lon="-1.84711"><ele>6.39</ele></trkpt><trkpt lat="49.6283" lon="-1.84715"><ele>6.41</ele></trkpt><trkpt lat="49.62813" lon="-1.84719"><ele>6.34</ele></trkpt><trkpt lat="49.62791" lon="-1.84722"><ele>6.57</ele></trkpt><trkpt lat="49.62753" lon="-1.84708"><ele>7.24</ele></trkpt><trkpt lat="49.62738" lon="-1.84705"><ele>6.75</ele></trkpt><trkpt lat="49.62682" lon="-1.84689"><ele>6.69</ele></trkpt><trkpt lat="49.62671" lon="-1.84678"><ele>6.42</ele></trkpt><trkpt lat="49.62659" lon="-1.84664"><ele>6.44</ele></trkpt><trkpt lat="49.62652" lon="-1.84655"><ele>6.64</ele></trkpt><trkpt lat="49.62631" lon="-1.84637"><ele>7.08</ele></trkpt><trkpt lat="49.62618" lon="-1.84631"><ele>7.37</ele></trkpt><trkpt lat="49.62591" lon="-1.84612"><ele>6.41</ele></trkpt><trkpt lat="49.62575" lon="-1.84606"><ele>6.53</ele></trkpt><trkpt lat="49.62565" lon="-1.84605"><ele>6.42</ele></trkpt><trkpt lat="49.62559" lon="-1.84604"><ele>6.25</ele></trkpt><trkpt lat="49.62556" lon="-1.84604"><ele>6.24</ele></trkpt><trkpt lat="49.62544" lon="-1.84604"><ele>6.19</ele></trkpt><trkpt lat="49.6254" lon="-1.84602"><ele>6.27</ele></trkpt><trkpt lat="49.62527" lon="-1.84589"><ele>6.18</ele></trkpt><trkpt lat="49.6252" lon="-1.84582"><ele>6.15</ele></trkpt><trkpt lat="49.62504" lon="-1.84575"><ele>6.28</ele></trkpt><trkpt lat="49.62489" lon="-1.84563"><ele>6.45</ele></trkpt><trkpt lat="49.6246" lon="-1.84556"><ele>6.81</ele></trkpt><trkpt lat="49.62437" lon="-1.84545"><ele>6.98</ele></trkpt><trkpt lat="49.62424" lon="-1.84545"><ele>6.8</ele></trkpt><trkpt lat="49.62408" lon="-1.84542"><ele>6.55</ele></trkpt><trkpt lat="49.62382" lon="-1.84528"><ele>6.72</ele></trkpt><trkpt lat="49.62362" lon="-1.84523"><ele>6.44</ele></trkpt><trkpt lat="49.62351" lon="-1.84518"><ele>6.45</ele></trkpt><trkpt lat="49.62342" lon="-1.84508"><ele>6.2</ele></trkpt><trkpt lat="49.62328" lon="-1.84485"><ele>6.4</ele></trkpt><trkpt lat="49.62315" lon="-1.84468"><ele>6.35</ele></trkpt><trkpt lat="49.62306" lon="-1.8446"><ele>6.37</ele></trkpt><trkpt lat="49.62288" lon="-1.84448"><ele>6.34</ele></trkpt><trkpt lat="49.62271" lon="-1.84424"><ele>6.44</ele></trkpt><trkpt lat="49.62269" lon="-1.84422"><ele>6.44</ele></trkpt><trkpt lat="49.62255" lon="-1.84409"><ele>6.48</ele></trkpt><trkpt lat="49.62247" lon="-1.84406"><ele>6.4</ele></trkpt><trkpt lat="49.62237" lon="-1.84407"><ele>6.45</ele></trkpt><trkpt lat="49.62214" lon="-1.84421"><ele>6.27</ele></trkpt><trkpt lat="49.62208" lon="-1.84423"><ele>6.06</ele></trkpt><trkpt lat="49.62201" lon="-1.84424"><ele>5.96</ele></trkpt><trkpt lat="49.622" lon="-1.84408"><ele>5.96</ele></trkpt><trkpt lat="49.62198" lon="-1.84324"><ele>5.87</ele></trkpt><trkpt lat="49.62202" lon="-1.84231"><ele>6.02</ele></trkpt><trkpt lat="49.62205" lon="-1.84205"><ele>6.41</ele></trkpt><trkpt lat="49.62208" lon="-1.84186"><ele>6.55</ele></trkpt><trkpt lat="49.62211" lon="-1.84174"><ele>6.47</ele></trkpt><trkpt lat="49.62214" lon="-1.84164"><ele>6.72</ele></trkpt><trkpt lat="49.62217" lon="-1.84154"><ele>7.11</ele></trkpt><trkpt lat="49.62226" lon="-1.84123"><ele>8.54</ele></trkpt><trkpt lat="49.62235" lon="-1.84092"><ele>10.28</ele></trkpt><trkpt lat="49.62249" lon="-1.84048"><ele>12.75</ele></trkpt><trkpt lat="49.62253" lon="-1.84033"><ele>13.92</ele></trkpt><trkpt lat="49.62263" lon="-1.83997"><ele>16.88</ele></trkpt><trkpt lat="49.6227" lon="-1.83967"><ele>19.04</ele></trkpt><trkpt lat="49.62277" lon="-1.83947"><ele>21.19</ele></trkpt><trkpt lat="49.62285" lon="-1.83921"><ele>23.76</ele></trkpt><trkpt lat="49.62288" lon="-1.83907"><ele>24.97</ele></trkpt><trkpt lat="49.62292" lon="-1.83895"><ele>26.29</ele></trkpt><trkpt lat="49.62286" lon="-1.83895"><ele>26.21</ele></trkpt><trkpt lat="49.6228" lon="-1.83893"><ele>26.11</ele></trkpt><trkpt lat="49.62274" lon="-1.83891"><ele>26.39</ele></trkpt><trkpt lat="49.62269" lon="-1.83889"><ele>26.13</ele></trkpt><trkpt lat="49.62254" lon="-1.83884"><ele>25.78</ele></trkpt><trkpt lat="49.62239" lon="-1.83878"><ele>26.07</ele></trkpt><trkpt lat="49.62232" lon="-1.83875"><ele>25.78</ele></trkpt><trkpt lat="49.62232" lon="-1.83872"><ele>25.78</ele></trkpt><trkpt lat="49.62228" lon="-1.83871"><ele>25.5</ele></trkpt><trkpt lat="49.62219" lon="-1.83868"><ele>25.21</ele></trkpt><trkpt lat="49.62214" lon="-1.83867"><ele>24.99</ele></trkpt><trkpt lat="49.62201" lon="-1.83863"><ele>24.75</ele></trkpt><trkpt lat="49.62186" lon="-1.8386"><ele>24.41</ele></trkpt><trkpt lat="49.62179" lon="-1.83859"><ele>24.18</ele></trkpt><trkpt lat="49.62169" lon="-1.83858"><ele>23.96</ele></trkpt><trkpt lat="49.62156" lon="-1.83857"><ele>24.41</ele></trkpt><trkpt lat="49.62143" lon="-1.83855"><ele>24.3</ele></trkpt><trkpt lat="49.62133" lon="-1.83853"><ele>24.35</ele></trkpt><trkpt lat="49.62124" lon="-1.8385"><ele>24.39</ele></trkpt><trkpt lat="49.62115" lon="-1.83846"><ele>24.46</ele></trkpt><trkpt lat="49.6211" lon="-1.83841"><ele>24.81</ele></trkpt><trkpt lat="49.62108" lon="-1.83839"><ele>25.15</ele></trkpt><trkpt lat="49.62102" lon="-1.83829"><ele>26.12</ele></trkpt><trkpt lat="49.62099" lon="-1.83824"><ele>26.6</ele></trkpt><trkpt lat="49.62097" lon="-1.83821"><ele>27.2</ele></trkpt><trkpt lat="49.62093" lon="-1.83812"><ele>28.04</ele></trkpt><trkpt lat="49.62091" lon="-1.83806"><ele>28.91</ele></trkpt><trkpt lat="49.62092" lon="-1.83797"><ele>29.78</ele></trkpt><trkpt lat="49.62091" lon="-1.83795"><ele>29.78</ele></trkpt><trkpt lat="49.62091" lon="-1.83791"><ele>30.15</ele></trkpt><trkpt lat="49.62092" lon="-1.83784"><ele>31.44</ele></trkpt><trkpt lat="49.62093" lon="-1.83779"><ele>32.21</ele></trkpt><trkpt lat="49.62095" lon="-1.83776"><ele>32.8</ele></trkpt><trkpt lat="49.62096" lon="-1.83774"><ele>32.94</ele></trkpt><trkpt lat="49.62102" lon="-1.83767"><ele>34.43</ele></trkpt><trkpt lat="49.62112" lon="-1.83759"><ele>36.45</ele></trkpt><trkpt lat="49.62124" lon="-1.83748"><ele>38.24</ele></trkpt><trkpt lat="49.62138" lon="-1.83737"><ele>40.6</ele></trkpt><trkpt lat="49.62148" lon="-1.83732"><ele>42.81</ele></trkpt><trkpt lat="49.62155" lon="-1.83729"><ele>44.75</ele></trkpt><trkpt lat="49.62157" lon="-1.83729"><ele>45.62</ele></trkpt><trkpt lat="49.62173" lon="-1.83729"><ele>48.53</ele></trkpt><trkpt lat="49.62178" lon="-1.8373"><ele>47.33</ele></trkpt><trkpt lat="49.62188" lon="-1.83728"><ele>49.96</ele></trkpt><trkpt lat="49.62191" lon="-1.83727"><ele>49.91</ele></trkpt><trkpt lat="49.62198" lon="-1.83725"><ele>50.01</ele></trkpt><trkpt lat="49.62209" lon="-1.83721"><ele>51.28</ele></trkpt><trkpt lat="49.6221" lon="-1.83721"><ele>51.28</ele></trkpt><trkpt lat="49.6222" lon="-1.83719"><ele>52.7</ele></trkpt><trkpt lat="49.62227" lon="-1.83717"><ele>52.83</ele></trkpt><trkpt lat="49.62241" lon="-1.83712"><ele>54.81</ele></trkpt><trkpt lat="49.62242" lon="-1.83712"><ele>54.37</ele></trkpt><trkpt lat="49.62243" lon="-1.83711"><ele>54.37</ele></trkpt><trkpt lat="49.62244" lon="-1.8371"><ele>54.37</ele></trkpt><trkpt lat="49.62249" lon="-1.83702"><ele>55.05</ele></trkpt><trkpt lat="49.62244" lon="-1.83702"><ele>55.45</ele></trkpt><trkpt lat="49.62236" lon="-1.83702"><ele>56.04</ele></trkpt><trkpt lat="49.62228" lon="-1.83701"><ele>56.38</ele></trkpt><trkpt lat="49.62224" lon="-1.83698"><ele>56.73</ele></trkpt><trkpt lat="49.62215" lon="-1.83696"><ele>57.03</ele></trkpt><trkpt lat="49.62205" lon="-1.83694"><ele>57.73</ele></trkpt><trkpt lat="49.62193" lon="-1.83691"><ele>58.42</ele></trkpt><trkpt lat="49.62186" lon="-1.83688"><ele>58.99</ele></trkpt><trkpt lat="49.62179" lon="-1.83685"><ele>59.6</ele></trkpt><trkpt lat="49.62169" lon="-1.83678"><ele>60.36</ele></trkpt><trkpt lat="49.62167" lon="-1.83676"><ele>60.8</ele></trkpt><trkpt lat="49.62154" lon="-1.83665"><ele>62.17</ele></trkpt><trkpt lat="49.62153" lon="-1.83664"><ele>62.52</ele></trkpt><trkpt lat="49.62141" lon="-1.83652"><ele>63.61</ele></trkpt><trkpt lat="49.6213" lon="-1.8364"><ele>65.47</ele></trkpt><trkpt lat="49.6212" lon="-1.8363"><ele>67.3</ele></trkpt><trkpt lat="49.62116" lon="-1.83623"><ele>67.87</ele></trkpt><trkpt lat="49.62112" lon="-1.83616"><ele>68.63</ele></trkpt><trkpt lat="49.6211" lon="-1.83612"><ele>69.01</ele></trkpt><trkpt lat="49.62109" lon="-1.83608"><ele>69.44</ele></trkpt><trkpt lat="49.62106" lon="-1.83601"><ele>69.57</ele></trkpt><trkpt lat="49.62102" lon="-1.83593"><ele>70.25</ele></trkpt><trkpt lat="49.621" lon="-1.8359"><ele>70.56</ele></trkpt><trkpt lat="49.62099" lon="-1.83589"><ele>70.7</ele></trkpt><trkpt lat="49.62095" lon="-1.83586"><ele>71.34</ele></trkpt><trkpt lat="49.62091" lon="-1.83585"><ele>71.34</ele></trkpt><trkpt lat="49.62088" lon="-1.83585"><ele>71.92</ele></trkpt><trkpt lat="49.62083" lon="-1.83588"><ele>72.36</ele></trkpt><trkpt lat="49.62075" lon="-1.83592"><ele>73.85</ele></trkpt><trkpt lat="49.62068" lon="-1.83595"><ele>74.95</ele></trkpt><trkpt lat="49.62067" lon="-1.83596"><ele>74.95</ele></trkpt><trkpt lat="49.62061" lon="-1.83596"><ele>75.42</ele></trkpt><trkpt lat="49.62055" lon="-1.83597"><ele>76.11</ele></trkpt><trkpt lat="49.62049" lon="-1.83596"><ele>76.68</ele></trkpt><trkpt lat="49.62048" lon="-1.83596"><ele>77.02</ele></trkpt><trkpt lat="49.62039" lon="-1.83592"><ele>77.8</ele></trkpt><trkpt lat="49.62031" lon="-1.83588"><ele>78.5</ele></trkpt><trkpt lat="49.62027" lon="-1.83586"><ele>79.21</ele></trkpt><trkpt lat="49.62013" lon="-1.83578"><ele>81.71</ele></trkpt><trkpt lat="49.62" lon="-1.83569"><ele>83.35</ele></trkpt><trkpt lat="49.61998" lon="-1.83567"><ele>83.35</ele></trkpt><trkpt lat="49.61989" lon="-1.83561"><ele>84.51</ele></trkpt><trkpt lat="49.61982" lon="-1.83555"><ele>84.94</ele></trkpt><trkpt lat="49.6198" lon="-1.83553"><ele>85.62</ele></trkpt><trkpt lat="49.61972" lon="-1.83548"><ele>85.6</ele></trkpt><trkpt lat="49.61965" lon="-1.83544"><ele>85.92</ele></trkpt><trkpt lat="49.61964" lon="-1.83543"><ele>85.92</ele></trkpt><trkpt lat="49.61958" lon="-1.83539"><ele>86.38</ele></trkpt><trkpt lat="49.61948" lon="-1.83535"><ele>87.38</ele></trkpt><trkpt lat="49.61931" lon="-1.83528"><ele>88.87</ele></trkpt><trkpt lat="49.61916" lon="-1.83522"><ele>90.15</ele></trkpt><trkpt lat="49.61914" lon="-1.83521"><ele>90.42</ele></trkpt><trkpt lat="49.61905" lon="-1.83517"><ele>91.14</ele></trkpt><trkpt lat="49.61901" lon="-1.83515"><ele>91.26</ele></trkpt><trkpt lat="49.61898" lon="-1.83512"><ele>91.59</ele></trkpt><trkpt lat="49.61898" lon="-1.83508"><ele>91.87</ele></trkpt><trkpt lat="49.61897" lon="-1.835"><ele>91.95</ele></trkpt><trkpt lat="49.61898" lon="-1.83497"><ele>92.56</ele></trkpt><trkpt lat="49.619" lon="-1.83495"><ele>92.56</ele></trkpt><trkpt lat="49.61902" lon="-1.83493"><ele>94.37</ele></trkpt><trkpt lat="49.61904" lon="-1.83492"><ele>95.18</ele></trkpt><trkpt lat="49.61906" lon="-1.83492"><ele>95.18</ele></trkpt><trkpt lat="49.61907" lon="-1.83492"><ele>95.88</ele></trkpt><trkpt lat="49.61908" lon="-1.83492"><ele>95.88</ele></trkpt><trkpt lat="49.61907" lon="-1.83492"><ele>95.88</ele></trkpt><trkpt lat="49.61906" lon="-1.83492"><ele>95.18</ele></trkpt><trkpt lat="49.61904" lon="-1.83492"><ele>95.18</ele></trkpt><trkpt lat="49.61902" lon="-1.83493"><ele>94.37</ele></trkpt><trkpt lat="49.619" lon="-1.83495"><ele>92.56</ele></trkpt><trkpt lat="49.61898" lon="-1.83497"><ele>92.56</ele></trkpt><trkpt lat="49.61897" lon="-1.83499"><ele>91.95</ele></trkpt><trkpt lat="49.61896" lon="-1.83505"><ele>91.83</ele></trkpt><trkpt lat="49.61887" lon="-1.83497"><ele>91.77</ele></trkpt><trkpt lat="49.6188" lon="-1.83489"><ele>91.43</ele></trkpt><trkpt lat="49.61876" lon="-1.83483"><ele>92.06</ele></trkpt><trkpt lat="49.61871" lon="-1.83474"><ele>93.09</ele></trkpt><trkpt lat="49.61868" lon="-1.83468"><ele>93.43</ele></trkpt><trkpt lat="49.61866" lon="-1.83464"><ele>93.91</ele></trkpt><trkpt lat="49.61861" lon="-1.83452"><ele>95.36</ele></trkpt><trkpt lat="49.61856" lon="-1.83437"><ele>97.06</ele></trkpt><trkpt lat="49.61855" lon="-1.83434"><ele>97.06</ele></trkpt><trkpt lat="49.61855" lon="-1.83429"><ele>97.61</ele></trkpt><trkpt lat="49.61857" lon="-1.83406"><ele>99.61</ele></trkpt><trkpt lat="49.61861" lon="-1.83382"><ele>101.85</ele></trkpt><trkpt lat="49.61863" lon="-1.83371"><ele>102.62</ele></trkpt><trkpt lat="49.61863" lon="-1.83367"><ele>102.88</ele></trkpt><trkpt lat="49.61866" lon="-1.83343"><ele>104.42</ele></trkpt><trkpt lat="49.61868" lon="-1.83316"><ele>105.64</ele></trkpt><trkpt lat="49.6187" lon="-1.83288"><ele>105.4</ele></trkpt><trkpt lat="49.61872" lon="-1.83262"><ele>105.75</ele></trkpt><trkpt lat="49.61872" lon="-1.83261"><ele>105.8</ele></trkpt><trkpt lat="49.61873" lon="-1.83237"><ele>107.08</ele></trkpt><trkpt lat="49.61874" lon="-1.83233"><ele>107.17</ele></trkpt><trkpt lat="49.61874" lon="-1.83229"><ele>107.29</ele></trkpt><trkpt lat="49.61874" lon="-1.83213"><ele>107.55</ele></trkpt><trkpt lat="49.61874" lon="-1.83199"><ele>107.72</ele></trkpt><trkpt lat="49.61874" lon="-1.83186"><ele>108.17</ele></trkpt><trkpt lat="49.61874" lon="-1.83172"><ele>108.98</ele></trkpt><trkpt lat="49.61872" lon="-1.83161"><ele>108.95</ele></trkpt><trkpt lat="49.6187" lon="-1.83152"><ele>109.46</ele></trkpt><trkpt lat="49.61866" lon="-1.83144"><ele>109.35</ele></trkpt><trkpt lat="49.61864" lon="-1.8314"><ele>109.48</ele></trkpt><trkpt lat="49.61857" lon="-1.83131"><ele>108.65</ele></trkpt><trkpt lat="49.61853" lon="-1.83125"><ele>107.93</ele></trkpt><trkpt lat="49.61848" lon="-1.83114"><ele>109.15</ele></trkpt><trkpt lat="49.61846" lon="-1.8311"><ele>109.27</ele></trkpt><trkpt lat="49.61842" lon="-1.83103"><ele>109.08</ele></trkpt><trkpt lat="49.61836" lon="-1.83087"><ele>110.54</ele></trkpt><trkpt lat="49.61835" lon="-1.83086"><ele>110.54</ele></trkpt><trkpt lat="49.61831" lon="-1.83072"><ele>111.96</ele></trkpt><trkpt lat="49.61828" lon="-1.83062"><ele>112.94</ele></trkpt><trkpt lat="49.61821" lon="-1.8303"><ele>115.39</ele></trkpt><trkpt lat="49.61821" lon="-1.83029"><ele>115.72</ele></trkpt><trkpt lat="49.61818" lon="-1.83008"><ele>116.93</ele></trkpt><trkpt lat="49.61818" lon="-1.83005"><ele>116.93</ele></trkpt><trkpt lat="49.61818" lon="-1.82986"><ele>118.32</ele></trkpt><trkpt lat="49.61818" lon="-1.82981"><ele>118.51</ele></trkpt><trkpt lat="49.6182" lon="-1.82966"><ele>119.17</ele></trkpt><trkpt lat="49.61827" lon="-1.82934"><ele>120.87</ele></trkpt><trkpt lat="49.61829" lon="-1.82928"><ele>121.16</ele></trkpt><trkpt lat="49.61834" lon="-1.82903"><ele>121.88</ele></trkpt><trkpt lat="49.61835" lon="-1.82894"><ele>122.28</ele></trkpt><trkpt lat="49.61836" lon="-1.82891"><ele>122.47</ele></trkpt><trkpt lat="49.61837" lon="-1.82887"><ele>122.65</ele></trkpt><trkpt lat="49.61838" lon="-1.82885"><ele>122.55</ele></trkpt><trkpt lat="49.61843" lon="-1.82884"><ele>122.67</ele></trkpt><trkpt lat="49.61844" lon="-1.82883"><ele>122.75</ele></trkpt><trkpt lat="49.61847" lon="-1.82881"><ele>122.77</ele></trkpt><trkpt lat="49.61848" lon="-1.82879"><ele>122.98</ele></trkpt><trkpt lat="49.61855" lon="-1.82862"><ele>123.27</ele></trkpt><trkpt lat="49.61859" lon="-1.82854"><ele>123.29</ele></trkpt><trkpt lat="49.61863" lon="-1.82837"><ele>123.63</ele></trkpt><trkpt lat="49.61863" lon="-1.82835"><ele>123.73</ele></trkpt><trkpt lat="49.61866" lon="-1.82827"><ele>124</ele></trkpt><trkpt lat="49.61867" lon="-1.82826"><ele>124</ele></trkpt><trkpt lat="49.61868" lon="-1.82825"><ele>124.1</ele></trkpt><trkpt lat="49.61893" lon="-1.82839"><ele>124.75</ele></trkpt><trkpt lat="49.619" lon="-1.82843"><ele>124.9</ele></trkpt><trkpt lat="49.61904" lon="-1.82844"><ele>125.05</ele></trkpt><trkpt lat="49.61909" lon="-1.82846"><ele>125.37</ele></trkpt><trkpt lat="49.6191" lon="-1.82846"><ele>125.37</ele></trkpt><trkpt lat="49.61921" lon="-1.82849"><ele>125.65</ele></trkpt><trkpt lat="49.61928" lon="-1.8285"><ele>126.06</ele></trkpt><trkpt lat="49.61952" lon="-1.82854"><ele>126.91</ele></trkpt><trkpt lat="49.61964" lon="-1.82858"><ele>127.57</ele></trkpt><trkpt lat="49.61965" lon="-1.82858"><ele>127.57</ele></trkpt><trkpt lat="49.61967" lon="-1.82859"><ele>127.58</ele></trkpt><trkpt lat="49.61981" lon="-1.8286"><ele>127.91</ele></trkpt><trkpt lat="49.61999" lon="-1.82862"><ele>128.5</ele></trkpt><trkpt lat="49.62005" lon="-1.82863"><ele>128.97</ele></trkpt><trkpt lat="49.62017" lon="-1.82864"><ele>129.4</ele></trkpt><trkpt lat="49.62033" lon="-1.8287"><ele>129.92</ele></trkpt><trkpt lat="49.62035" lon="-1.8287"><ele>129.92</ele></trkpt><trkpt lat="49.62046" lon="-1.82872"><ele>130.45</ele></trkpt><trkpt lat="49.6205" lon="-1.82874"><ele>130.67</ele></trkpt><trkpt lat="49.62052" lon="-1.82878"><ele>130.63</ele></trkpt><trkpt lat="49.62055" lon="-1.82883"><ele>130.72</ele></trkpt><trkpt lat="49.62059" lon="-1.82888"><ele>130.86</ele></trkpt><trkpt lat="49.62063" lon="-1.82893"><ele>130.98</ele></trkpt><trkpt lat="49.62073" lon="-1.82916"><ele>131.08</ele></trkpt><trkpt lat="49.62083" lon="-1.82935"><ele>131.35</ele></trkpt><trkpt lat="49.62098" lon="-1.82957"><ele>131.36</ele></trkpt><trkpt lat="49.62111" lon="-1.82976"><ele>131.39</ele></trkpt><trkpt lat="49.62113" lon="-1.8298"><ele>131.42</ele></trkpt><trkpt lat="49.62124" lon="-1.8299"><ele>131.54</ele></trkpt><trkpt lat="49.62125" lon="-1.82991"><ele>131.54</ele></trkpt><trkpt lat="49.6216" lon="-1.83023"><ele>131.95</ele></trkpt><trkpt lat="49.62172" lon="-1.83034"><ele>131.79</ele></trkpt><trkpt lat="49.62176" lon="-1.83038"><ele>131.91</ele></trkpt><trkpt lat="49.62185" lon="-1.83049"><ele>131.81</ele></trkpt><trkpt lat="49.6219" lon="-1.83056"><ele>131.88</ele></trkpt><trkpt lat="49.62195" lon="-1.83064"><ele>131.8</ele></trkpt><trkpt lat="49.622" lon="-1.83071"><ele>131.91</ele></trkpt><trkpt lat="49.62196" lon="-1.83083"><ele>131.21</ele></trkpt><trkpt lat="49.62181" lon="-1.83115"><ele>129.1</ele></trkpt><trkpt lat="49.6217" lon="-1.8314"><ele>127.74</ele></trkpt><trkpt lat="49.62162" lon="-1.83159"><ele>126.66</ele></trkpt><trkpt lat="49.6216" lon="-1.83164"><ele>126.5</ele></trkpt><trkpt lat="49.62143" lon="-1.83201"><ele>125.07</ele></trkpt><trkpt lat="49.62205" lon="-1.83247"><ele>123.73</ele></trkpt><trkpt lat="49.62216" lon="-1.83257"><ele>123.89</ele></trkpt><trkpt lat="49.62221" lon="-1.8326"><ele>123.87</ele></trkpt><trkpt lat="49.62239" lon="-1.83275"><ele>123.87</ele></trkpt><trkpt lat="49.6227" lon="-1.83298"><ele>124.35</ele></trkpt><trkpt lat="49.62297" lon="-1.83318"><ele>124.42</ele></trkpt><trkpt lat="49.62301" lon="-1.83321"><ele>124.42</ele></trkpt><trkpt lat="49.62317" lon="-1.83334"><ele>124.2</ele></trkpt><trkpt lat="49.62321" lon="-1.83336"><ele>124.06</ele></trkpt><trkpt lat="49.62332" lon="-1.83349"><ele>123.46</ele></trkpt><trkpt lat="49.62346" lon="-1.83364"><ele>122.81</ele></trkpt><trkpt lat="49.62371" lon="-1.83407"><ele>120.98</ele></trkpt><trkpt lat="49.62382" lon="-1.83428"><ele>120.03</ele></trkpt><trkpt lat="49.62394" lon="-1.8345"><ele>119.14</ele></trkpt><trkpt lat="49.62395" lon="-1.83452"><ele>118.94</ele></trkpt><trkpt lat="49.62401" lon="-1.83454"><ele>119.22</ele></trkpt><trkpt lat="49.62411" lon="-1.83454"><ele>119.86</ele></trkpt><trkpt lat="49.62422" lon="-1.83454"><ele>120.63</ele></trkpt><trkpt lat="49.62429" lon="-1.83452"><ele>120.8</ele></trkpt><trkpt lat="49.62456" lon="-1.83446"><ele>122.09</ele></trkpt><trkpt lat="49.62464" lon="-1.83443"><ele>122.47</ele></trkpt><trkpt lat="49.6247" lon="-1.83441"><ele>123.06</ele></trkpt><trkpt lat="49.62482" lon="-1.83437"><ele>123.67</ele></trkpt><trkpt lat="49.62499" lon="-1.83431"><ele>124.2</ele></trkpt><trkpt lat="49.62507" lon="-1.83428"><ele>124.51</ele></trkpt><trkpt lat="49.62514" lon="-1.83425"><ele>124.58</ele></trkpt><trkpt lat="49.62519" lon="-1.83423"><ele>124.81</ele></trkpt><trkpt lat="49.62529" lon="-1.83416"><ele>125</ele></trkpt><trkpt lat="49.62533" lon="-1.83413"><ele>125.12</ele></trkpt><trkpt lat="49.62538" lon="-1.83409"><ele>125.24</ele></trkpt><trkpt lat="49.62551" lon="-1.83393"><ele>125.88</ele></trkpt><trkpt lat="49.62572" lon="-1.83351"><ele>128.68</ele></trkpt><trkpt lat="49.62587" lon="-1.83316"><ele>130.72</ele></trkpt><trkpt lat="49.62591" lon="-1.8331"><ele>131.04</ele></trkpt><trkpt lat="49.62605" lon="-1.83329"><ele>130.27</ele></trkpt><trkpt lat="49.62618" lon="-1.83347"><ele>129.86</ele></trkpt><trkpt lat="49.6264" lon="-1.83376"><ele>129.33</ele></trkpt><trkpt lat="49.6265" lon="-1.83386"><ele>129.4</ele></trkpt><trkpt lat="49.62663" lon="-1.834"><ele>129.67</ele></trkpt><trkpt lat="49.62677" lon="-1.83423"><ele>130.06</ele></trkpt><trkpt lat="49.62678" lon="-1.83421"><ele>130.06</ele></trkpt><trkpt lat="49.62679" lon="-1.83423"><ele>130.76</ele></trkpt><trkpt lat="49.62688" lon="-1.8344"><ele>130.9</ele></trkpt><trkpt lat="49.62704" lon="-1.83469"><ele>131.4</ele></trkpt><trkpt lat="49.62718" lon="-1.83494"><ele>131.72</ele></trkpt><trkpt lat="49.62724" lon="-1.83501"><ele>131.79</ele></trkpt><trkpt lat="49.62765" lon="-1.83549"><ele>131.93</ele></trkpt><trkpt lat="49.62771" lon="-1.83547"><ele>132.01</ele></trkpt><trkpt lat="49.62784" lon="-1.83534"><ele>132.37</ele></trkpt><trkpt lat="49.62806" lon="-1.8352"><ele>132.88</ele></trkpt><trkpt lat="49.6281" lon="-1.83521"><ele>132.92</ele></trkpt><trkpt lat="49.62815" lon="-1.83521"><ele>132.88</ele></trkpt><trkpt lat="49.62843" lon="-1.83516"><ele>132.43</ele></trkpt><trkpt lat="49.62885" lon="-1.83513"><ele>130.33</ele></trkpt><trkpt lat="49.62908" lon="-1.83511"><ele>129.04</ele></trkpt><trkpt lat="49.62912" lon="-1.83511"><ele>128.61</ele></trkpt><trkpt lat="49.62932" lon="-1.83512"><ele>126.7</ele></trkpt><trkpt lat="49.62937" lon="-1.83512"><ele>125.77</ele></trkpt><trkpt lat="49.62952" lon="-1.83514"><ele>124.18</ele></trkpt><trkpt lat="49.62973" lon="-1.83519"><ele>121.34</ele></trkpt><trkpt lat="49.62982" lon="-1.83527"><ele>120.48</ele></trkpt><trkpt lat="49.62987" lon="-1.83533"><ele>120.54</ele></trkpt><trkpt lat="49.62993" lon="-1.8354"><ele>119.51</ele></trkpt><trkpt lat="49.63006" lon="-1.83558"><ele>117.5</ele></trkpt><trkpt lat="49.63012" lon="-1.83565"><ele>116.5</ele></trkpt><trkpt lat="49.63014" lon="-1.83569"><ele>115.37</ele></trkpt><trkpt lat="49.63024" lon="-1.8359"><ele>112.77</ele></trkpt><trkpt lat="49.63033" lon="-1.83608"><ele>110.76</ele></trkpt><trkpt lat="49.63047" lon="-1.83631"><ele>108.18</ele></trkpt><trkpt lat="49.63068" lon="-1.83666"><ele>104.83</ele></trkpt><trkpt lat="49.63074" lon="-1.83683"><ele>103.26</ele></trkpt><trkpt lat="49.6308" lon="-1.83696"><ele>103.08</ele></trkpt><trkpt lat="49.6309" lon="-1.83709"><ele>102.44</ele></trkpt><trkpt lat="49.63106" lon="-1.83729"><ele>100.29</ele></trkpt><trkpt lat="49.63115" lon="-1.8374"><ele>99.49</ele></trkpt><trkpt lat="49.63121" lon="-1.83749"><ele>98.23</ele></trkpt><trkpt lat="49.63148" lon="-1.83797"><ele>93.78</ele></trkpt><trkpt lat="49.63158" lon="-1.83811"><ele>91.94</ele></trkpt><trkpt lat="49.63166" lon="-1.83821"><ele>89.98</ele></trkpt><trkpt lat="49.63194" lon="-1.83869"><ele>83.86</ele></trkpt><trkpt lat="49.63211" lon="-1.83893"><ele>83.1</ele></trkpt><trkpt lat="49.63241" lon="-1.83928"><ele>77.81</ele></trkpt><trkpt lat="49.63248" lon="-1.8394"><ele>76.3</ele></trkpt><trkpt lat="49.63258" lon="-1.83954"><ele>74.77</ele></trkpt><trkpt lat="49.63257" lon="-1.83956"><ele>74.77</ele></trkpt><trkpt lat="49.63263" lon="-1.83966"><ele>73.1</ele></trkpt><trkpt lat="49.63268" lon="-1.83974"><ele>72.57</ele></trkpt><trkpt lat="49.6328" lon="-1.83995"><ele>69.73</ele></trkpt><trkpt lat="49.63288" lon="-1.84008"><ele>69.52</ele></trkpt><trkpt lat="49.63296" lon="-1.84023"><ele>68.38</ele></trkpt><trkpt lat="49.63303" lon="-1.84037"><ele>66.48</ele></trkpt><trkpt lat="49.6331" lon="-1.84053"><ele>64.73</ele></trkpt><trkpt lat="49.63324" lon="-1.84076"><ele>62.1</ele></trkpt><trkpt lat="49.63326" lon="-1.8408"><ele>62.65</ele></trkpt><trkpt lat="49.63341" lon="-1.8411"><ele>58.48</ele></trkpt><trkpt lat="49.63344" lon="-1.84119"><ele>59.55</ele></trkpt><trkpt lat="49.63356" lon="-1.84143"><ele>56.45</ele></trkpt><trkpt lat="49.63376" lon="-1.84195"><ele>51.24</ele></trkpt><trkpt lat="49.63376" lon="-1.8417"><ele>50.45</ele></trkpt><trkpt lat="49.63376" lon="-1.8416"><ele>49.67</ele></trkpt><trkpt lat="49.63374" lon="-1.84112"><ele>46.01</ele></trkpt><trkpt lat="49.63373" lon="-1.84084"><ele>43.63</ele></trkpt><trkpt lat="49.63372" lon="-1.84065"><ele>42.7</ele></trkpt><trkpt lat="49.63393" lon="-1.84089"><ele>39.8</ele></trkpt><trkpt lat="49.6341" lon="-1.84111"><ele>37.68</ele></trkpt><trkpt lat="49.63415" lon="-1.8412"><ele>37.27</ele></trkpt><trkpt lat="49.6342" lon="-1.84129"><ele>36.94</ele></trkpt><trkpt lat="49.63422" lon="-1.84132"><ele>36.29</ele></trkpt><trkpt lat="49.63426" lon="-1.84141"><ele>35.87</ele></trkpt><trkpt lat="49.6344" lon="-1.84169"><ele>34.65</ele></trkpt><trkpt lat="49.63441" lon="-1.84172"><ele>34.66</ele></trkpt><trkpt lat="49.63456" lon="-1.84212"><ele>33.09</ele></trkpt><trkpt lat="49.63464" lon="-1.8423"><ele>32.57</ele></trkpt><trkpt lat="49.63468" lon="-1.84237"><ele>32.09</ele></trkpt><trkpt lat="49.63486" lon="-1.84281"><ele>30.51</ele></trkpt><trkpt lat="49.635" lon="-1.84317"><ele>29.6</ele></trkpt><trkpt lat="49.63503" lon="-1.84324"><ele>29.37</ele></trkpt><trkpt lat="49.63513" lon="-1.84349"><ele>28.56</ele></trkpt><trkpt lat="49.63518" lon="-1.8436"><ele>28.4</ele></trkpt><trkpt lat="49.63521" lon="-1.84368"><ele>28.25</ele></trkpt><trkpt lat="49.63529" lon="-1.84386"><ele>27.54</ele></trkpt><trkpt lat="49.63534" lon="-1.84393"><ele>27.27</ele></trkpt><trkpt lat="49.6355" lon="-1.84416"><ele>25.99</ele></trkpt><trkpt lat="49.63553" lon="-1.8442"><ele>25.74</ele></trkpt><trkpt lat="49.63577" lon="-1.84449"><ele>24.1</ele></trkpt><trkpt lat="49.63589" lon="-1.84462"><ele>23.31</ele></trkpt><trkpt lat="49.63595" lon="-1.84466"><ele>23.02</ele></trkpt><trkpt lat="49.63599" lon="-1.8447"><ele>22.69</ele></trkpt><trkpt lat="49.636" lon="-1.84471"><ele>22.69</ele></trkpt><trkpt lat="49.63606" lon="-1.84478"><ele>22.08</ele></trkpt><trkpt lat="49.63619" lon="-1.84497"><ele>21.29</ele></trkpt><trkpt lat="49.63624" lon="-1.84507"><ele>20.9</ele></trkpt><trkpt lat="49.63629" lon="-1.8452"><ele>20.47</ele></trkpt><trkpt lat="49.63634" lon="-1.84521"><ele>20.39</ele></trkpt><trkpt lat="49.63643" lon="-1.84527"><ele>20.19</ele></trkpt><trkpt lat="49.63651" lon="-1.84532"><ele>19.71</ele></trkpt><trkpt lat="49.63654" lon="-1.84534"><ele>19.46</ele></trkpt><trkpt lat="49.63656" lon="-1.84535"><ele>19.46</ele></trkpt><trkpt lat="49.63659" lon="-1.84536"><ele>19.3</ele></trkpt><trkpt lat="49.63679" lon="-1.84539"><ele>18.41</ele></trkpt><trkpt lat="49.63686" lon="-1.84542"><ele>18.18</ele></trkpt><trkpt lat="49.63687" lon="-1.84529"><ele>18.32</ele></trkpt><trkpt lat="49.6369" lon="-1.84499"><ele>18.61</ele></trkpt><trkpt lat="49.63696" lon="-1.84462"><ele>19.24</ele></trkpt><trkpt lat="49.63701" lon="-1.84436"><ele>19.35</ele></trkpt><trkpt lat="49.63703" lon="-1.84418"><ele>19.67</ele></trkpt></trkseg></trk></gpx>
