<?xml version="1.0" encoding="UTF-8" standalone="no"?>
<gpx xmlns="http://www.topografix.com/GPX/1/1" version="1.1" xmlns:xsi="http://www.w3.org/2001/XMLSchema-instance" xsi:schemaLocation="http://www.topografix.com/GPX/1/1 http://www.topografix.com/GPX/1/1/gpx.xsd" creator="Cirkwi"><metadata><name><![CDATA[Les Grandes Chasses]]></name><desc><![CDATA[La promenade dans cette commune vous conduit à passer devant calvaires et croix, patrimoine dont l'origine est souvent inconnue. Le début et la fin du parcours se font sur des petites routes bocagères typiques du Cotentin, tandis que l'entre-deux permet de contourner par des grands chemins les marais riche en biodiversité floristique du Mesnil-au-Val (Espace Naturel Remarquable). Partez de l'église du Mesnil-au-Val. Dos à l'église, prenez la route vers la droite, jusqu'au manoir de Barville. Suivez le circuit selon le sens des aiguilles d'une montre (Le Mesnil-au-Val).  Coordonnées GPS : 49°36’17.732’’N, 1°31’30.683’’ W Suivez le circuit selon le sens des aiguilles d'une montre. Le balisage est de couleur jaune. Vous retrouverez ce circuit dans le topoguide "Cherbourg-en-cotentin" de l'Office de tourisme du Cotentin.   Le circuit peut être réalisé à vélo (avec bons pneus type Gravel) ou à cheval.  Ce sentier n'est pas desservie par le réseau de bus Cap Cotentin, il est néanmoins accessible en voiture avec deux parkings situés à proximité du départ. ]]></desc><author><name><![CDATA[Cotentin unique]]></name></author><link href="http://fichier0.cirkwi.com/image/photo/circuit/1300x1300/384208/fr/0.jpg"><text><![CDATA[|Alexandre LEROY]]></text></link><time>2026-07-09T13:44:09Z</time></metadata><trk><trkseg><trkpt lat="49.60675" lon="-1.52503"><ele>108.2</ele></trkpt><trkpt lat="49.60669" lon="-1.52492"><ele>108.02</ele></trkpt><trkpt lat="49.60667" lon="-1.52489"><ele>108.04</ele></trkpt><trkpt lat="49.60655" lon="-1.52461"><ele>107.71</ele></trkpt><trkpt lat="49.60647" lon="-1.52443"><ele>107.41</ele></trkpt><trkpt lat="49.60646" lon="-1.52442"><ele>107.41</ele></trkpt><trkpt lat="49.6064" lon="-1.52431"><ele>107.14</ele></trkpt><trkpt lat="49.60635" lon="-1.52425"><ele>107.06</ele></trkpt><trkpt lat="49.60627" lon="-1.52424"><ele>106.86</ele></trkpt><trkpt lat="49.60623" lon="-1.52424"><ele>106.82</ele></trkpt><trkpt lat="49.60621" lon="-1.52424"><ele>106.82</ele></trkpt><trkpt lat="49.60616" lon="-1.52425"><ele>106.8</ele></trkpt><trkpt lat="49.60609" lon="-1.5243"><ele>106.62</ele></trkpt><trkpt lat="49.60604" lon="-1.52438"><ele>106.67</ele></trkpt><trkpt lat="49.60603" lon="-1.52441"><ele>106.7</ele></trkpt><trkpt lat="49.60587" lon="-1.52459"><ele>107.28</ele></trkpt><trkpt lat="49.60586" lon="-1.5246"><ele>107.28</ele></trkpt><trkpt lat="49.60584" lon="-1.52463"><ele>107.59</ele></trkpt><trkpt lat="49.60578" lon="-1.52471"><ele>108.06</ele></trkpt><trkpt lat="49.60577" lon="-1.52473"><ele>108.06</ele></trkpt><trkpt lat="49.60576" lon="-1.52475"><ele>108.43</ele></trkpt><trkpt lat="49.60568" lon="-1.52485"><ele>108.96</ele></trkpt><trkpt lat="49.60549" lon="-1.52503"><ele>110.61</ele></trkpt><trkpt lat="49.60545" lon="-1.52504"><ele>110.97</ele></trkpt><trkpt lat="49.60534" lon="-1.5251"><ele>111.43</ele></trkpt><trkpt lat="49.60528" lon="-1.5251"><ele>111.53</ele></trkpt><trkpt lat="49.6052" lon="-1.52505"><ele>111.4</ele></trkpt><trkpt lat="49.60505" lon="-1.52496"><ele>111.47</ele></trkpt><trkpt lat="49.60493" lon="-1.52487"><ele>110.05</ele></trkpt><trkpt lat="49.60489" lon="-1.52485"><ele>109.68</ele></trkpt><trkpt lat="49.60486" lon="-1.52483"><ele>109.68</ele></trkpt><trkpt lat="49.60478" lon="-1.52478"><ele>109.18</ele></trkpt><trkpt lat="49.60455" lon="-1.52464"><ele>108.26</ele></trkpt><trkpt lat="49.60439" lon="-1.52453"><ele>107.99</ele></trkpt><trkpt lat="49.60437" lon="-1.52452"><ele>107.84</ele></trkpt><trkpt lat="49.60426" lon="-1.52446"><ele>107.76</ele></trkpt><trkpt lat="49.60416" lon="-1.5244"><ele>107.67</ele></trkpt><trkpt lat="49.60395" lon="-1.52436"><ele>107.87</ele></trkpt><trkpt lat="49.60385" lon="-1.52434"><ele>107.93</ele></trkpt><trkpt lat="49.60329" lon="-1.52431"><ele>108.65</ele></trkpt><trkpt lat="49.60307" lon="-1.52435"><ele>109.01</ele></trkpt><trkpt lat="49.60295" lon="-1.52437"><ele>109.26</ele></trkpt><trkpt lat="49.60289" lon="-1.52439"><ele>109.35</ele></trkpt><trkpt lat="49.60263" lon="-1.52445"><ele>109.9</ele></trkpt><trkpt lat="49.60254" lon="-1.52449"><ele>110.12</ele></trkpt><trkpt lat="49.60246" lon="-1.52452"><ele>110.19</ele></trkpt><trkpt lat="49.60243" lon="-1.52453"><ele>110.29</ele></trkpt><trkpt lat="49.60239" lon="-1.52455"><ele>110.4</ele></trkpt><trkpt lat="49.60218" lon="-1.52464"><ele>110.63</ele></trkpt><trkpt lat="49.60181" lon="-1.52481"><ele>111.04</ele></trkpt><trkpt lat="49.60139" lon="-1.52501"><ele>111.57</ele></trkpt><trkpt lat="49.60131" lon="-1.52504"><ele>111.76</ele></trkpt><trkpt lat="49.60111" lon="-1.52513"><ele>112.15</ele></trkpt><trkpt lat="49.60083" lon="-1.52525"><ele>112.47</ele></trkpt><trkpt lat="49.60059" lon="-1.52533"><ele>112.79</ele></trkpt><trkpt lat="49.60052" lon="-1.52534"><ele>112.94</ele></trkpt><trkpt lat="49.60029" lon="-1.52539"><ele>113.29</ele></trkpt><trkpt lat="49.59944" lon="-1.52555"><ele>115.61</ele></trkpt><trkpt lat="49.59924" lon="-1.5256"><ele>116.06</ele></trkpt><trkpt lat="49.59901" lon="-1.52564"><ele>116.49</ele></trkpt><trkpt lat="49.59828" lon="-1.52579"><ele>118.48</ele></trkpt><trkpt lat="49.59791" lon="-1.52586"><ele>120.22</ele></trkpt><trkpt lat="49.5979" lon="-1.52586"><ele>120.49</ele></trkpt><trkpt lat="49.59736" lon="-1.52599"><ele>123.04</ele></trkpt><trkpt lat="49.59718" lon="-1.52606"><ele>123.86</ele></trkpt><trkpt lat="49.59702" lon="-1.52582"><ele>124.46</ele></trkpt><trkpt lat="49.59681" lon="-1.52552"><ele>125.27</ele></trkpt><trkpt lat="49.59671" lon="-1.52536"><ele>125.69</ele></trkpt><trkpt lat="49.59661" lon="-1.52514"><ele>126.3</ele></trkpt><trkpt lat="49.59641" lon="-1.52449"><ele>127.64</ele></trkpt><trkpt lat="49.59638" lon="-1.52436"><ele>127.93</ele></trkpt><trkpt lat="49.59629" lon="-1.52403"><ele>128.64</ele></trkpt><trkpt lat="49.59607" lon="-1.52321"><ele>130.46</ele></trkpt><trkpt lat="49.59603" lon="-1.5231"><ele>130.74</ele></trkpt><trkpt lat="49.59602" lon="-1.52304"><ele>130.74</ele></trkpt><trkpt lat="49.59591" lon="-1.52269"><ele>131.16</ele></trkpt><trkpt lat="49.59582" lon="-1.52236"><ele>130.89</ele></trkpt><trkpt lat="49.59556" lon="-1.52164"><ele>129.73</ele></trkpt><trkpt lat="49.59554" lon="-1.52159"><ele>129.63</ele></trkpt><trkpt lat="49.59524" lon="-1.52075"><ele>128.7</ele></trkpt><trkpt lat="49.59522" lon="-1.52068"><ele>128.68</ele></trkpt><trkpt lat="49.59518" lon="-1.52058"><ele>128.66</ele></trkpt><trkpt lat="49.59516" lon="-1.52051"><ele>128.61</ele></trkpt><trkpt lat="49.59506" lon="-1.52018"><ele>128.91</ele></trkpt><trkpt lat="49.59493" lon="-1.51951"><ele>130.47</ele></trkpt><trkpt lat="49.59489" lon="-1.51933"><ele>130.94</ele></trkpt><trkpt lat="49.59434" lon="-1.51954"><ele>132.63</ele></trkpt><trkpt lat="49.59371" lon="-1.51978"><ele>133.32</ele></trkpt><trkpt lat="49.59344" lon="-1.51986"><ele>132.69</ele></trkpt><trkpt lat="49.5933" lon="-1.51989"><ele>132.72</ele></trkpt><trkpt lat="49.59321" lon="-1.51991"><ele>132.94</ele></trkpt><trkpt lat="49.59312" lon="-1.51993"><ele>133.1</ele></trkpt><trkpt lat="49.59277" lon="-1.52"><ele>133.33</ele></trkpt><trkpt lat="49.59258" lon="-1.52005"><ele>133.69</ele></trkpt><trkpt lat="49.5922" lon="-1.52015"><ele>135.03</ele></trkpt><trkpt lat="49.59208" lon="-1.52018"><ele>135.8</ele></trkpt><trkpt lat="49.59187" lon="-1.52025"><ele>137.15</ele></trkpt><trkpt lat="49.59165" lon="-1.52032"><ele>139.24</ele></trkpt><trkpt lat="49.59147" lon="-1.52043"><ele>141.82</ele></trkpt><trkpt lat="49.59137" lon="-1.5205"><ele>143.96</ele></trkpt><trkpt lat="49.59118" lon="-1.52061"><ele>146.57</ele></trkpt><trkpt lat="49.59102" lon="-1.52069"><ele>148.85</ele></trkpt><trkpt lat="49.59096" lon="-1.52067"><ele>149.24</ele></trkpt><trkpt lat="49.59084" lon="-1.52055"><ele>150.06</ele></trkpt><trkpt lat="49.59081" lon="-1.52052"><ele>150.28</ele></trkpt><trkpt lat="49.59068" lon="-1.52048"><ele>150.74</ele></trkpt><trkpt lat="49.5905" lon="-1.52047"><ele>151.53</ele></trkpt><trkpt lat="49.5902" lon="-1.5205"><ele>153.04</ele></trkpt><trkpt lat="49.5902" lon="-1.52051"><ele>153.04</ele></trkpt><trkpt lat="49.59014" lon="-1.52051"><ele>153.2</ele></trkpt><trkpt lat="49.58982" lon="-1.5205"><ele>154.1</ele></trkpt><trkpt lat="49.58964" lon="-1.52052"><ele>155.21</ele></trkpt><trkpt lat="49.58958" lon="-1.52053"><ele>155.8</ele></trkpt><trkpt lat="49.58957" lon="-1.52083"><ele>156.52</ele></trkpt><trkpt lat="49.58956" lon="-1.52111"><ele>156.91</ele></trkpt><trkpt lat="49.58953" lon="-1.52119"><ele>157.06</ele></trkpt><trkpt lat="49.5895" lon="-1.52125"><ele>157.05</ele></trkpt><trkpt lat="49.58935" lon="-1.52137"><ele>157.36</ele></trkpt><trkpt lat="49.58931" lon="-1.52141"><ele>157.4</ele></trkpt><trkpt lat="49.58928" lon="-1.52147"><ele>157.51</ele></trkpt><trkpt lat="49.58924" lon="-1.52169"><ele>157.66</ele></trkpt><trkpt lat="49.58923" lon="-1.52174"><ele>157.73</ele></trkpt><trkpt lat="49.58921" lon="-1.52196"><ele>157.77</ele></trkpt><trkpt lat="49.5892" lon="-1.52227"><ele>157.93</ele></trkpt><trkpt lat="49.58919" lon="-1.5225"><ele>158.19</ele></trkpt><trkpt lat="49.58914" lon="-1.52408"><ele>160.08</ele></trkpt><trkpt lat="49.58913" lon="-1.52434"><ele>160.49</ele></trkpt><trkpt lat="49.58912" lon="-1.52459"><ele>161.04</ele></trkpt><trkpt lat="49.58906" lon="-1.52539"><ele>161.98</ele></trkpt><trkpt lat="49.58906" lon="-1.52543"><ele>162.04</ele></trkpt><trkpt lat="49.58905" lon="-1.52556"><ele>162.36</ele></trkpt><trkpt lat="49.58904" lon="-1.52572"><ele>162.58</ele></trkpt><trkpt lat="49.58898" lon="-1.52639"><ele>163.18</ele></trkpt><trkpt lat="49.58896" lon="-1.52654"><ele>163.36</ele></trkpt><trkpt lat="49.5889" lon="-1.52697"><ele>163.77</ele></trkpt><trkpt lat="49.58882" lon="-1.52749"><ele>164.13</ele></trkpt><trkpt lat="49.58882" lon="-1.52757"><ele>164.14</ele></trkpt><trkpt lat="49.58883" lon="-1.52764"><ele>164.25</ele></trkpt><trkpt lat="49.58884" lon="-1.52774"><ele>164.38</ele></trkpt><trkpt lat="49.58884" lon="-1.52783"><ele>164.58</ele></trkpt><trkpt lat="49.58867" lon="-1.52919"><ele>166.49</ele></trkpt><trkpt lat="49.58863" lon="-1.52949"><ele>166.92</ele></trkpt><trkpt lat="49.5886" lon="-1.52975"><ele>167.25</ele></trkpt><trkpt lat="49.58859" lon="-1.52977"><ele>167.24</ele></trkpt><trkpt lat="49.58857" lon="-1.52976"><ele>167.26</ele></trkpt><trkpt lat="49.58859" lon="-1.52977"><ele>167.24</ele></trkpt><trkpt lat="49.58858" lon="-1.52985"><ele>167.36</ele></trkpt><trkpt lat="49.58856" lon="-1.52992"><ele>167.48</ele></trkpt><trkpt lat="49.58822" lon="-1.53084"><ele>168.84</ele></trkpt><trkpt lat="49.58817" lon="-1.53127"><ele>169.35</ele></trkpt><trkpt lat="49.58814" lon="-1.53155"><ele>169.66</ele></trkpt><trkpt lat="49.58813" lon="-1.53167"><ele>169.76</ele></trkpt><trkpt lat="49.58811" lon="-1.53201"><ele>170.06</ele></trkpt><trkpt lat="49.5881" lon="-1.53211"><ele>170.14</ele></trkpt><trkpt lat="49.58798" lon="-1.53313"><ele>171.54</ele></trkpt><trkpt lat="49.58797" lon="-1.5332"><ele>171.66</ele></trkpt><trkpt lat="49.58791" lon="-1.53358"><ele>171.94</ele></trkpt><trkpt lat="49.58787" lon="-1.5339"><ele>172.32</ele></trkpt><trkpt lat="49.58784" lon="-1.53414"><ele>172.63</ele></trkpt><trkpt lat="49.58781" lon="-1.53436"><ele>172.9</ele></trkpt><trkpt lat="49.58773" lon="-1.53486"><ele>173.35</ele></trkpt><trkpt lat="49.58768" lon="-1.53527"><ele>173.75</ele></trkpt><trkpt lat="49.58757" lon="-1.53602"><ele>174.24</ele></trkpt><trkpt lat="49.58749" lon="-1.53658"><ele>174.37</ele></trkpt><trkpt lat="49.58748" lon="-1.53667"><ele>174.33</ele></trkpt><trkpt lat="49.58736" lon="-1.53755"><ele>174.41</ele></trkpt><trkpt lat="49.58725" lon="-1.53845"><ele>174.17</ele></trkpt><trkpt lat="49.58722" lon="-1.53867"><ele>173.95</ele></trkpt><trkpt lat="49.58713" lon="-1.53928"><ele>173.62</ele></trkpt><trkpt lat="49.58692" lon="-1.54074"><ele>171.83</ele></trkpt><trkpt lat="49.58673" lon="-1.54204"><ele>169.65</ele></trkpt><trkpt lat="49.58672" lon="-1.54211"><ele>169.64</ele></trkpt><trkpt lat="49.58661" lon="-1.54299"><ele>168.84</ele></trkpt><trkpt lat="49.58648" lon="-1.54383"><ele>167.54</ele></trkpt><trkpt lat="49.58638" lon="-1.54465"><ele>167.29</ele></trkpt><trkpt lat="49.58638" lon="-1.5447"><ele>167.34</ele></trkpt><trkpt lat="49.58701" lon="-1.54492"><ele>170.94</ele></trkpt><trkpt lat="49.58756" lon="-1.54512"><ele>173.14</ele></trkpt><trkpt lat="49.58802" lon="-1.54529"><ele>174.61</ele></trkpt><trkpt lat="49.58882" lon="-1.54561"><ele>176.21</ele></trkpt><trkpt lat="49.58906" lon="-1.54567"><ele>176.15</ele></trkpt><trkpt lat="49.58983" lon="-1.54595"><ele>176.32</ele></trkpt><trkpt lat="49.58994" lon="-1.54599"><ele>176.61</ele></trkpt><trkpt lat="49.59003" lon="-1.54604"><ele>176.81</ele></trkpt><trkpt lat="49.58988" lon="-1.54598"><ele>176.43</ele></trkpt><trkpt lat="49.59003" lon="-1.54604"><ele>176.81</ele></trkpt><trkpt lat="49.59008" lon="-1.54606"><ele>176.9</ele></trkpt><trkpt lat="49.59038" lon="-1.54621"><ele>177.23</ele></trkpt><trkpt lat="49.59053" lon="-1.54629"><ele>177.05</ele></trkpt><trkpt lat="49.59144" lon="-1.54677"><ele>173.93</ele></trkpt><trkpt lat="49.59189" lon="-1.54702"><ele>172.96</ele></trkpt><trkpt lat="49.59202" lon="-1.5471"><ele>172.3</ele></trkpt><trkpt lat="49.59241" lon="-1.54729"><ele>168.69</ele></trkpt><trkpt lat="49.59244" lon="-1.54744"><ele>167.22</ele></trkpt><trkpt lat="49.59246" lon="-1.54754"><ele>166.21</ele></trkpt><trkpt lat="49.59253" lon="-1.54789"><ele>164.13</ele></trkpt><trkpt lat="49.59263" lon="-1.54817"><ele>160.95</ele></trkpt><trkpt lat="49.59266" lon="-1.54825"><ele>160.6</ele></trkpt><trkpt lat="49.59272" lon="-1.5484"><ele>158.68</ele></trkpt><trkpt lat="49.59278" lon="-1.5485"><ele>157.8</ele></trkpt><trkpt lat="49.59287" lon="-1.54861"><ele>156.48</ele></trkpt><trkpt lat="49.59295" lon="-1.54867"><ele>155.52</ele></trkpt><trkpt lat="49.5931" lon="-1.54874"><ele>154.34</ele></trkpt><trkpt lat="49.59285" lon="-1.54864"><ele>156.48</ele></trkpt><trkpt lat="49.5931" lon="-1.54874"><ele>154.34</ele></trkpt><trkpt lat="49.59332" lon="-1.54884"><ele>152.62</ele></trkpt><trkpt lat="49.59334" lon="-1.54885"><ele>152.62</ele></trkpt><trkpt lat="49.59335" lon="-1.54885"><ele>152.62</ele></trkpt><trkpt lat="49.59354" lon="-1.54893"><ele>151.54</ele></trkpt><trkpt lat="49.59367" lon="-1.54899"><ele>150.94</ele></trkpt><trkpt lat="49.59395" lon="-1.5491"><ele>150.32</ele></trkpt><trkpt lat="49.59431" lon="-1.54925"><ele>149.15</ele></trkpt><trkpt lat="49.59436" lon="-1.54927"><ele>149.05</ele></trkpt><trkpt lat="49.595" lon="-1.54952"><ele>148.27</ele></trkpt><trkpt lat="49.59507" lon="-1.54955"><ele>148.3</ele></trkpt><trkpt lat="49.59514" lon="-1.54957"><ele>148.1</ele></trkpt><trkpt lat="49.5958" lon="-1.54987"><ele>149.27</ele></trkpt><trkpt lat="49.59627" lon="-1.55007"><ele>149.61</ele></trkpt><trkpt lat="49.59656" lon="-1.5502"><ele>149.62</ele></trkpt><trkpt lat="49.59674" lon="-1.55029"><ele>149.91</ele></trkpt><trkpt lat="49.5968" lon="-1.55032"><ele>150.01</ele></trkpt><trkpt lat="49.59688" lon="-1.55034"><ele>149.9</ele></trkpt><trkpt lat="49.59719" lon="-1.55045"><ele>151.21</ele></trkpt><trkpt lat="49.59725" lon="-1.55046"><ele>151.59</ele></trkpt><trkpt lat="49.59728" lon="-1.55046"><ele>151.99</ele></trkpt><trkpt lat="49.59733" lon="-1.55044"><ele>152.26</ele></trkpt><trkpt lat="49.59735" lon="-1.55043"><ele>152.53</ele></trkpt><trkpt lat="49.59738" lon="-1.55041"><ele>152.53</ele></trkpt><trkpt lat="49.59756" lon="-1.55029"><ele>153.45</ele></trkpt><trkpt lat="49.59778" lon="-1.55017"><ele>155</ele></trkpt><trkpt lat="49.59835" lon="-1.54988"><ele>157.08</ele></trkpt><trkpt lat="49.59859" lon="-1.54983"><ele>157.66</ele></trkpt><trkpt lat="49.59866" lon="-1.54981"><ele>158.08</ele></trkpt><trkpt lat="49.59874" lon="-1.54984"><ele>158.64</ele></trkpt><trkpt lat="49.59893" lon="-1.5499"><ele>159.28</ele></trkpt><trkpt lat="49.5991" lon="-1.55"><ele>159.36</ele></trkpt><trkpt lat="49.59875" lon="-1.5498"><ele>158.62</ele></trkpt><trkpt lat="49.5991" lon="-1.55"><ele>159.36</ele></trkpt><trkpt lat="49.59912" lon="-1.55001"><ele>159.39</ele></trkpt><trkpt lat="49.59937" lon="-1.55017"><ele>159.71</ele></trkpt><trkpt lat="49.59949" lon="-1.55025"><ele>159.86</ele></trkpt><trkpt lat="49.59965" lon="-1.55038"><ele>160.39</ele></trkpt><trkpt lat="49.59974" lon="-1.55045"><ele>160.7</ele></trkpt><trkpt lat="49.59985" lon="-1.55058"><ele>160.58</ele></trkpt><trkpt lat="49.59986" lon="-1.5506"><ele>160.58</ele></trkpt><trkpt lat="49.59988" lon="-1.55071"><ele>160.92</ele></trkpt><trkpt lat="49.60008" lon="-1.5514"><ele>159.44</ele></trkpt><trkpt lat="49.6001" lon="-1.55152"><ele>159.05</ele></trkpt><trkpt lat="49.60018" lon="-1.55156"><ele>158.9</ele></trkpt><trkpt lat="49.60052" lon="-1.55156"><ele>158.02</ele></trkpt><trkpt lat="49.60063" lon="-1.55155"><ele>157.78</ele></trkpt><trkpt lat="49.6009" lon="-1.55155"><ele>157.38</ele></trkpt><trkpt lat="49.60125" lon="-1.55155"><ele>157.02</ele></trkpt><trkpt lat="49.60128" lon="-1.55154"><ele>156.97</ele></trkpt><trkpt lat="49.6021" lon="-1.55155"><ele>157.28</ele></trkpt><trkpt lat="49.60247" lon="-1.55155"><ele>157.65</ele></trkpt><trkpt lat="49.60261" lon="-1.55158"><ele>157.72</ele></trkpt><trkpt lat="49.60285" lon="-1.55166"><ele>158.03</ele></trkpt><trkpt lat="49.60289" lon="-1.5516"><ele>158.13</ele></trkpt><trkpt lat="49.60284" lon="-1.55152"><ele>157.97</ele></trkpt><trkpt lat="49.60289" lon="-1.5516"><ele>158.13</ele></trkpt><trkpt lat="49.60295" lon="-1.55151"><ele>158.18</ele></trkpt><trkpt lat="49.60302" lon="-1.55144"><ele>158.46</ele></trkpt><trkpt lat="49.60357" lon="-1.55101"><ele>158.39</ele></trkpt><trkpt lat="49.60366" lon="-1.55093"><ele>158.18</ele></trkpt><trkpt lat="49.60377" lon="-1.55083"><ele>158.14</ele></trkpt><trkpt lat="49.6041" lon="-1.55052"><ele>157.54</ele></trkpt><trkpt lat="49.6043" lon="-1.55035"><ele>156.94</ele></trkpt><trkpt lat="49.60445" lon="-1.55022"><ele>156.05</ele></trkpt><trkpt lat="49.60461" lon="-1.55006"><ele>155.48</ele></trkpt><trkpt lat="49.60472" lon="-1.54996"><ele>154.75</ele></trkpt><trkpt lat="49.60507" lon="-1.54959"><ele>151.99</ele></trkpt><trkpt lat="49.60504" lon="-1.54953"><ele>152.5</ele></trkpt><trkpt lat="49.60507" lon="-1.54959"><ele>151.99</ele></trkpt><trkpt lat="49.60516" lon="-1.54948"><ele>150.72</ele></trkpt><trkpt lat="49.6052" lon="-1.54942"><ele>150.48</ele></trkpt><trkpt lat="49.60529" lon="-1.54927"><ele>149.06</ele></trkpt><trkpt lat="49.60558" lon="-1.54886"><ele>145.21</ele></trkpt><trkpt lat="49.60564" lon="-1.54877"><ele>143.7</ele></trkpt><trkpt lat="49.60567" lon="-1.54868"><ele>143.3</ele></trkpt><trkpt lat="49.60555" lon="-1.54846"><ele>144.93</ele></trkpt><trkpt lat="49.60545" lon="-1.54829"><ele>146.32</ele></trkpt><trkpt lat="49.60537" lon="-1.54813"><ele>146.15</ele></trkpt><trkpt lat="49.60529" lon="-1.54792"><ele>145.19</ele></trkpt><trkpt lat="49.60523" lon="-1.54775"><ele>145.03</ele></trkpt><trkpt lat="49.60516" lon="-1.54743"><ele>144.32</ele></trkpt><trkpt lat="49.60514" lon="-1.54723"><ele>144.72</ele></trkpt><trkpt lat="49.60513" lon="-1.54701"><ele>144.44</ele></trkpt><trkpt lat="49.60513" lon="-1.54665"><ele>144.34</ele></trkpt><trkpt lat="49.6051" lon="-1.54651"><ele>144.51</ele></trkpt><trkpt lat="49.60508" lon="-1.5464"><ele>143.94</ele></trkpt><trkpt lat="49.60502" lon="-1.5461"><ele>144.24</ele></trkpt><trkpt lat="49.60495" lon="-1.54579"><ele>144.01</ele></trkpt><trkpt lat="49.60481" lon="-1.5452"><ele>145.81</ele></trkpt><trkpt lat="49.60466" lon="-1.54464"><ele>145.26</ele></trkpt><trkpt lat="49.60464" lon="-1.54455"><ele>145.19</ele></trkpt><trkpt lat="49.60462" lon="-1.54448"><ele>144.95</ele></trkpt><trkpt lat="49.60455" lon="-1.54427"><ele>144.52</ele></trkpt><trkpt lat="49.60449" lon="-1.5441"><ele>143.86</ele></trkpt><trkpt lat="49.60439" lon="-1.54389"><ele>143.09</ele></trkpt><trkpt lat="49.60425" lon="-1.54364"><ele>141.71</ele></trkpt><trkpt lat="49.60422" lon="-1.54358"><ele>141.43</ele></trkpt><trkpt lat="49.60395" lon="-1.54302"><ele>138.79</ele></trkpt><trkpt lat="49.60389" lon="-1.54291"><ele>138.24</ele></trkpt><trkpt lat="49.60384" lon="-1.54283"><ele>137.53</ele></trkpt><trkpt lat="49.60369" lon="-1.54257"><ele>135.53</ele></trkpt><trkpt lat="49.60365" lon="-1.54246"><ele>134.44</ele></trkpt><trkpt lat="49.60363" lon="-1.54243"><ele>134.44</ele></trkpt><trkpt lat="49.60361" lon="-1.54234"><ele>134.11</ele></trkpt><trkpt lat="49.60358" lon="-1.54212"><ele>133.01</ele></trkpt><trkpt lat="49.60357" lon="-1.54192"><ele>132.71</ele></trkpt><trkpt lat="49.60355" lon="-1.54169"><ele>131.66</ele></trkpt><trkpt lat="49.60348" lon="-1.54143"><ele>131.15</ele></trkpt><trkpt lat="49.60346" lon="-1.5415"><ele>131.25</ele></trkpt><trkpt lat="49.60339" lon="-1.54167"><ele>131.73</ele></trkpt><trkpt lat="49.60337" lon="-1.54122"><ele>131.01</ele></trkpt><trkpt lat="49.60332" lon="-1.54052"><ele>129.56</ele></trkpt><trkpt lat="49.60329" lon="-1.54039"><ele>129.53</ele></trkpt><trkpt lat="49.60324" lon="-1.54039"><ele>129.55</ele></trkpt><trkpt lat="49.60329" lon="-1.54039"><ele>129.53</ele></trkpt><trkpt lat="49.60328" lon="-1.54034"><ele>129.53</ele></trkpt><trkpt lat="49.60325" lon="-1.54024"><ele>129.51</ele></trkpt><trkpt lat="49.60314" lon="-1.54003"><ele>129.55</ele></trkpt><trkpt lat="49.60311" lon="-1.53998"><ele>129.61</ele></trkpt><trkpt lat="49.6029" lon="-1.5397"><ele>128.85</ele></trkpt><trkpt lat="49.60272" lon="-1.53939"><ele>128.24</ele></trkpt><trkpt lat="49.6024" lon="-1.53896"><ele>127.38</ele></trkpt><trkpt lat="49.60238" lon="-1.53893"><ele>127.42</ele></trkpt><trkpt lat="49.60222" lon="-1.53866"><ele>127.14</ele></trkpt><trkpt lat="49.60217" lon="-1.53858"><ele>126.93</ele></trkpt><trkpt lat="49.60209" lon="-1.53845"><ele>126.73</ele></trkpt><trkpt lat="49.60193" lon="-1.53821"><ele>126.14</ele></trkpt><trkpt lat="49.60178" lon="-1.53801"><ele>125.38</ele></trkpt><trkpt lat="49.60176" lon="-1.53799"><ele>125.14</ele></trkpt><trkpt lat="49.60163" lon="-1.53783"><ele>124.72</ele></trkpt><trkpt lat="49.60179" lon="-1.53764"><ele>125.23</ele></trkpt><trkpt lat="49.60185" lon="-1.53758"><ele>125.43</ele></trkpt><trkpt lat="49.60188" lon="-1.53754"><ele>125.67</ele></trkpt><trkpt lat="49.60214" lon="-1.53726"><ele>127.82</ele></trkpt><trkpt lat="49.6024" lon="-1.53699"><ele>129.42</ele></trkpt><trkpt lat="49.60259" lon="-1.53679"><ele>130.16</ele></trkpt><trkpt lat="49.60277" lon="-1.5366"><ele>130.5</ele></trkpt><trkpt lat="49.6033" lon="-1.536"><ele>130.93</ele></trkpt><trkpt lat="49.60344" lon="-1.53588"><ele>130.76</ele></trkpt><trkpt lat="49.60359" lon="-1.53557"><ele>130.47</ele></trkpt><trkpt lat="49.60367" lon="-1.5354"><ele>130.48</ele></trkpt><trkpt lat="49.60369" lon="-1.53535"><ele>130.47</ele></trkpt><trkpt lat="49.60374" lon="-1.53514"><ele>130.55</ele></trkpt><trkpt lat="49.60381" lon="-1.53488"><ele>130.4</ele></trkpt><trkpt lat="49.60393" lon="-1.53442"><ele>130.17</ele></trkpt><trkpt lat="49.60397" lon="-1.53429"><ele>130.1</ele></trkpt><trkpt lat="49.60401" lon="-1.53415"><ele>130.02</ele></trkpt><trkpt lat="49.60402" lon="-1.53403"><ele>129.99</ele></trkpt><trkpt lat="49.60393" lon="-1.53378"><ele>130.07</ele></trkpt><trkpt lat="49.60404" lon="-1.53368"><ele>129.79</ele></trkpt><trkpt lat="49.60431" lon="-1.53352"><ele>128.89</ele></trkpt><trkpt lat="49.60435" lon="-1.5335"><ele>128.75</ele></trkpt><trkpt lat="49.60456" lon="-1.53335"><ele>127.55</ele></trkpt><trkpt lat="49.60467" lon="-1.53324"><ele>127.26</ele></trkpt><trkpt lat="49.60483" lon="-1.53309"><ele>126.97</ele></trkpt><trkpt lat="49.60531" lon="-1.53254"><ele>125.09</ele></trkpt><trkpt lat="49.60538" lon="-1.53248"><ele>124.87</ele></trkpt><trkpt lat="49.60581" lon="-1.5321"><ele>122.54</ele></trkpt><trkpt lat="49.60596" lon="-1.53193"><ele>121.72</ele></trkpt><trkpt lat="49.60603" lon="-1.53183"><ele>121.6</ele></trkpt><trkpt lat="49.60609" lon="-1.53174"><ele>120.98</ele></trkpt><trkpt lat="49.60617" lon="-1.53162"><ele>120.34</ele></trkpt><trkpt lat="49.6063" lon="-1.53143"><ele>119.98</ele></trkpt><trkpt lat="49.6064" lon="-1.53127"><ele>119.37</ele></trkpt><trkpt lat="49.60647" lon="-1.53109"><ele>118.62</ele></trkpt><trkpt lat="49.60653" lon="-1.53085"><ele>117.87</ele></trkpt><trkpt lat="49.6066" lon="-1.53067"><ele>117.45</ele></trkpt><trkpt lat="49.60675" lon="-1.53039"><ele>117.1</ele></trkpt><trkpt lat="49.60693" lon="-1.53016"><ele>117.26</ele></trkpt><trkpt lat="49.60711" lon="-1.52991"><ele>116.26</ele></trkpt><trkpt lat="49.60728" lon="-1.52972"><ele>115.46</ele></trkpt><trkpt lat="49.60735" lon="-1.52964"><ele>115.04</ele></trkpt><trkpt lat="49.60739" lon="-1.52959"><ele>114.71</ele></trkpt><trkpt lat="49.60772" lon="-1.52923"><ele>113.6</ele></trkpt><trkpt lat="49.60781" lon="-1.52913"><ele>113.33</ele></trkpt><trkpt lat="49.60787" lon="-1.52909"><ele>113.18</ele></trkpt><trkpt lat="49.60803" lon="-1.52909"><ele>112.76</ele></trkpt><trkpt lat="49.60804" lon="-1.52894"><ele>112.16</ele></trkpt><trkpt lat="49.60806" lon="-1.52857"><ele>111.17</ele></trkpt><trkpt lat="49.60806" lon="-1.5285"><ele>111.01</ele></trkpt><trkpt lat="49.60805" lon="-1.52809"><ele>110.57</ele></trkpt><trkpt lat="49.60801" lon="-1.52782"><ele>110.49</ele></trkpt><trkpt lat="49.60799" lon="-1.52774"><ele>110.38</ele></trkpt><trkpt lat="49.60797" lon="-1.52763"><ele>110.4</ele></trkpt><trkpt lat="49.60793" lon="-1.52746"><ele>110.23</ele></trkpt><trkpt lat="49.60782" lon="-1.527"><ele>110.03</ele></trkpt><trkpt lat="49.60773" lon="-1.52673"><ele>110.09</ele></trkpt><trkpt lat="49.60768" lon="-1.52663"><ele>110.08</ele></trkpt><trkpt lat="49.60766" lon="-1.52659"><ele>110.16</ele></trkpt><trkpt lat="49.60756" lon="-1.52641"><ele>109.98</ele></trkpt><trkpt lat="49.60752" lon="-1.52634"><ele>109.84</ele></trkpt><trkpt lat="49.60734" lon="-1.526"><ele>110.19</ele></trkpt><trkpt lat="49.60726" lon="-1.52585"><ele>110.38</ele></trkpt><trkpt lat="49.60704" lon="-1.52545"><ele>110.02</ele></trkpt><trkpt lat="49.607" lon="-1.5254"><ele>109.84</ele></trkpt><trkpt lat="49.60698" lon="-1.52537"><ele>109.8</ele></trkpt><trkpt lat="49.60694" lon="-1.5253"><ele>109.4</ele></trkpt><trkpt lat="49.60688" lon="-1.52522"><ele>108.89</ele></trkpt><trkpt lat="49.60687" lon="-1.52521"><ele>108.61</ele></trkpt><trkpt lat="49.60683" lon="-1.52516"><ele>108.39</ele></trkpt><trkpt lat="49.60675" lon="-1.52503"><ele>108.2</ele></trkpt></trkseg></trk></gpx>
