<?xml version="1.0" encoding="UTF-8" standalone="no"?>
<gpx xmlns="http://www.topografix.com/GPX/1/1" version="1.1" xmlns:xsi="http://www.w3.org/2001/XMLSchema-instance" xsi:schemaLocation="http://www.topografix.com/GPX/1/1 http://www.topografix.com/GPX/1/1/gpx.xsd" creator="Cirkwi"><metadata><name><![CDATA[Les chemins du Mont-Saint-Michel - Chemin de Cherbourg - Cherbourg-en-Cotentin - Les Pieux]]></name><desc><![CDATA[Au départ de Cherbourg, vous profiterez de l'ancienne gare maritime transatlantique et de ses points de vue sur les rades et le sous-marin Le Redoutable. L'itinéraire se poursuit à travers le bocage normand typique pour arriver à la petite ville des Pieux.]]></desc><author><name><![CDATA[Attitude Manche]]></name></author><link href="http://fichier0.cirkwi.com/image/photo/circuit/1300x1300/483145/fr/0.jpg"><text><![CDATA[2022_Digue_Est_Rade_Cherbourg@Xavier Lachenaud-Attitude Manche|]]></text></link><time>2026-01-09T05:26:40Z</time></metadata><trk><trkseg><trkpt lat="49.64234" lon="-1.62276"><ele>5.86</ele></trkpt><trkpt lat="49.64231" lon="-1.6227"><ele>5.98</ele></trkpt><trkpt lat="49.64217" lon="-1.62211"><ele>5.46</ele></trkpt><trkpt lat="49.64211" lon="-1.62196"><ele>5.38</ele></trkpt><trkpt lat="49.642" lon="-1.62172"><ele>5.27</ele></trkpt><trkpt lat="49.64187" lon="-1.62151"><ele>5.21</ele></trkpt><trkpt lat="49.6418" lon="-1.62142"><ele>5.14</ele></trkpt><trkpt lat="49.64162" lon="-1.62129"><ele>4.97</ele></trkpt><trkpt lat="49.64152" lon="-1.62125"><ele>4.86</ele></trkpt><trkpt lat="49.64149" lon="-1.62124"><ele>4.88</ele></trkpt><trkpt lat="49.64137" lon="-1.62122"><ele>4.79</ele></trkpt><trkpt lat="49.64123" lon="-1.62123"><ele>4.68</ele></trkpt><trkpt lat="49.64116" lon="-1.62126"><ele>4.7</ele></trkpt><trkpt lat="49.64061" lon="-1.62139"><ele>4.59</ele></trkpt><trkpt lat="49.64019" lon="-1.62147"><ele>4.53</ele></trkpt><trkpt lat="49.64003" lon="-1.62149"><ele>4.67</ele></trkpt><trkpt lat="49.63976" lon="-1.62136"><ele>4.68</ele></trkpt><trkpt lat="49.63943" lon="-1.62118"><ele>4.86</ele></trkpt><trkpt lat="49.63924" lon="-1.62114"><ele>5.12</ele></trkpt><trkpt lat="49.63922" lon="-1.62114"><ele>5.2</ele></trkpt><trkpt lat="49.63906" lon="-1.62115"><ele>5.32</ele></trkpt><trkpt lat="49.63892" lon="-1.62131"><ele>5.03</ele></trkpt><trkpt lat="49.6388" lon="-1.62141"><ele>4.87</ele></trkpt><trkpt lat="49.63874" lon="-1.62144"><ele>4.85</ele></trkpt><trkpt lat="49.63437" lon="-1.62224"><ele>4.56</ele></trkpt><trkpt lat="49.63403" lon="-1.62228"><ele>4.64</ele></trkpt><trkpt lat="49.63393" lon="-1.62229"><ele>4.69</ele></trkpt><trkpt lat="49.63378" lon="-1.62233"><ele>4.71</ele></trkpt><trkpt lat="49.6334" lon="-1.62242"><ele>4.57</ele></trkpt><trkpt lat="49.63333" lon="-1.62246"><ele>4.59</ele></trkpt><trkpt lat="49.63328" lon="-1.62252"><ele>4.61</ele></trkpt><trkpt lat="49.63293" lon="-1.62293"><ele>5.77</ele></trkpt><trkpt lat="49.6329" lon="-1.62297"><ele>5.96</ele></trkpt><trkpt lat="49.63284" lon="-1.62303"><ele>6.31</ele></trkpt><trkpt lat="49.63262" lon="-1.62329"><ele>7.5</ele></trkpt><trkpt lat="49.63244" lon="-1.62343"><ele>8.7</ele></trkpt><trkpt lat="49.63232" lon="-1.6235"><ele>9.61</ele></trkpt><trkpt lat="49.63234" lon="-1.62389"><ele>11.41</ele></trkpt><trkpt lat="49.6324" lon="-1.62534"><ele>22.83</ele></trkpt><trkpt lat="49.63238" lon="-1.62562"><ele>24.38</ele></trkpt><trkpt lat="49.63201" lon="-1.62808"><ele>37.58</ele></trkpt><trkpt lat="49.63192" lon="-1.6286"><ele>40.67</ele></trkpt><trkpt lat="49.63187" lon="-1.62878"><ele>41.98</ele></trkpt><trkpt lat="49.63154" lon="-1.62965"><ele>49.42</ele></trkpt><trkpt lat="49.63148" lon="-1.62988"><ele>51.16</ele></trkpt><trkpt lat="49.63141" lon="-1.6304"><ele>55.49</ele></trkpt><trkpt lat="49.63141" lon="-1.63061"><ele>56.91</ele></trkpt><trkpt lat="49.63147" lon="-1.63109"><ele>60.33</ele></trkpt><trkpt lat="49.63167" lon="-1.63192"><ele>64.06</ele></trkpt><trkpt lat="49.63171" lon="-1.63214"><ele>64.84</ele></trkpt><trkpt lat="49.63173" lon="-1.63235"><ele>65.61</ele></trkpt><trkpt lat="49.63177" lon="-1.63296"><ele>67.41</ele></trkpt><trkpt lat="49.63178" lon="-1.63316"><ele>67.53</ele></trkpt><trkpt lat="49.63181" lon="-1.63332"><ele>67.86</ele></trkpt><trkpt lat="49.63183" lon="-1.63354"><ele>68.18</ele></trkpt><trkpt lat="49.63192" lon="-1.6347"><ele>70.22</ele></trkpt><trkpt lat="49.63195" lon="-1.63534"><ele>71.87</ele></trkpt><trkpt lat="49.63191" lon="-1.63564"><ele>72.43</ele></trkpt><trkpt lat="49.63192" lon="-1.6357"><ele>72.53</ele></trkpt><trkpt lat="49.63186" lon="-1.63572"><ele>72.81</ele></trkpt><trkpt lat="49.63182" lon="-1.63576"><ele>72.94</ele></trkpt><trkpt lat="49.63123" lon="-1.63691"><ele>76.3</ele></trkpt><trkpt lat="49.63099" lon="-1.63755"><ele>77.66</ele></trkpt><trkpt lat="49.63035" lon="-1.63895"><ele>80.26</ele></trkpt><trkpt lat="49.6303" lon="-1.63904"><ele>80.29</ele></trkpt><trkpt lat="49.63018" lon="-1.6392"><ele>80.35</ele></trkpt><trkpt lat="49.62998" lon="-1.6394"><ele>79.73</ele></trkpt><trkpt lat="49.62965" lon="-1.63981"><ele>78.69</ele></trkpt><trkpt lat="49.62935" lon="-1.64039"><ele>78.27</ele></trkpt><trkpt lat="49.62919" lon="-1.64054"><ele>79.03</ele></trkpt><trkpt lat="49.62903" lon="-1.64066"><ele>79.72</ele></trkpt><trkpt lat="49.62913" lon="-1.64097"><ele>80.95</ele></trkpt><trkpt lat="49.62771" lon="-1.64232"><ele>86.82</ele></trkpt><trkpt lat="49.62733" lon="-1.64267"><ele>88.44</ele></trkpt><trkpt lat="49.62726" lon="-1.64276"><ele>88.91</ele></trkpt><trkpt lat="49.62624" lon="-1.64375"><ele>94.05</ele></trkpt><trkpt lat="49.62564" lon="-1.64436"><ele>97.08</ele></trkpt><trkpt lat="49.62529" lon="-1.64469"><ele>99.01</ele></trkpt><trkpt lat="49.62415" lon="-1.64584"><ele>103.89</ele></trkpt><trkpt lat="49.62395" lon="-1.64601"><ele>103.49</ele></trkpt><trkpt lat="49.62361" lon="-1.64635"><ele>102.32</ele></trkpt><trkpt lat="49.6232" lon="-1.64673"><ele>101.04</ele></trkpt><trkpt lat="49.62223" lon="-1.64769"><ele>97.58</ele></trkpt><trkpt lat="49.62221" lon="-1.64781"><ele>97.63</ele></trkpt><trkpt lat="49.62212" lon="-1.64798"><ele>98.35</ele></trkpt><trkpt lat="49.62199" lon="-1.64817"><ele>98.78</ele></trkpt><trkpt lat="49.62189" lon="-1.64834"><ele>98.48</ele></trkpt><trkpt lat="49.62168" lon="-1.64863"><ele>97.41</ele></trkpt><trkpt lat="49.6207" lon="-1.64996"><ele>89.97</ele></trkpt><trkpt lat="49.62016" lon="-1.65054"><ele>86.69</ele></trkpt><trkpt lat="49.62007" lon="-1.65066"><ele>86.43</ele></trkpt><trkpt lat="49.61986" lon="-1.65105"><ele>86.2</ele></trkpt><trkpt lat="49.61953" lon="-1.65151"><ele>84.9</ele></trkpt><trkpt lat="49.61924" lon="-1.65186"><ele>84.81</ele></trkpt><trkpt lat="49.61899" lon="-1.65211"><ele>83.36</ele></trkpt><trkpt lat="49.61884" lon="-1.65232"><ele>82.99</ele></trkpt><trkpt lat="49.61856" lon="-1.65263"><ele>82.47</ele></trkpt><trkpt lat="49.6184" lon="-1.65279"><ele>81.46</ele></trkpt><trkpt lat="49.61828" lon="-1.65285"><ele>80.89</ele></trkpt><trkpt lat="49.61821" lon="-1.65287"><ele>80.57</ele></trkpt><trkpt lat="49.61821" lon="-1.65292"><ele>80.82</ele></trkpt><trkpt lat="49.61817" lon="-1.65303"><ele>81.57</ele></trkpt><trkpt lat="49.61749" lon="-1.65394"><ele>84.09</ele></trkpt><trkpt lat="49.61719" lon="-1.65437"><ele>83.63</ele></trkpt><trkpt lat="49.61675" lon="-1.65505"><ele>82.32</ele></trkpt><trkpt lat="49.61642" lon="-1.65559"><ele>80.91</ele></trkpt><trkpt lat="49.61629" lon="-1.65583"><ele>80.39</ele></trkpt><trkpt lat="49.61618" lon="-1.65594"><ele>79.37</ele></trkpt><trkpt lat="49.61573" lon="-1.65654"><ele>76.86</ele></trkpt><trkpt lat="49.61572" lon="-1.65667"><ele>77.26</ele></trkpt><trkpt lat="49.61551" lon="-1.65729"><ele>76.41</ele></trkpt><trkpt lat="49.6154" lon="-1.65758"><ele>74.86</ele></trkpt><trkpt lat="49.61539" lon="-1.65776"><ele>74.62</ele></trkpt><trkpt lat="49.61539" lon="-1.65793"><ele>74.19</ele></trkpt><trkpt lat="49.61541" lon="-1.65809"><ele>73.62</ele></trkpt><trkpt lat="49.61545" lon="-1.65824"><ele>73.11</ele></trkpt><trkpt lat="49.61558" lon="-1.65867"><ele>71.94</ele></trkpt><trkpt lat="49.61562" lon="-1.65904"><ele>70.4</ele></trkpt><trkpt lat="49.61563" lon="-1.65939"><ele>68.48</ele></trkpt><trkpt lat="49.61561" lon="-1.65968"><ele>66.85</ele></trkpt><trkpt lat="49.61562" lon="-1.6598"><ele>66.97</ele></trkpt><trkpt lat="49.61555" lon="-1.6598"><ele>66.4</ele></trkpt><trkpt lat="49.61541" lon="-1.65983"><ele>65.12</ele></trkpt><trkpt lat="49.61536" lon="-1.65999"><ele>64.88</ele></trkpt><trkpt lat="49.61533" lon="-1.6601"><ele>65.12</ele></trkpt><trkpt lat="49.6153" lon="-1.66019"><ele>66.41</ele></trkpt><trkpt lat="49.61488" lon="-1.6607"><ele>68.71</ele></trkpt><trkpt lat="49.61467" lon="-1.66087"><ele>67.79</ele></trkpt><trkpt lat="49.61437" lon="-1.66104"><ele>65.6</ele></trkpt><trkpt lat="49.61417" lon="-1.66124"><ele>64.36</ele></trkpt><trkpt lat="49.61397" lon="-1.66148"><ele>63.97</ele></trkpt><trkpt lat="49.6138" lon="-1.66173"><ele>63.36</ele></trkpt><trkpt lat="49.6135" lon="-1.66222"><ele>62.74</ele></trkpt><trkpt lat="49.61327" lon="-1.66265"><ele>62.73</ele></trkpt><trkpt lat="49.61292" lon="-1.6632"><ele>62.24</ele></trkpt><trkpt lat="49.61266" lon="-1.66358"><ele>60.17</ele></trkpt><trkpt lat="49.61252" lon="-1.66374"><ele>58.74</ele></trkpt><trkpt lat="49.61231" lon="-1.66401"><ele>56.99</ele></trkpt><trkpt lat="49.61221" lon="-1.66413"><ele>56.01</ele></trkpt><trkpt lat="49.6121" lon="-1.66432"><ele>54.61</ele></trkpt><trkpt lat="49.61193" lon="-1.66457"><ele>52.99</ele></trkpt><trkpt lat="49.61172" lon="-1.66494"><ele>50.83</ele></trkpt><trkpt lat="49.61146" lon="-1.66524"><ele>48.39</ele></trkpt><trkpt lat="49.61141" lon="-1.66533"><ele>47.61</ele></trkpt><trkpt lat="49.61141" lon="-1.66542"><ele>47.17</ele></trkpt><trkpt lat="49.61152" lon="-1.66612"><ele>43.62</ele></trkpt><trkpt lat="49.61158" lon="-1.66661"><ele>42.07</ele></trkpt><trkpt lat="49.61158" lon="-1.66677"><ele>41.78</ele></trkpt><trkpt lat="49.61153" lon="-1.66688"><ele>41.46</ele></trkpt><trkpt lat="49.61144" lon="-1.66696"><ele>40.42</ele></trkpt><trkpt lat="49.61149" lon="-1.66698"><ele>41.01</ele></trkpt><trkpt lat="49.61154" lon="-1.66704"><ele>41.61</ele></trkpt><trkpt lat="49.61171" lon="-1.66755"><ele>47.2</ele></trkpt><trkpt lat="49.61191" lon="-1.66817"><ele>54.39</ele></trkpt><trkpt lat="49.61212" lon="-1.66872"><ele>60.58</ele></trkpt><trkpt lat="49.61245" lon="-1.66955"><ele>69.19</ele></trkpt><trkpt lat="49.61275" lon="-1.67033"><ele>76.79</ele></trkpt><trkpt lat="49.61253" lon="-1.67077"><ele>74.84</ele></trkpt><trkpt lat="49.61245" lon="-1.67104"><ele>73.08</ele></trkpt><trkpt lat="49.61243" lon="-1.67118"><ele>72.88</ele></trkpt><trkpt lat="49.61242" lon="-1.67136"><ele>72.64</ele></trkpt><trkpt lat="49.61244" lon="-1.67152"><ele>72.54</ele></trkpt><trkpt lat="49.61246" lon="-1.67165"><ele>72.72</ele></trkpt><trkpt lat="49.61255" lon="-1.67202"><ele>72.55</ele></trkpt><trkpt lat="49.61256" lon="-1.67218"><ele>71.98</ele></trkpt><trkpt lat="49.61257" lon="-1.67236"><ele>71.63</ele></trkpt><trkpt lat="49.61255" lon="-1.6727"><ele>71.49</ele></trkpt><trkpt lat="49.61253" lon="-1.67284"><ele>71.64</ele></trkpt><trkpt lat="49.61248" lon="-1.67298"><ele>72.43</ele></trkpt><trkpt lat="49.61237" lon="-1.67322"><ele>73.61</ele></trkpt><trkpt lat="49.61228" lon="-1.67334"><ele>73.82</ele></trkpt><trkpt lat="49.61212" lon="-1.67355"><ele>74.34</ele></trkpt><trkpt lat="49.61147" lon="-1.67424"><ele>76.44</ele></trkpt><trkpt lat="49.61123" lon="-1.6745"><ele>76.84</ele></trkpt><trkpt lat="49.61211" lon="-1.67533"><ele>85.92</ele></trkpt><trkpt lat="49.61267" lon="-1.67579"><ele>92.89</ele></trkpt><trkpt lat="49.61306" lon="-1.67616"><ele>99.55</ele></trkpt><trkpt lat="49.61313" lon="-1.67619"><ele>100.65</ele></trkpt><trkpt lat="49.61329" lon="-1.67609"><ele>102.19</ele></trkpt><trkpt lat="49.61368" lon="-1.67569"><ele>107.6</ele></trkpt><trkpt lat="49.6141" lon="-1.67523"><ele>112.98</ele></trkpt><trkpt lat="49.61451" lon="-1.6747"><ele>115.49</ele></trkpt><trkpt lat="49.6149" lon="-1.67417"><ele>117.44</ele></trkpt><trkpt lat="49.61496" lon="-1.67409"><ele>117.95</ele></trkpt><trkpt lat="49.61504" lon="-1.67427"><ele>119.73</ele></trkpt><trkpt lat="49.61537" lon="-1.67484"><ele>127.43</ele></trkpt><trkpt lat="49.61579" lon="-1.6757"><ele>136.88</ele></trkpt><trkpt lat="49.61557" lon="-1.67659"><ele>135.49</ele></trkpt><trkpt lat="49.61543" lon="-1.67743"><ele>135.17</ele></trkpt><trkpt lat="49.61528" lon="-1.67839"><ele>134.97</ele></trkpt><trkpt lat="49.6152" lon="-1.67898"><ele>135.46</ele></trkpt><trkpt lat="49.61507" lon="-1.68003"><ele>135.51</ele></trkpt><trkpt lat="49.61502" lon="-1.68056"><ele>135.55</ele></trkpt><trkpt lat="49.61498" lon="-1.68091"><ele>135.67</ele></trkpt><trkpt lat="49.61491" lon="-1.68129"><ele>135.93</ele></trkpt><trkpt lat="49.61485" lon="-1.68153"><ele>136.37</ele></trkpt><trkpt lat="49.6147" lon="-1.68197"><ele>137.03</ele></trkpt><trkpt lat="49.61454" lon="-1.68233"><ele>137.86</ele></trkpt><trkpt lat="49.61403" lon="-1.68377"><ele>139.8</ele></trkpt><trkpt lat="49.61386" lon="-1.68407"><ele>140.34</ele></trkpt><trkpt lat="49.61367" lon="-1.68431"><ele>140.55</ele></trkpt><trkpt lat="49.61339" lon="-1.68471"><ele>141.34</ele></trkpt><trkpt lat="49.61315" lon="-1.68516"><ele>142.26</ele></trkpt><trkpt lat="49.61308" lon="-1.68533"><ele>142.21</ele></trkpt><trkpt lat="49.61304" lon="-1.6855"><ele>142.33</ele></trkpt><trkpt lat="49.61301" lon="-1.68576"><ele>143.19</ele></trkpt><trkpt lat="49.61292" lon="-1.68695"><ele>144.59</ele></trkpt><trkpt lat="49.6129" lon="-1.6872"><ele>144.93</ele></trkpt><trkpt lat="49.61285" lon="-1.68746"><ele>145.22</ele></trkpt><trkpt lat="49.61279" lon="-1.6877"><ele>145.63</ele></trkpt><trkpt lat="49.61262" lon="-1.68825"><ele>146.02</ele></trkpt><trkpt lat="49.61238" lon="-1.68881"><ele>146.34</ele></trkpt><trkpt lat="49.61228" lon="-1.6891"><ele>145.81</ele></trkpt><trkpt lat="49.61222" lon="-1.68911"><ele>145.88</ele></trkpt><trkpt lat="49.61188" lon="-1.68962"><ele>146.72</ele></trkpt><trkpt lat="49.61169" lon="-1.68995"><ele>147.11</ele></trkpt><trkpt lat="49.61149" lon="-1.6902"><ele>147.12</ele></trkpt><trkpt lat="49.61125" lon="-1.69045"><ele>147.49</ele></trkpt><trkpt lat="49.61106" lon="-1.69067"><ele>147.96</ele></trkpt><trkpt lat="49.61069" lon="-1.69097"><ele>149.17</ele></trkpt><trkpt lat="49.61022" lon="-1.69126"><ele>152.27</ele></trkpt><trkpt lat="49.60999" lon="-1.69152"><ele>153.72</ele></trkpt><trkpt lat="49.60988" lon="-1.6917"><ele>154.64</ele></trkpt><trkpt lat="49.60936" lon="-1.69175"><ele>160.06</ele></trkpt><trkpt lat="49.60916" lon="-1.69184"><ele>162.28</ele></trkpt><trkpt lat="49.60905" lon="-1.69195"><ele>163.79</ele></trkpt><trkpt lat="49.60878" lon="-1.69229"><ele>166.35</ele></trkpt><trkpt lat="49.60849" lon="-1.6927"><ele>167.35</ele></trkpt><trkpt lat="49.6077" lon="-1.69362"><ele>169.03</ele></trkpt><trkpt lat="49.60722" lon="-1.69425"><ele>168.25</ele></trkpt><trkpt lat="49.60686" lon="-1.69482"><ele>165.17</ele></trkpt><trkpt lat="49.60645" lon="-1.69553"><ele>161.33</ele></trkpt><trkpt lat="49.6063" lon="-1.69576"><ele>159.8</ele></trkpt><trkpt lat="49.60612" lon="-1.69599"><ele>158.14</ele></trkpt><trkpt lat="49.60585" lon="-1.69625"><ele>155.9</ele></trkpt><trkpt lat="49.60556" lon="-1.69649"><ele>153.79</ele></trkpt><trkpt lat="49.60531" lon="-1.69673"><ele>151.92</ele></trkpt><trkpt lat="49.60439" lon="-1.69762"><ele>147.83</ele></trkpt><trkpt lat="49.60383" lon="-1.69816"><ele>146.81</ele></trkpt><trkpt lat="49.60361" lon="-1.69834"><ele>146.41</ele></trkpt><trkpt lat="49.6033" lon="-1.69853"><ele>145.32</ele></trkpt><trkpt lat="49.60305" lon="-1.69866"><ele>143.81</ele></trkpt><trkpt lat="49.60296" lon="-1.69869"><ele>143.34</ele></trkpt><trkpt lat="49.60278" lon="-1.6987"><ele>142.29</ele></trkpt><trkpt lat="49.60235" lon="-1.69861"><ele>139.68</ele></trkpt><trkpt lat="49.60208" lon="-1.69858"><ele>138.49</ele></trkpt><trkpt lat="49.60199" lon="-1.69859"><ele>137.98</ele></trkpt><trkpt lat="49.60198" lon="-1.69868"><ele>137.39</ele></trkpt><trkpt lat="49.60195" lon="-1.69875"><ele>137.13</ele></trkpt><trkpt lat="49.60187" lon="-1.69883"><ele>136.27</ele></trkpt><trkpt lat="49.60159" lon="-1.69906"><ele>134.49</ele></trkpt><trkpt lat="49.60088" lon="-1.70001"><ele>127.57</ele></trkpt><trkpt lat="49.60069" lon="-1.7003"><ele>125.7</ele></trkpt><trkpt lat="49.6003" lon="-1.70097"><ele>122.83</ele></trkpt><trkpt lat="49.60016" lon="-1.70115"><ele>122.13</ele></trkpt><trkpt lat="49.60007" lon="-1.70126"><ele>121.56</ele></trkpt><trkpt lat="49.59995" lon="-1.70143"><ele>121.26</ele></trkpt><trkpt lat="49.59983" lon="-1.70158"><ele>121.33</ele></trkpt><trkpt lat="49.59936" lon="-1.70232"><ele>119.9</ele></trkpt><trkpt lat="49.5993" lon="-1.7024"><ele>119.38</ele></trkpt><trkpt lat="49.59893" lon="-1.7028"><ele>116.33</ele></trkpt><trkpt lat="49.5984" lon="-1.70314"><ele>113.89</ele></trkpt><trkpt lat="49.59783" lon="-1.70361"><ele>112.19</ele></trkpt><trkpt lat="49.59745" lon="-1.70399"><ele>110.64</ele></trkpt><trkpt lat="49.59713" lon="-1.70437"><ele>108.33</ele></trkpt><trkpt lat="49.5969" lon="-1.7046"><ele>106.26</ele></trkpt><trkpt lat="49.59672" lon="-1.70476"><ele>104.74</ele></trkpt><trkpt lat="49.59658" lon="-1.70481"><ele>103.5</ele></trkpt><trkpt lat="49.59646" lon="-1.70479"><ele>102.01</ele></trkpt><trkpt lat="49.59621" lon="-1.7046"><ele>98.12</ele></trkpt><trkpt lat="49.59611" lon="-1.70446"><ele>97.77</ele></trkpt><trkpt lat="49.59613" lon="-1.70436"><ele>98.21</ele></trkpt><trkpt lat="49.59614" lon="-1.70427"><ele>99.07</ele></trkpt><trkpt lat="49.59613" lon="-1.7042"><ele>100.03</ele></trkpt><trkpt lat="49.59611" lon="-1.70412"><ele>100.96</ele></trkpt><trkpt lat="49.59592" lon="-1.70382"><ele>102.59</ele></trkpt><trkpt lat="49.59566" lon="-1.70344"><ele>103.69</ele></trkpt><trkpt lat="49.59537" lon="-1.70307"><ele>104.65</ele></trkpt><trkpt lat="49.59501" lon="-1.70266"><ele>105.59</ele></trkpt><trkpt lat="49.59477" lon="-1.70241"><ele>104.3</ele></trkpt><trkpt lat="49.59468" lon="-1.70236"><ele>103.88</ele></trkpt><trkpt lat="49.59449" lon="-1.70229"><ele>102</ele></trkpt><trkpt lat="49.59425" lon="-1.70223"><ele>99.48</ele></trkpt><trkpt lat="49.59417" lon="-1.70218"><ele>99.11</ele></trkpt><trkpt lat="49.59412" lon="-1.70212"><ele>98.92</ele></trkpt><trkpt lat="49.5937" lon="-1.70124"><ele>100.14</ele></trkpt><trkpt lat="49.59349" lon="-1.70086"><ele>99.69</ele></trkpt><trkpt lat="49.59324" lon="-1.70032"><ele>95.12</ele></trkpt><trkpt lat="49.59317" lon="-1.70025"><ele>93.86</ele></trkpt><trkpt lat="49.59325" lon="-1.70006"><ele>94.97</ele></trkpt><trkpt lat="49.59337" lon="-1.69978"><ele>96.24</ele></trkpt><trkpt lat="49.59351" lon="-1.69951"><ele>97.55</ele></trkpt><trkpt lat="49.59361" lon="-1.69936"><ele>98.37</ele></trkpt><trkpt lat="49.59342" lon="-1.69925"><ele>95</ele></trkpt><trkpt lat="49.59323" lon="-1.69911"><ele>92.32</ele></trkpt><trkpt lat="49.59302" lon="-1.69898"><ele>89.41</ele></trkpt><trkpt lat="49.59233" lon="-1.6987"><ele>81.14</ele></trkpt><trkpt lat="49.59189" lon="-1.69855"><ele>75.3</ele></trkpt><trkpt lat="49.59162" lon="-1.69851"><ele>72.81</ele></trkpt><trkpt lat="49.59158" lon="-1.69854"><ele>72.86</ele></trkpt><trkpt lat="49.59156" lon="-1.6986"><ele>72.09</ele></trkpt><trkpt lat="49.59154" lon="-1.69867"><ele>71.37</ele></trkpt><trkpt lat="49.59135" lon="-1.69869"><ele>69.41</ele></trkpt><trkpt lat="49.5912" lon="-1.69874"><ele>67.09</ele></trkpt><trkpt lat="49.59053" lon="-1.69877"><ele>61.05</ele></trkpt><trkpt lat="49.5904" lon="-1.69951"><ele>59.86</ele></trkpt><trkpt lat="49.59025" lon="-1.69905"><ele>56.8</ele></trkpt><trkpt lat="49.59006" lon="-1.69845"><ele>53.73</ele></trkpt><trkpt lat="49.58988" lon="-1.69795"><ele>50.92</ele></trkpt><trkpt lat="49.58978" lon="-1.69758"><ele>48.58</ele></trkpt><trkpt lat="49.58971" lon="-1.69725"><ele>46.39</ele></trkpt><trkpt lat="49.58968" lon="-1.69715"><ele>45.92</ele></trkpt><trkpt lat="49.58953" lon="-1.69673"><ele>42.44</ele></trkpt><trkpt lat="49.5894" lon="-1.69626"><ele>39.25</ele></trkpt><trkpt lat="49.58931" lon="-1.69586"><ele>37.1</ele></trkpt><trkpt lat="49.58924" lon="-1.69537"><ele>33.49</ele></trkpt><trkpt lat="49.58915" lon="-1.69499"><ele>30.95</ele></trkpt><trkpt lat="49.58903" lon="-1.69465"><ele>30.35</ele></trkpt><trkpt lat="49.58891" lon="-1.69443"><ele>30.35</ele></trkpt><trkpt lat="49.58847" lon="-1.69389"><ele>30.12</ele></trkpt><trkpt lat="49.58787" lon="-1.69315"><ele>31.84</ele></trkpt><trkpt lat="49.58758" lon="-1.69278"><ele>34.06</ele></trkpt><trkpt lat="49.58732" lon="-1.69244"><ele>35.94</ele></trkpt><trkpt lat="49.58703" lon="-1.69208"><ele>37.23</ele></trkpt><trkpt lat="49.58657" lon="-1.6913"><ele>41.82</ele></trkpt><trkpt lat="49.58635" lon="-1.69094"><ele>43.5</ele></trkpt><trkpt lat="49.58609" lon="-1.69059"><ele>46.07</ele></trkpt><trkpt lat="49.5858" lon="-1.69025"><ele>48.34</ele></trkpt><trkpt lat="49.58553" lon="-1.69084"><ele>47.85</ele></trkpt><trkpt lat="49.5854" lon="-1.69114"><ele>47.41</ele></trkpt><trkpt lat="49.5853" lon="-1.69111"><ele>48.57</ele></trkpt><trkpt lat="49.58452" lon="-1.69141"><ele>51.8</ele></trkpt><trkpt lat="49.58432" lon="-1.69149"><ele>52.3</ele></trkpt><trkpt lat="49.58414" lon="-1.69156"><ele>52.42</ele></trkpt><trkpt lat="49.58387" lon="-1.69163"><ele>53.21</ele></trkpt><trkpt lat="49.58351" lon="-1.69169"><ele>54.19</ele></trkpt><trkpt lat="49.58188" lon="-1.69184"><ele>58.24</ele></trkpt><trkpt lat="49.58154" lon="-1.69186"><ele>57.97</ele></trkpt><trkpt lat="49.58131" lon="-1.69185"><ele>57.69</ele></trkpt><trkpt lat="49.58112" lon="-1.69177"><ele>57.32</ele></trkpt><trkpt lat="49.58094" lon="-1.69166"><ele>56.97</ele></trkpt><trkpt lat="49.58079" lon="-1.69153"><ele>56.83</ele></trkpt><trkpt lat="49.58074" lon="-1.69167"><ele>56.19</ele></trkpt><trkpt lat="49.58059" lon="-1.69193"><ele>54.57</ele></trkpt><trkpt lat="49.58037" lon="-1.69226"><ele>52.24</ele></trkpt><trkpt lat="49.58018" lon="-1.69257"><ele>49.54</ele></trkpt><trkpt lat="49.58" lon="-1.69291"><ele>45.19</ele></trkpt><trkpt lat="49.57977" lon="-1.69326"><ele>40.76</ele></trkpt><trkpt lat="49.5797" lon="-1.69348"><ele>39.95</ele></trkpt><trkpt lat="49.57962" lon="-1.69368"><ele>39.65</ele></trkpt><trkpt lat="49.57949" lon="-1.69386"><ele>39.67</ele></trkpt><trkpt lat="49.57944" lon="-1.69397"><ele>39.98</ele></trkpt><trkpt lat="49.57941" lon="-1.69404"><ele>40.62</ele></trkpt><trkpt lat="49.5794" lon="-1.69409"><ele>40.73</ele></trkpt><trkpt lat="49.57942" lon="-1.69428"><ele>41.67</ele></trkpt><trkpt lat="49.57941" lon="-1.69449"><ele>44.01</ele></trkpt><trkpt lat="49.5793" lon="-1.69479"><ele>46.42</ele></trkpt><trkpt lat="49.57899" lon="-1.69551"><ele>53.09</ele></trkpt><trkpt lat="49.57879" lon="-1.69608"><ele>53.69</ele></trkpt><trkpt lat="49.57866" lon="-1.69634"><ele>54.41</ele></trkpt><trkpt lat="49.57851" lon="-1.69671"><ele>54.76</ele></trkpt><trkpt lat="49.57847" lon="-1.6968"><ele>54.73</ele></trkpt><trkpt lat="49.57842" lon="-1.69691"><ele>54.33</ele></trkpt><trkpt lat="49.57834" lon="-1.69709"><ele>54.6</ele></trkpt><trkpt lat="49.57807" lon="-1.6978"><ele>53.23</ele></trkpt><trkpt lat="49.57771" lon="-1.6986"><ele>51.03</ele></trkpt><trkpt lat="49.57754" lon="-1.69904"><ele>50.14</ele></trkpt><trkpt lat="49.5774" lon="-1.69935"><ele>49.79</ele></trkpt><trkpt lat="49.57734" lon="-1.69954"><ele>49.71</ele></trkpt><trkpt lat="49.57728" lon="-1.6997"><ele>49.7</ele></trkpt><trkpt lat="49.57707" lon="-1.70023"><ele>49.81</ele></trkpt><trkpt lat="49.577" lon="-1.70061"><ele>50.14</ele></trkpt><trkpt lat="49.57686" lon="-1.70123"><ele>48.7</ele></trkpt><trkpt lat="49.57676" lon="-1.70146"><ele>48.55</ele></trkpt><trkpt lat="49.57688" lon="-1.70156"><ele>48.44</ele></trkpt><trkpt lat="49.57702" lon="-1.70172"><ele>48.06</ele></trkpt><trkpt lat="49.57713" lon="-1.70183"><ele>47.74</ele></trkpt><trkpt lat="49.57701" lon="-1.70226"><ele>48.01</ele></trkpt><trkpt lat="49.57595" lon="-1.70489"><ele>51.25</ele></trkpt><trkpt lat="49.57589" lon="-1.70505"><ele>51.15</ele></trkpt><trkpt lat="49.57578" lon="-1.70497"><ele>51.55</ele></trkpt><trkpt lat="49.57578" lon="-1.70515"><ele>51.51</ele></trkpt><trkpt lat="49.57577" lon="-1.70522"><ele>51.52</ele></trkpt><trkpt lat="49.57576" lon="-1.70532"><ele>51.98</ele></trkpt><trkpt lat="49.57575" lon="-1.70535"><ele>52.04</ele></trkpt><trkpt lat="49.57574" lon="-1.70542"><ele>52.26</ele></trkpt><trkpt lat="49.57573" lon="-1.70548"><ele>52.41</ele></trkpt><trkpt lat="49.57573" lon="-1.70553"><ele>52.57</ele></trkpt><trkpt lat="49.57573" lon="-1.70559"><ele>52.8</ele></trkpt><trkpt lat="49.57574" lon="-1.70563"><ele>52.88</ele></trkpt><trkpt lat="49.57575" lon="-1.70568"><ele>52.96</ele></trkpt><trkpt lat="49.57578" lon="-1.70575"><ele>53.12</ele></trkpt><trkpt lat="49.57588" lon="-1.70593"><ele>53.59</ele></trkpt><trkpt lat="49.57635" lon="-1.70691"><ele>52.95</ele></trkpt><trkpt lat="49.57654" lon="-1.70725"><ele>52.46</ele></trkpt><trkpt lat="49.57672" lon="-1.7075"><ele>52.26</ele></trkpt><trkpt lat="49.57689" lon="-1.70768"><ele>52.03</ele></trkpt><trkpt lat="49.57676" lon="-1.70792"><ele>52.61</ele></trkpt><trkpt lat="49.57647" lon="-1.70862"><ele>53.28</ele></trkpt><trkpt lat="49.57641" lon="-1.7087"><ele>53.32</ele></trkpt><trkpt lat="49.57634" lon="-1.70871"><ele>53.35</ele></trkpt><trkpt lat="49.57627" lon="-1.7087"><ele>53.47</ele></trkpt><trkpt lat="49.5762" lon="-1.70874"><ele>53.72</ele></trkpt><trkpt lat="49.57608" lon="-1.70885"><ele>54.32</ele></trkpt><trkpt lat="49.57601" lon="-1.70894"><ele>54.46</ele></trkpt><trkpt lat="49.57595" lon="-1.70904"><ele>54.6</ele></trkpt><trkpt lat="49.57547" lon="-1.71038"><ele>54.24</ele></trkpt><trkpt lat="49.57505" lon="-1.71142"><ele>52.98</ele></trkpt><trkpt lat="49.57494" lon="-1.7116"><ele>52.28</ele></trkpt><trkpt lat="49.57489" lon="-1.71167"><ele>52.13</ele></trkpt><trkpt lat="49.57483" lon="-1.71171"><ele>51.81</ele></trkpt><trkpt lat="49.57476" lon="-1.71171"><ele>50.4</ele></trkpt><trkpt lat="49.57464" lon="-1.71189"><ele>49.74</ele></trkpt><trkpt lat="49.57443" lon="-1.71227"><ele>47.27</ele></trkpt><trkpt lat="49.57432" lon="-1.7124"><ele>45.42</ele></trkpt><trkpt lat="49.5742" lon="-1.71246"><ele>44.74</ele></trkpt><trkpt lat="49.57421" lon="-1.71289"><ele>37.83</ele></trkpt><trkpt lat="49.57421" lon="-1.7132"><ele>38.48</ele></trkpt><trkpt lat="49.57418" lon="-1.71343"><ele>40.14</ele></trkpt><trkpt lat="49.57407" lon="-1.71341"><ele>39.84</ele></trkpt><trkpt lat="49.57392" lon="-1.71345"><ele>39.96</ele></trkpt><trkpt lat="49.57381" lon="-1.71351"><ele>40.45</ele></trkpt><trkpt lat="49.57373" lon="-1.71359"><ele>41.45</ele></trkpt><trkpt lat="49.5737" lon="-1.71368"><ele>42.32</ele></trkpt><trkpt lat="49.57364" lon="-1.71411"><ele>46.35</ele></trkpt><trkpt lat="49.57361" lon="-1.71422"><ele>46.94</ele></trkpt><trkpt lat="49.57351" lon="-1.71451"><ele>47.38</ele></trkpt><trkpt lat="49.57312" lon="-1.71562"><ele>49.88</ele></trkpt><trkpt lat="49.57309" lon="-1.71598"><ele>50.99</ele></trkpt><trkpt lat="49.57302" lon="-1.71619"><ele>52.01</ele></trkpt><trkpt lat="49.57278" lon="-1.71679"><ele>53.34</ele></trkpt><trkpt lat="49.57268" lon="-1.71715"><ele>54.21</ele></trkpt><trkpt lat="49.57282" lon="-1.71719"><ele>54.23</ele></trkpt><trkpt lat="49.57295" lon="-1.7172"><ele>54.46</ele></trkpt><trkpt lat="49.57306" lon="-1.71725"><ele>54.69</ele></trkpt><trkpt lat="49.57332" lon="-1.71743"><ele>55.83</ele></trkpt><trkpt lat="49.57346" lon="-1.7176"><ele>56.65</ele></trkpt><trkpt lat="49.57362" lon="-1.71778"><ele>56.6</ele></trkpt><trkpt lat="49.57417" lon="-1.71845"><ele>57.79</ele></trkpt><trkpt lat="49.57432" lon="-1.71867"><ele>58.24</ele></trkpt><trkpt lat="49.57441" lon="-1.71881"><ele>58.51</ele></trkpt><trkpt lat="49.5745" lon="-1.71899"><ele>59.05</ele></trkpt><trkpt lat="49.57461" lon="-1.71924"><ele>59.51</ele></trkpt><trkpt lat="49.57472" lon="-1.71943"><ele>59.83</ele></trkpt><trkpt lat="49.5749" lon="-1.71967"><ele>60.46</ele></trkpt><trkpt lat="49.57514" lon="-1.7199"><ele>60.7</ele></trkpt><trkpt lat="49.57479" lon="-1.72106"><ele>63.42</ele></trkpt><trkpt lat="49.5746" lon="-1.72169"><ele>64.23</ele></trkpt><trkpt lat="49.57432" lon="-1.72296"><ele>65.89</ele></trkpt><trkpt lat="49.5742" lon="-1.72332"><ele>66.14</ele></trkpt><trkpt lat="49.5741" lon="-1.72355"><ele>66.5</ele></trkpt><trkpt lat="49.57388" lon="-1.72413"><ele>66.65</ele></trkpt><trkpt lat="49.57378" lon="-1.72431"><ele>66.4</ele></trkpt><trkpt lat="49.57327" lon="-1.72467"><ele>66.28</ele></trkpt><trkpt lat="49.57303" lon="-1.72479"><ele>66.49</ele></trkpt><trkpt lat="49.57269" lon="-1.72492"><ele>66.36</ele></trkpt><trkpt lat="49.57243" lon="-1.72499"><ele>66.43</ele></trkpt><trkpt lat="49.57208" lon="-1.72507"><ele>66.49</ele></trkpt><trkpt lat="49.5717" lon="-1.7252"><ele>67.03</ele></trkpt><trkpt lat="49.57127" lon="-1.72532"><ele>66.78</ele></trkpt><trkpt lat="49.57092" lon="-1.72545"><ele>66.31</ele></trkpt><trkpt lat="49.57018" lon="-1.72571"><ele>63.32</ele></trkpt><trkpt lat="49.57003" lon="-1.7258"><ele>62.78</ele></trkpt><trkpt lat="49.56997" lon="-1.72574"><ele>62.41</ele></trkpt><trkpt lat="49.56976" lon="-1.72556"><ele>60.55</ele></trkpt><trkpt lat="49.56944" lon="-1.72526"><ele>58.53</ele></trkpt><trkpt lat="49.56931" lon="-1.7255"><ele>58.77</ele></trkpt><trkpt lat="49.56904" lon="-1.72602"><ele>59.81</ele></trkpt><trkpt lat="49.5691" lon="-1.72607"><ele>59.87</ele></trkpt><trkpt lat="49.56921" lon="-1.72613"><ele>60.15</ele></trkpt><trkpt lat="49.56924" lon="-1.72617"><ele>60.11</ele></trkpt><trkpt lat="49.56927" lon="-1.72624"><ele>60.05</ele></trkpt><trkpt lat="49.56929" lon="-1.72634"><ele>60.48</ele></trkpt><trkpt lat="49.56933" lon="-1.72686"><ele>61.96</ele></trkpt><trkpt lat="49.56934" lon="-1.72717"><ele>62.91</ele></trkpt><trkpt lat="49.56933" lon="-1.72752"><ele>63.62</ele></trkpt><trkpt lat="49.56931" lon="-1.72784"><ele>64.52</ele></trkpt><trkpt lat="49.5693" lon="-1.72846"><ele>66.2</ele></trkpt><trkpt lat="49.5693" lon="-1.72868"><ele>66.32</ele></trkpt><trkpt lat="49.5693" lon="-1.72938"><ele>68.89</ele></trkpt><trkpt lat="49.56929" lon="-1.72981"><ele>69.96</ele></trkpt><trkpt lat="49.56926" lon="-1.73027"><ele>71.41</ele></trkpt><trkpt lat="49.56918" lon="-1.73087"><ele>72.11</ele></trkpt><trkpt lat="49.5691" lon="-1.73118"><ele>73.69</ele></trkpt><trkpt lat="49.569" lon="-1.7315"><ele>73.52</ele></trkpt><trkpt lat="49.5687" lon="-1.73235"><ele>73.4</ele></trkpt><trkpt lat="49.56823" lon="-1.73361"><ele>71.64</ele></trkpt><trkpt lat="49.56813" lon="-1.73386"><ele>70.95</ele></trkpt><trkpt lat="49.56782" lon="-1.73442"><ele>69.64</ele></trkpt><trkpt lat="49.5677" lon="-1.73471"><ele>68.34</ele></trkpt><trkpt lat="49.56759" lon="-1.73492"><ele>67.11</ele></trkpt><trkpt lat="49.56708" lon="-1.73563"><ele>64.16</ele></trkpt><trkpt lat="49.5669" lon="-1.73587"><ele>63.9</ele></trkpt><trkpt lat="49.56688" lon="-1.73592"><ele>63.65</ele></trkpt><trkpt lat="49.56677" lon="-1.73606"><ele>63.14</ele></trkpt><trkpt lat="49.56666" lon="-1.73622"><ele>63.87</ele></trkpt><trkpt lat="49.56651" lon="-1.73651"><ele>61.87</ele></trkpt><trkpt lat="49.56649" lon="-1.73655"><ele>61.61</ele></trkpt><trkpt lat="49.56644" lon="-1.73664"><ele>61.32</ele></trkpt><trkpt lat="49.56638" lon="-1.73679"><ele>60.47</ele></trkpt><trkpt lat="49.56629" lon="-1.73694"><ele>59.59</ele></trkpt><trkpt lat="49.56621" lon="-1.73701"><ele>59.06</ele></trkpt><trkpt lat="49.56613" lon="-1.73702"><ele>58.81</ele></trkpt><trkpt lat="49.56611" lon="-1.73702"><ele>58.81</ele></trkpt><trkpt lat="49.56607" lon="-1.73697"><ele>58.85</ele></trkpt><trkpt lat="49.56581" lon="-1.73647"><ele>60.26</ele></trkpt><trkpt lat="49.56559" lon="-1.73625"><ele>60.95</ele></trkpt><trkpt lat="49.56543" lon="-1.73616"><ele>61.28</ele></trkpt><trkpt lat="49.56518" lon="-1.73607"><ele>61.81</ele></trkpt><trkpt lat="49.56498" lon="-1.73605"><ele>62.76</ele></trkpt><trkpt lat="49.5648" lon="-1.73608"><ele>63.71</ele></trkpt><trkpt lat="49.56454" lon="-1.73619"><ele>66.31</ele></trkpt><trkpt lat="49.56439" lon="-1.73624"><ele>67.3</ele></trkpt><trkpt lat="49.56412" lon="-1.73623"><ele>68.72</ele></trkpt><trkpt lat="49.56399" lon="-1.7362"><ele>69.79</ele></trkpt><trkpt lat="49.56391" lon="-1.73615"><ele>70.68</ele></trkpt><trkpt lat="49.56379" lon="-1.73599"><ele>72.79</ele></trkpt><trkpt lat="49.56376" lon="-1.73588"><ele>74.46</ele></trkpt><trkpt lat="49.56375" lon="-1.73582"><ele>74.58</ele></trkpt><trkpt lat="49.56361" lon="-1.73606"><ele>74.29</ele></trkpt><trkpt lat="49.56358" lon="-1.73612"><ele>74.28</ele></trkpt><trkpt lat="49.5635" lon="-1.73609"><ele>73.59</ele></trkpt><trkpt lat="49.56344" lon="-1.73606"><ele>73</ele></trkpt><trkpt lat="49.56336" lon="-1.73604"><ele>73.43</ele></trkpt><trkpt lat="49.56318" lon="-1.73601"><ele>74.53</ele></trkpt><trkpt lat="49.56301" lon="-1.73596"><ele>75.75</ele></trkpt><trkpt lat="49.56292" lon="-1.73594"><ele>76.29</ele></trkpt><trkpt lat="49.56286" lon="-1.73599"><ele>76.39</ele></trkpt><trkpt lat="49.56279" lon="-1.736"><ele>76.8</ele></trkpt><trkpt lat="49.56245" lon="-1.73607"><ele>76.93</ele></trkpt><trkpt lat="49.56232" lon="-1.73603"><ele>77.74</ele></trkpt><trkpt lat="49.56223" lon="-1.73604"><ele>78.04</ele></trkpt><trkpt lat="49.56215" lon="-1.736"><ele>78.78</ele></trkpt><trkpt lat="49.56212" lon="-1.73589"><ele>78.84</ele></trkpt><trkpt lat="49.56209" lon="-1.7356"><ele>79.51</ele></trkpt><trkpt lat="49.56202" lon="-1.73464"><ele>81.8</ele></trkpt><trkpt lat="49.56202" lon="-1.73441"><ele>82.01</ele></trkpt><trkpt lat="49.56198" lon="-1.73415"><ele>82.59</ele></trkpt><trkpt lat="49.56197" lon="-1.73399"><ele>82.89</ele></trkpt><trkpt lat="49.56196" lon="-1.73383"><ele>83.01</ele></trkpt><trkpt lat="49.56168" lon="-1.73396"><ele>83.03</ele></trkpt><trkpt lat="49.56139" lon="-1.73408"><ele>83.12</ele></trkpt><trkpt lat="49.56117" lon="-1.73415"><ele>82.85</ele></trkpt><trkpt lat="49.56044" lon="-1.73425"><ele>80.9</ele></trkpt><trkpt lat="49.56028" lon="-1.73425"><ele>80.6</ele></trkpt><trkpt lat="49.55999" lon="-1.73432"><ele>78.83</ele></trkpt><trkpt lat="49.55978" lon="-1.73444"><ele>77.92</ele></trkpt><trkpt lat="49.55961" lon="-1.73461"><ele>77.23</ele></trkpt><trkpt lat="49.55955" lon="-1.73472"><ele>76.87</ele></trkpt><trkpt lat="49.55942" lon="-1.73518"><ele>74.7</ele></trkpt><trkpt lat="49.55938" lon="-1.73525"><ele>74.3</ele></trkpt><trkpt lat="49.55915" lon="-1.73544"><ele>72.82</ele></trkpt><trkpt lat="49.55891" lon="-1.73569"><ele>71.71</ele></trkpt><trkpt lat="49.55858" lon="-1.73601"><ele>69.78</ele></trkpt><trkpt lat="49.55857" lon="-1.73611"><ele>69.12</ele></trkpt><trkpt lat="49.55856" lon="-1.73634"><ele>68.6</ele></trkpt><trkpt lat="49.55854" lon="-1.73643"><ele>67.82</ele></trkpt><trkpt lat="49.55838" lon="-1.73674"><ele>67.24</ele></trkpt><trkpt lat="49.5579" lon="-1.73743"><ele>65.41</ele></trkpt><trkpt lat="49.55767" lon="-1.73768"><ele>64.58</ele></trkpt><trkpt lat="49.5572" lon="-1.73813"><ele>61.71</ele></trkpt><trkpt lat="49.55703" lon="-1.73836"><ele>60.22</ele></trkpt><trkpt lat="49.5569" lon="-1.73863"><ele>58.53</ele></trkpt><trkpt lat="49.55679" lon="-1.73898"><ele>58.05</ele></trkpt><trkpt lat="49.55666" lon="-1.7395"><ele>56.33</ele></trkpt><trkpt lat="49.55661" lon="-1.73971"><ele>55.84</ele></trkpt><trkpt lat="49.55659" lon="-1.73972"><ele>55.84</ele></trkpt><trkpt lat="49.55654" lon="-1.73973"><ele>55.61</ele></trkpt><trkpt lat="49.55632" lon="-1.73986"><ele>55.44</ele></trkpt><trkpt lat="49.55606" lon="-1.73998"><ele>55.27</ele></trkpt><trkpt lat="49.55598" lon="-1.74002"><ele>55.22</ele></trkpt><trkpt lat="49.55588" lon="-1.74018"><ele>55.28</ele></trkpt><trkpt lat="49.55553" lon="-1.74073"><ele>57.26</ele></trkpt><trkpt lat="49.55538" lon="-1.74096"><ele>58.58</ele></trkpt><trkpt lat="49.55517" lon="-1.74124"><ele>61.4</ele></trkpt><trkpt lat="49.55529" lon="-1.74163"><ele>60.93</ele></trkpt><trkpt lat="49.55531" lon="-1.74178"><ele>60.98</ele></trkpt><trkpt lat="49.55533" lon="-1.74199"><ele>61.33</ele></trkpt><trkpt lat="49.55533" lon="-1.74205"><ele>61.47</ele></trkpt><trkpt lat="49.55531" lon="-1.74206"><ele>61.47</ele></trkpt><trkpt lat="49.5552" lon="-1.74211"><ele>62.44</ele></trkpt><trkpt lat="49.55509" lon="-1.7422"><ele>63.13</ele></trkpt><trkpt lat="49.55484" lon="-1.7424"><ele>65.27</ele></trkpt><trkpt lat="49.55426" lon="-1.74292"><ele>70.64</ele></trkpt><trkpt lat="49.554" lon="-1.74313"><ele>72.53</ele></trkpt><trkpt lat="49.55391" lon="-1.74319"><ele>72.97</ele></trkpt><trkpt lat="49.55376" lon="-1.7432"><ele>73.92</ele></trkpt><trkpt lat="49.55373" lon="-1.74341"><ele>75.32</ele></trkpt><trkpt lat="49.55366" lon="-1.7436"><ele>77.25</ele></trkpt><trkpt lat="49.55343" lon="-1.74407"><ele>79.7</ele></trkpt><trkpt lat="49.55323" lon="-1.74452"><ele>81.37</ele></trkpt><trkpt lat="49.55311" lon="-1.74487"><ele>81.47</ele></trkpt><trkpt lat="49.55301" lon="-1.74503"><ele>81.9</ele></trkpt><trkpt lat="49.55287" lon="-1.74512"><ele>82.11</ele></trkpt><trkpt lat="49.55245" lon="-1.74522"><ele>82.65</ele></trkpt><trkpt lat="49.55226" lon="-1.74525"><ele>82.99</ele></trkpt><trkpt lat="49.55201" lon="-1.7454"><ele>83.47</ele></trkpt><trkpt lat="49.55158" lon="-1.74581"><ele>83.72</ele></trkpt><trkpt lat="49.55154" lon="-1.7459"><ele>83.91</ele></trkpt><trkpt lat="49.55108" lon="-1.7465"><ele>83.94</ele></trkpt><trkpt lat="49.55098" lon="-1.7466"><ele>83.91</ele></trkpt><trkpt lat="49.55059" lon="-1.74691"><ele>84.58</ele></trkpt><trkpt lat="49.55004" lon="-1.74746"><ele>84.41</ele></trkpt><trkpt lat="49.54962" lon="-1.74768"><ele>84.77</ele></trkpt><trkpt lat="49.54944" lon="-1.7478"><ele>84.86</ele></trkpt><trkpt lat="49.54927" lon="-1.74797"><ele>84.58</ele></trkpt><trkpt lat="49.54912" lon="-1.74814"><ele>84.29</ele></trkpt><trkpt lat="49.54904" lon="-1.74826"><ele>83.87</ele></trkpt><trkpt lat="49.54877" lon="-1.74865"><ele>83.51</ele></trkpt><trkpt lat="49.54844" lon="-1.74904"><ele>82.98</ele></trkpt><trkpt lat="49.54815" lon="-1.74935"><ele>82.52</ele></trkpt><trkpt lat="49.54777" lon="-1.74972"><ele>81.63</ele></trkpt><trkpt lat="49.54748" lon="-1.75006"><ele>80.05</ele></trkpt><trkpt lat="49.54746" lon="-1.7501"><ele>79.94</ele></trkpt><trkpt lat="49.54744" lon="-1.75021"><ele>79.6</ele></trkpt><trkpt lat="49.54743" lon="-1.7504"><ele>79.28</ele></trkpt><trkpt lat="49.54738" lon="-1.75061"><ele>78.79</ele></trkpt><trkpt lat="49.54734" lon="-1.75076"><ele>78.3</ele></trkpt><trkpt lat="49.54722" lon="-1.75105"><ele>77.58</ele></trkpt><trkpt lat="49.54716" lon="-1.75117"><ele>77.95</ele></trkpt><trkpt lat="49.54693" lon="-1.75153"><ele>76.88</ele></trkpt><trkpt lat="49.54669" lon="-1.75191"><ele>75.78</ele></trkpt><trkpt lat="49.54651" lon="-1.75216"><ele>75.27</ele></trkpt><trkpt lat="49.54634" lon="-1.75233"><ele>74.79</ele></trkpt><trkpt lat="49.54587" lon="-1.75274"><ele>72.87</ele></trkpt><trkpt lat="49.54576" lon="-1.75286"><ele>72.41</ele></trkpt><trkpt lat="49.54542" lon="-1.75335"><ele>70.86</ele></trkpt><trkpt lat="49.54495" lon="-1.75396"><ele>68.29</ele></trkpt><trkpt lat="49.54474" lon="-1.75421"><ele>66.29</ele></trkpt><trkpt lat="49.54463" lon="-1.75427"><ele>64.65</ele></trkpt><trkpt lat="49.54427" lon="-1.75432"><ele>61.59</ele></trkpt><trkpt lat="49.54394" lon="-1.75449"><ele>59.39</ele></trkpt><trkpt lat="49.54388" lon="-1.75453"><ele>59.3</ele></trkpt><trkpt lat="49.54385" lon="-1.75453"><ele>59.13</ele></trkpt><trkpt lat="49.54381" lon="-1.7546"><ele>59.07</ele></trkpt><trkpt lat="49.5432" lon="-1.75528"><ele>59.43</ele></trkpt><trkpt lat="49.54312" lon="-1.7554"><ele>59.91</ele></trkpt><trkpt lat="49.54311" lon="-1.75555"><ele>60.46</ele></trkpt><trkpt lat="49.54313" lon="-1.75574"><ele>61.01</ele></trkpt><trkpt lat="49.54317" lon="-1.75598"><ele>61.54</ele></trkpt><trkpt lat="49.54315" lon="-1.75644"><ele>63.61</ele></trkpt><trkpt lat="49.54307" lon="-1.75722"><ele>67.36</ele></trkpt><trkpt lat="49.54302" lon="-1.75759"><ele>68.92</ele></trkpt><trkpt lat="49.54294" lon="-1.75796"><ele>70.68</ele></trkpt><trkpt lat="49.54282" lon="-1.75838"><ele>72.95</ele></trkpt><trkpt lat="49.54261" lon="-1.75899"><ele>76.03</ele></trkpt><trkpt lat="49.54238" lon="-1.75982"><ele>78.56</ele></trkpt><trkpt lat="49.54233" lon="-1.76013"><ele>79.42</ele></trkpt><trkpt lat="49.54226" lon="-1.7608"><ele>81.02</ele></trkpt><trkpt lat="49.54217" lon="-1.76146"><ele>81.89</ele></trkpt><trkpt lat="49.54203" lon="-1.76221"><ele>81.82</ele></trkpt><trkpt lat="49.54193" lon="-1.76287"><ele>81.28</ele></trkpt><trkpt lat="49.54191" lon="-1.76309"><ele>81.07</ele></trkpt><trkpt lat="49.54191" lon="-1.76314"><ele>81.04</ele></trkpt><trkpt lat="49.54186" lon="-1.76315"><ele>80.82</ele></trkpt><trkpt lat="49.5417" lon="-1.76326"><ele>80.19</ele></trkpt><trkpt lat="49.54163" lon="-1.76383"><ele>79.19</ele></trkpt><trkpt lat="49.54152" lon="-1.76436"><ele>77.98</ele></trkpt><trkpt lat="49.54139" lon="-1.7651"><ele>76.11</ele></trkpt><trkpt lat="49.54131" lon="-1.76546"><ele>75.18</ele></trkpt><trkpt lat="49.54118" lon="-1.7658"><ele>73.89</ele></trkpt><trkpt lat="49.54103" lon="-1.76609"><ele>72.32</ele></trkpt><trkpt lat="49.54064" lon="-1.76659"><ele>70.17</ele></trkpt><trkpt lat="49.54051" lon="-1.76677"><ele>69.62</ele></trkpt><trkpt lat="49.54038" lon="-1.7671"><ele>69.33</ele></trkpt><trkpt lat="49.54028" lon="-1.7673"><ele>69.39</ele></trkpt><trkpt lat="49.53996" lon="-1.76776"><ele>68.47</ele></trkpt><trkpt lat="49.53987" lon="-1.76797"><ele>68.3</ele></trkpt><trkpt lat="49.53981" lon="-1.76823"><ele>67.76</ele></trkpt><trkpt lat="49.53943" lon="-1.76862"><ele>67.59</ele></trkpt><trkpt lat="49.53919" lon="-1.76891"><ele>67.46</ele></trkpt><trkpt lat="49.53902" lon="-1.76904"><ele>67.54</ele></trkpt><trkpt lat="49.53874" lon="-1.76913"><ele>68.19</ele></trkpt><trkpt lat="49.53816" lon="-1.76946"><ele>69.09</ele></trkpt><trkpt lat="49.53802" lon="-1.76953"><ele>69.31</ele></trkpt><trkpt lat="49.53747" lon="-1.76994"><ele>68.8</ele></trkpt><trkpt lat="49.53722" lon="-1.77003"><ele>67.81</ele></trkpt><trkpt lat="49.53714" lon="-1.77006"><ele>67.58</ele></trkpt><trkpt lat="49.53692" lon="-1.77052"><ele>66.42</ele></trkpt><trkpt lat="49.53683" lon="-1.77065"><ele>66.42</ele></trkpt><trkpt lat="49.53655" lon="-1.77084"><ele>66.16</ele></trkpt><trkpt lat="49.53624" lon="-1.77103"><ele>66.22</ele></trkpt><trkpt lat="49.53608" lon="-1.77111"><ele>66.41</ele></trkpt><trkpt lat="49.53573" lon="-1.77125"><ele>66.94</ele></trkpt><trkpt lat="49.53565" lon="-1.77129"><ele>66.98</ele></trkpt><trkpt lat="49.53522" lon="-1.77169"><ele>66.7</ele></trkpt><trkpt lat="49.53508" lon="-1.77185"><ele>67.04</ele></trkpt><trkpt lat="49.53433" lon="-1.77245"><ele>67.97</ele></trkpt><trkpt lat="49.53389" lon="-1.7729"><ele>69.36</ele></trkpt><trkpt lat="49.53384" lon="-1.77293"><ele>69.38</ele></trkpt><trkpt lat="49.53353" lon="-1.77326"><ele>68.77</ele></trkpt><trkpt lat="49.53342" lon="-1.77336"><ele>68.76</ele></trkpt><trkpt lat="49.53277" lon="-1.7738"><ele>69.13</ele></trkpt><trkpt lat="49.53246" lon="-1.77402"><ele>68.38</ele></trkpt><trkpt lat="49.53184" lon="-1.77434"><ele>66.77</ele></trkpt><trkpt lat="49.5312" lon="-1.77472"><ele>63.52</ele></trkpt><trkpt lat="49.53105" lon="-1.77477"><ele>62.44</ele></trkpt><trkpt lat="49.53093" lon="-1.77473"><ele>62.2</ele></trkpt><trkpt lat="49.53022" lon="-1.77432"><ele>61.08</ele></trkpt><trkpt lat="49.53003" lon="-1.77425"><ele>60.76</ele></trkpt><trkpt lat="49.52975" lon="-1.77416"><ele>60.74</ele></trkpt><trkpt lat="49.52915" lon="-1.77401"><ele>60.98</ele></trkpt><trkpt lat="49.52889" lon="-1.77399"><ele>61.28</ele></trkpt><trkpt lat="49.52857" lon="-1.77404"><ele>61.37</ele></trkpt><trkpt lat="49.528" lon="-1.77409"><ele>62.3</ele></trkpt><trkpt lat="49.52781" lon="-1.77414"><ele>61</ele></trkpt><trkpt lat="49.52755" lon="-1.77416"><ele>60.11</ele></trkpt><trkpt lat="49.52724" lon="-1.77426"><ele>56.07</ele></trkpt><trkpt lat="49.52711" lon="-1.77429"><ele>55.05</ele></trkpt><trkpt lat="49.5269" lon="-1.77428"><ele>52.71</ele></trkpt><trkpt lat="49.52678" lon="-1.77423"><ele>51.57</ele></trkpt><trkpt lat="49.52619" lon="-1.77404"><ele>48.22</ele></trkpt><trkpt lat="49.52604" lon="-1.77398"><ele>47.82</ele></trkpt><trkpt lat="49.52601" lon="-1.77397"><ele>47.82</ele></trkpt><trkpt lat="49.52569" lon="-1.77386"><ele>47.79</ele></trkpt><trkpt lat="49.52551" lon="-1.77377"><ele>47.91</ele></trkpt><trkpt lat="49.52548" lon="-1.77375"><ele>48.04</ele></trkpt><trkpt lat="49.52543" lon="-1.7748"><ele>52.76</ele></trkpt><trkpt lat="49.5254" lon="-1.77481"><ele>53.72</ele></trkpt><trkpt lat="49.52522" lon="-1.7749"><ele>56.55</ele></trkpt><trkpt lat="49.52498" lon="-1.77516"><ele>61.26</ele></trkpt><trkpt lat="49.52481" lon="-1.77532"><ele>63.29</ele></trkpt><trkpt lat="49.52472" lon="-1.77538"><ele>63.91</ele></trkpt><trkpt lat="49.52467" lon="-1.77539"><ele>64.53</ele></trkpt><trkpt lat="49.52448" lon="-1.77554"><ele>65.37</ele></trkpt><trkpt lat="49.52435" lon="-1.77571"><ele>66.7</ele></trkpt><trkpt lat="49.52406" lon="-1.77614"><ele>68.3</ele></trkpt><trkpt lat="49.52385" lon="-1.77644"><ele>69.02</ele></trkpt><trkpt lat="49.52375" lon="-1.77662"><ele>69.1</ele></trkpt><trkpt lat="49.52367" lon="-1.77684"><ele>69.2</ele></trkpt><trkpt lat="49.52364" lon="-1.77697"><ele>69.06</ele></trkpt><trkpt lat="49.52357" lon="-1.77692"><ele>68.82</ele></trkpt><trkpt lat="49.52355" lon="-1.77688"><ele>68.84</ele></trkpt><trkpt lat="49.52352" lon="-1.77695"><ele>68.83</ele></trkpt><trkpt lat="49.52313" lon="-1.7774"><ele>66.85</ele></trkpt><trkpt lat="49.52295" lon="-1.77764"><ele>66.68</ele></trkpt><trkpt lat="49.52278" lon="-1.77784"><ele>66.96</ele></trkpt><trkpt lat="49.52236" lon="-1.77825"><ele>69.62</ele></trkpt><trkpt lat="49.52229" lon="-1.77834"><ele>70.47</ele></trkpt><trkpt lat="49.52199" lon="-1.7787"><ele>72.62</ele></trkpt><trkpt lat="49.52171" lon="-1.77903"><ele>74.86</ele></trkpt><trkpt lat="49.52151" lon="-1.77924"><ele>76.4</ele></trkpt><trkpt lat="49.52134" lon="-1.77946"><ele>77.11</ele></trkpt><trkpt lat="49.52096" lon="-1.77996"><ele>77.84</ele></trkpt><trkpt lat="49.52078" lon="-1.78028"><ele>78.1</ele></trkpt><trkpt lat="49.52052" lon="-1.7807"><ele>78.67</ele></trkpt><trkpt lat="49.52036" lon="-1.78093"><ele>79.01</ele></trkpt><trkpt lat="49.51985" lon="-1.78154"><ele>79.37</ele></trkpt><trkpt lat="49.5196" lon="-1.78188"><ele>79.86</ele></trkpt><trkpt lat="49.51917" lon="-1.78246"><ele>81.9</ele></trkpt><trkpt lat="49.51881" lon="-1.78297"><ele>84.74</ele></trkpt><trkpt lat="49.51865" lon="-1.7833"><ele>85.91</ele></trkpt><trkpt lat="49.51849" lon="-1.78372"><ele>87.52</ele></trkpt><trkpt lat="49.51833" lon="-1.78426"><ele>89.1</ele></trkpt><trkpt lat="49.51807" lon="-1.78491"><ele>90.11</ele></trkpt><trkpt lat="49.51784" lon="-1.78552"><ele>90.27</ele></trkpt><trkpt lat="49.51763" lon="-1.78618"><ele>89.89</ele></trkpt><trkpt lat="49.51753" lon="-1.78653"><ele>89.77</ele></trkpt><trkpt lat="49.51738" lon="-1.78691"><ele>89.81</ele></trkpt><trkpt lat="49.51723" lon="-1.78739"><ele>89.71</ele></trkpt><trkpt lat="49.51714" lon="-1.78777"><ele>89.63</ele></trkpt><trkpt lat="49.51697" lon="-1.78837"><ele>88.83</ele></trkpt><trkpt lat="49.51692" lon="-1.78861"><ele>88.89</ele></trkpt><trkpt lat="49.51693" lon="-1.78874"><ele>88.93</ele></trkpt><trkpt lat="49.51701" lon="-1.78908"><ele>89.66</ele></trkpt><trkpt lat="49.51715" lon="-1.79044"><ele>92.13</ele></trkpt><trkpt lat="49.51724" lon="-1.79101"><ele>92.57</ele></trkpt><trkpt lat="49.51729" lon="-1.79131"><ele>92.04</ele></trkpt><trkpt lat="49.51734" lon="-1.79148"><ele>91.98</ele></trkpt><trkpt lat="49.51733" lon="-1.79164"><ele>92.19</ele></trkpt><trkpt lat="49.51733" lon="-1.79202"><ele>93.2</ele></trkpt><trkpt lat="49.51734" lon="-1.7921"><ele>93.32</ele></trkpt><trkpt lat="49.51737" lon="-1.7922"><ele>93.95</ele></trkpt><trkpt lat="49.51734" lon="-1.79231"><ele>94.11</ele></trkpt><trkpt lat="49.51728" lon="-1.79254"><ele>94.94</ele></trkpt><trkpt lat="49.51723" lon="-1.7927"><ele>95.29</ele></trkpt><trkpt lat="49.51711" lon="-1.79315"><ele>96.29</ele></trkpt><trkpt lat="49.51694" lon="-1.79388"><ele>97.74</ele></trkpt><trkpt lat="49.51691" lon="-1.794"><ele>97.96</ele></trkpt><trkpt lat="49.5169" lon="-1.79407"><ele>97.99</ele></trkpt><trkpt lat="49.51691" lon="-1.79417"><ele>97.74</ele></trkpt><trkpt lat="49.51692" lon="-1.79424"><ele>97.64</ele></trkpt><trkpt lat="49.51694" lon="-1.79429"><ele>97.46</ele></trkpt><trkpt lat="49.51697" lon="-1.79442"><ele>97.28</ele></trkpt><trkpt lat="49.51699" lon="-1.79451"><ele>97.26</ele></trkpt><trkpt lat="49.51699" lon="-1.79456"><ele>97.24</ele></trkpt><trkpt lat="49.51698" lon="-1.79466"><ele>97.17</ele></trkpt><trkpt lat="49.51679" lon="-1.79568"><ele>98.37</ele></trkpt><trkpt lat="49.51665" lon="-1.79652"><ele>98.85</ele></trkpt><trkpt lat="49.51654" lon="-1.79722"><ele>98.96</ele></trkpt><trkpt lat="49.51653" lon="-1.79728"><ele>98.99</ele></trkpt><trkpt lat="49.51652" lon="-1.79734"><ele>98.93</ele></trkpt><trkpt lat="49.51649" lon="-1.79741"><ele>98.99</ele></trkpt><trkpt lat="49.51644" lon="-1.79748"><ele>98.9</ele></trkpt><trkpt lat="49.51637" lon="-1.79762"><ele>98.8</ele></trkpt><trkpt lat="49.51638" lon="-1.79768"><ele>98.77</ele></trkpt><trkpt lat="49.51639" lon="-1.79779"><ele>98.78</ele></trkpt><trkpt lat="49.51638" lon="-1.7979"><ele>98.76</ele></trkpt><trkpt lat="49.51638" lon="-1.79803"><ele>98.7</ele></trkpt><trkpt lat="49.51636" lon="-1.79829"><ele>98.77</ele></trkpt><trkpt lat="49.51635" lon="-1.79839"><ele>98.7</ele></trkpt><trkpt lat="49.51636" lon="-1.79849"><ele>98.6</ele></trkpt><trkpt lat="49.51639" lon="-1.79861"><ele>98.4</ele></trkpt><trkpt lat="49.51638" lon="-1.79873"><ele>98.38</ele></trkpt><trkpt lat="49.51637" lon="-1.79886"><ele>98.21</ele></trkpt><trkpt lat="49.51635" lon="-1.79891"><ele>98.33</ele></trkpt><trkpt lat="49.51633" lon="-1.79894"><ele>98.31</ele></trkpt><trkpt lat="49.51631" lon="-1.79898"><ele>98.43</ele></trkpt><trkpt lat="49.5163" lon="-1.79904"><ele>98.4</ele></trkpt><trkpt lat="49.5163" lon="-1.79909"><ele>98.41</ele></trkpt><trkpt lat="49.51631" lon="-1.79917"><ele>98.41</ele></trkpt><trkpt lat="49.51625" lon="-1.79933"><ele>98.46</ele></trkpt><trkpt lat="49.51619" lon="-1.79943"><ele>98.74</ele></trkpt><trkpt lat="49.51614" lon="-1.79951"><ele>98.73</ele></trkpt><trkpt lat="49.51611" lon="-1.79956"><ele>98.8</ele></trkpt><trkpt lat="49.51567" lon="-1.80214"><ele>104.33</ele></trkpt><trkpt lat="49.51541" lon="-1.80365"><ele>111</ele></trkpt><trkpt lat="49.51529" lon="-1.80441"><ele>114.19</ele></trkpt><trkpt lat="49.51527" lon="-1.80457"><ele>114.86</ele></trkpt><trkpt lat="49.51525" lon="-1.80477"><ele>115.75</ele></trkpt><trkpt lat="49.51527" lon="-1.80478"><ele>115.66</ele></trkpt><trkpt lat="49.51527" lon="-1.80481"><ele>115.85</ele></trkpt><trkpt lat="49.51527" lon="-1.80483"><ele>115.85</ele></trkpt><trkpt lat="49.51526" lon="-1.80487"><ele>116.02</ele></trkpt><trkpt lat="49.51523" lon="-1.8049"><ele>116.39</ele></trkpt><trkpt lat="49.51521" lon="-1.8049"><ele>116.39</ele></trkpt><trkpt lat="49.51519" lon="-1.80499"><ele>116.88</ele></trkpt><trkpt lat="49.51516" lon="-1.80517"><ele>117.75</ele></trkpt><trkpt lat="49.51493" lon="-1.80635"><ele>122.34</ele></trkpt><trkpt lat="49.51491" lon="-1.80641"><ele>122.41</ele></trkpt><trkpt lat="49.51476" lon="-1.80655"><ele>122.89</ele></trkpt><trkpt lat="49.5144" lon="-1.80681"><ele>123.87</ele></trkpt></trkseg></trk></gpx>
