<?xml version="1.0" encoding="UTF-8" standalone="no"?>
<gpx xmlns="http://www.topografix.com/GPX/1/1" version="1.1" xmlns:xsi="http://www.w3.org/2001/XMLSchema-instance" xsi:schemaLocation="http://www.topografix.com/GPX/1/1 http://www.topografix.com/GPX/1/1/gpx.xsd" creator="Cirkwi"><metadata><name><![CDATA[Le Chantier - n°131]]></name><desc><![CDATA[Au départ de Couville, ce parcours vous mènera vers une jolie balade au coeur du bocage normand, le long du ruisseau le Marvis. Partez du parking de la mairie, prenez la route menant au stade, à gauche de la sortie du parking. Passez devant le stade pour rejoindre un chemin, puis prenez sur votre droite le chemin des Hougettes (Couville). Coordonnées GPS : 49°33'12.3"N, 1°41'16.0"W Suivez le circuit selon le sens des aiguilles d'une montre. Le balisage est de couleur vert (balisage ancien).  Vous retrouverez ce circuit dans le topoguide "La Hague - Des Pieux et autour de Martinvast "de l'Office de tourisme du Cotentin.   Départ accessible avec le réseau de bus Cap Cotentin à l'arrêt "Couville - Le Bourg Neuf" (plus d'infos sur capcotentin.fr)]]></desc><author><name><![CDATA[Cotentin unique]]></name></author><link href="http://fichier0.cirkwi.com/image/photo/circuit/1300x1300/370170/fr/0.jpg"><text><![CDATA[|Alexandre LEROY]]></text></link><time>2026-08-12T14:21:11Z</time></metadata><trk><trkseg><trkpt lat="49.55468" lon="-1.68844"><ele>90.36</ele></trkpt><trkpt lat="49.55489" lon="-1.68858"><ele>89.98</ele></trkpt><trkpt lat="49.55548" lon="-1.68887"><ele>88.88</ele></trkpt><trkpt lat="49.55598" lon="-1.68919"><ele>87.62</ele></trkpt><trkpt lat="49.55654" lon="-1.6893"><ele>86.19</ele></trkpt><trkpt lat="49.55708" lon="-1.68933"><ele>84.69</ele></trkpt><trkpt lat="49.55757" lon="-1.68935"><ele>81.85</ele></trkpt><trkpt lat="49.55788" lon="-1.68899"><ele>83.37</ele></trkpt><trkpt lat="49.55825" lon="-1.6885"><ele>85.57</ele></trkpt><trkpt lat="49.55859" lon="-1.68792"><ele>87.39</ele></trkpt><trkpt lat="49.55889" lon="-1.68738"><ele>89.21</ele></trkpt><trkpt lat="49.55916" lon="-1.6868"><ele>90.4</ele></trkpt><trkpt lat="49.5592" lon="-1.68671"><ele>90.66</ele></trkpt><trkpt lat="49.5592" lon="-1.68665"><ele>90.62</ele></trkpt><trkpt lat="49.55927" lon="-1.68653"><ele>90.9</ele></trkpt><trkpt lat="49.55962" lon="-1.68582"><ele>94.2</ele></trkpt><trkpt lat="49.55993" lon="-1.68523"><ele>96.84</ele></trkpt><trkpt lat="49.56023" lon="-1.68469"><ele>98.59</ele></trkpt><trkpt lat="49.56049" lon="-1.68391"><ele>100.7</ele></trkpt><trkpt lat="49.56054" lon="-1.68374"><ele>101.18</ele></trkpt><trkpt lat="49.56069" lon="-1.68297"><ele>103.47</ele></trkpt><trkpt lat="49.56087" lon="-1.68233"><ele>104.68</ele></trkpt><trkpt lat="49.56115" lon="-1.68189"><ele>105.09</ele></trkpt><trkpt lat="49.56123" lon="-1.68186"><ele>105.07</ele></trkpt><trkpt lat="49.5616" lon="-1.68189"><ele>105.02</ele></trkpt><trkpt lat="49.56245" lon="-1.68203"><ele>103.32</ele></trkpt><trkpt lat="49.56307" lon="-1.68205"><ele>101.03</ele></trkpt><trkpt lat="49.5638" lon="-1.68203"><ele>97.77</ele></trkpt><trkpt lat="49.56395" lon="-1.68202"><ele>97.48</ele></trkpt><trkpt lat="49.56473" lon="-1.68203"><ele>93.59</ele></trkpt><trkpt lat="49.56561" lon="-1.68253"><ele>91.33</ele></trkpt><trkpt lat="49.56623" lon="-1.68293"><ele>88.93</ele></trkpt><trkpt lat="49.5672" lon="-1.683"><ele>87.16</ele></trkpt><trkpt lat="49.56769" lon="-1.68308"><ele>87.38</ele></trkpt><trkpt lat="49.56774" lon="-1.68322"><ele>87.68</ele></trkpt><trkpt lat="49.56773" lon="-1.68353"><ele>89.83</ele></trkpt><trkpt lat="49.56767" lon="-1.684"><ele>91.33</ele></trkpt><trkpt lat="49.56759" lon="-1.68451"><ele>92.25</ele></trkpt><trkpt lat="49.56732" lon="-1.68495"><ele>93.03</ele></trkpt><trkpt lat="49.56704" lon="-1.68525"><ele>93.88</ele></trkpt><trkpt lat="49.56671" lon="-1.68558"><ele>94.31</ele></trkpt><trkpt lat="49.56633" lon="-1.68597"><ele>94.83</ele></trkpt><trkpt lat="49.5661" lon="-1.68624"><ele>94.7</ele></trkpt><trkpt lat="49.56607" lon="-1.68634"><ele>94.7</ele></trkpt><trkpt lat="49.56614" lon="-1.68683"><ele>94.57</ele></trkpt><trkpt lat="49.56614" lon="-1.68702"><ele>94.28</ele></trkpt><trkpt lat="49.56622" lon="-1.68708"><ele>94.12</ele></trkpt><trkpt lat="49.56633" lon="-1.68721"><ele>93.68</ele></trkpt><trkpt lat="49.56665" lon="-1.6872"><ele>93.62</ele></trkpt><trkpt lat="49.56706" lon="-1.68701"><ele>94.27</ele></trkpt><trkpt lat="49.5676" lon="-1.68676"><ele>94.3</ele></trkpt><trkpt lat="49.56795" lon="-1.68652"><ele>93.53</ele></trkpt><trkpt lat="49.56806" lon="-1.68595"><ele>93.08</ele></trkpt><trkpt lat="49.5681" lon="-1.68524"><ele>92.74</ele></trkpt><trkpt lat="49.56818" lon="-1.68453"><ele>91.81</ele></trkpt><trkpt lat="49.56852" lon="-1.68419"><ele>90.1</ele></trkpt><trkpt lat="49.56875" lon="-1.68432"><ele>89.44</ele></trkpt><trkpt lat="49.5689" lon="-1.68443"><ele>88.88</ele></trkpt><trkpt lat="49.56912" lon="-1.68463"><ele>87.74</ele></trkpt><trkpt lat="49.56922" lon="-1.68473"><ele>86.71</ele></trkpt><trkpt lat="49.56969" lon="-1.68517"><ele>83.34</ele></trkpt><trkpt lat="49.56994" lon="-1.68541"><ele>82.05</ele></trkpt><trkpt lat="49.57052" lon="-1.68592"><ele>79.6</ele></trkpt><trkpt lat="49.5707" lon="-1.68622"><ele>77.68</ele></trkpt><trkpt lat="49.57097" lon="-1.68697"><ele>74.06</ele></trkpt><trkpt lat="49.57113" lon="-1.68738"><ele>72.25</ele></trkpt><trkpt lat="49.57132" lon="-1.68761"><ele>70.9</ele></trkpt><trkpt lat="49.57142" lon="-1.6877"><ele>70.47</ele></trkpt><trkpt lat="49.57163" lon="-1.68781"><ele>69.89</ele></trkpt><trkpt lat="49.57177" lon="-1.68788"><ele>69.33</ele></trkpt><trkpt lat="49.57187" lon="-1.68795"><ele>68.49</ele></trkpt><trkpt lat="49.57208" lon="-1.6881"><ele>67.05</ele></trkpt><trkpt lat="49.57217" lon="-1.6882"><ele>66.64</ele></trkpt><trkpt lat="49.5724" lon="-1.68834"><ele>65.86</ele></trkpt><trkpt lat="49.57299" lon="-1.68838"><ele>63.79</ele></trkpt><trkpt lat="49.5734" lon="-1.68832"><ele>63.06</ele></trkpt><trkpt lat="49.57354" lon="-1.6883"><ele>61.93</ele></trkpt><trkpt lat="49.57391" lon="-1.68836"><ele>60.07</ele></trkpt><trkpt lat="49.57427" lon="-1.6885"><ele>59.97</ele></trkpt><trkpt lat="49.57499" lon="-1.6885"><ele>56.69</ele></trkpt><trkpt lat="49.57525" lon="-1.68848"><ele>56.02</ele></trkpt><trkpt lat="49.57589" lon="-1.68862"><ele>54.31</ele></trkpt><trkpt lat="49.57605" lon="-1.68866"><ele>53.36</ele></trkpt><trkpt lat="49.57629" lon="-1.68873"><ele>50.25</ele></trkpt><trkpt lat="49.57632" lon="-1.68852"><ele>52.03</ele></trkpt><trkpt lat="49.57631" lon="-1.68853"><ele>52.03</ele></trkpt><trkpt lat="49.57627" lon="-1.68853"><ele>53.17</ele></trkpt><trkpt lat="49.5763" lon="-1.68856"><ele>51.57</ele></trkpt><trkpt lat="49.57631" lon="-1.68863"><ele>51.14</ele></trkpt><trkpt lat="49.57628" lon="-1.68872"><ele>50.25</ele></trkpt><trkpt lat="49.57627" lon="-1.68879"><ele>50</ele></trkpt><trkpt lat="49.57628" lon="-1.68883"><ele>49.92</ele></trkpt><trkpt lat="49.57628" lon="-1.68882"><ele>49.92</ele></trkpt><trkpt lat="49.57627" lon="-1.68879"><ele>50</ele></trkpt><trkpt lat="49.57628" lon="-1.6888"><ele>50.05</ele></trkpt><trkpt lat="49.57624" lon="-1.68882"><ele>49.97</ele></trkpt><trkpt lat="49.57617" lon="-1.68879"><ele>50.11</ele></trkpt><trkpt lat="49.5762" lon="-1.68879"><ele>50.01</ele></trkpt><trkpt lat="49.57621" lon="-1.6888"><ele>50.01</ele></trkpt><trkpt lat="49.57631" lon="-1.68862"><ele>51.14</ele></trkpt><trkpt lat="49.57631" lon="-1.6886"><ele>51.14</ele></trkpt><trkpt lat="49.57633" lon="-1.68852"><ele>51.1</ele></trkpt><trkpt lat="49.57635" lon="-1.68852"><ele>51.1</ele></trkpt><trkpt lat="49.57635" lon="-1.68847"><ele>51.26</ele></trkpt><trkpt lat="49.57635" lon="-1.68839"><ele>51.63</ele></trkpt><trkpt lat="49.57639" lon="-1.68804"><ele>53.8</ele></trkpt><trkpt lat="49.57637" lon="-1.6879"><ele>54.24</ele></trkpt><trkpt lat="49.5763" lon="-1.68732"><ele>55.66</ele></trkpt><trkpt lat="49.57629" lon="-1.68725"><ele>56.02</ele></trkpt><trkpt lat="49.57624" lon="-1.68675"><ele>56.32</ele></trkpt><trkpt lat="49.57623" lon="-1.68577"><ele>54.25</ele></trkpt><trkpt lat="49.57625" lon="-1.68532"><ele>52.46</ele></trkpt><trkpt lat="49.57644" lon="-1.68475"><ele>52.78</ele></trkpt><trkpt lat="49.57648" lon="-1.68449"><ele>53.55</ele></trkpt><trkpt lat="49.57642" lon="-1.68346"><ele>56.11</ele></trkpt><trkpt lat="49.57646" lon="-1.68275"><ele>58.8</ele></trkpt><trkpt lat="49.57653" lon="-1.68216"><ele>61.54</ele></trkpt><trkpt lat="49.57657" lon="-1.68163"><ele>65.35</ele></trkpt><trkpt lat="49.57657" lon="-1.68123"><ele>68.23</ele></trkpt><trkpt lat="49.57658" lon="-1.68083"><ele>71.48</ele></trkpt><trkpt lat="49.57667" lon="-1.68052"><ele>74.15</ele></trkpt><trkpt lat="49.5768" lon="-1.68007"><ele>77.43</ele></trkpt><trkpt lat="49.57697" lon="-1.67959"><ele>79.35</ele></trkpt><trkpt lat="49.57714" lon="-1.67903"><ele>80.58</ele></trkpt><trkpt lat="49.57738" lon="-1.67876"><ele>82.11</ele></trkpt><trkpt lat="49.5777" lon="-1.6789"><ele>83.01</ele></trkpt><trkpt lat="49.57802" lon="-1.67919"><ele>82.78</ele></trkpt><trkpt lat="49.57845" lon="-1.67958"><ele>81.37</ele></trkpt><trkpt lat="49.57918" lon="-1.68013"><ele>78.12</ele></trkpt><trkpt lat="49.57965" lon="-1.68047"><ele>73.71</ele></trkpt><trkpt lat="49.57969" lon="-1.68051"><ele>73.34</ele></trkpt><trkpt lat="49.57984" lon="-1.68064"><ele>73.5</ele></trkpt><trkpt lat="49.57984" lon="-1.68068"><ele>73.51</ele></trkpt><trkpt lat="49.57985" lon="-1.68069"><ele>73.51</ele></trkpt><trkpt lat="49.57985" lon="-1.68066"><ele>73.51</ele></trkpt><trkpt lat="49.57986" lon="-1.68066"><ele>73.51</ele></trkpt><trkpt lat="49.57995" lon="-1.68032"><ele>78.01</ele></trkpt><trkpt lat="49.58001" lon="-1.67995"><ele>77.55</ele></trkpt><trkpt lat="49.58002" lon="-1.67991"><ele>78.08</ele></trkpt><trkpt lat="49.58004" lon="-1.67975"><ele>78.9</ele></trkpt><trkpt lat="49.58" lon="-1.67963"><ele>78.64</ele></trkpt><trkpt lat="49.57959" lon="-1.67919"><ele>79.98</ele></trkpt><trkpt lat="49.57931" lon="-1.67912"><ele>82.57</ele></trkpt><trkpt lat="49.57899" lon="-1.679"><ele>84.09</ele></trkpt><trkpt lat="49.57895" lon="-1.67897"><ele>84.57</ele></trkpt><trkpt lat="49.57875" lon="-1.67886"><ele>85.11</ele></trkpt><trkpt lat="49.57844" lon="-1.67865"><ele>86.07</ele></trkpt><trkpt lat="49.5778" lon="-1.67818"><ele>85.69</ele></trkpt><trkpt lat="49.57755" lon="-1.67799"><ele>84.19</ele></trkpt><trkpt lat="49.57741" lon="-1.67763"><ele>84.49</ele></trkpt><trkpt lat="49.57744" lon="-1.67701"><ele>87.06</ele></trkpt><trkpt lat="49.57745" lon="-1.67701"><ele>87.06</ele></trkpt><trkpt lat="49.57746" lon="-1.67696"><ele>87.25</ele></trkpt><trkpt lat="49.57748" lon="-1.67626"><ele>90.82</ele></trkpt><trkpt lat="49.5775" lon="-1.67544"><ele>93.72</ele></trkpt><trkpt lat="49.57748" lon="-1.67486"><ele>96.59</ele></trkpt><trkpt lat="49.57745" lon="-1.67467"><ele>96.92</ele></trkpt><trkpt lat="49.57745" lon="-1.67458"><ele>97.61</ele></trkpt><trkpt lat="49.57742" lon="-1.67396"><ele>100.84</ele></trkpt><trkpt lat="49.57744" lon="-1.67344"><ele>103.42</ele></trkpt><trkpt lat="49.57741" lon="-1.67273"><ele>104.69</ele></trkpt><trkpt lat="49.57711" lon="-1.67192"><ele>105.34</ele></trkpt><trkpt lat="49.57675" lon="-1.67093"><ele>106.08</ele></trkpt><trkpt lat="49.5767" lon="-1.67075"><ele>106.25</ele></trkpt><trkpt lat="49.57667" lon="-1.67062"><ele>106.4</ele></trkpt><trkpt lat="49.57657" lon="-1.67003"><ele>106.86</ele></trkpt><trkpt lat="49.57657" lon="-1.67002"><ele>106.86</ele></trkpt><trkpt lat="49.57657" lon="-1.67001"><ele>106.86</ele></trkpt><trkpt lat="49.57656" lon="-1.67002"><ele>106.86</ele></trkpt><trkpt lat="49.5765" lon="-1.67001"><ele>106.65</ele></trkpt><trkpt lat="49.57649" lon="-1.67002"><ele>106.48</ele></trkpt><trkpt lat="49.5762" lon="-1.67032"><ele>105.3</ele></trkpt><trkpt lat="49.57589" lon="-1.67067"><ele>103.98</ele></trkpt><trkpt lat="49.57542" lon="-1.67142"><ele>101.28</ele></trkpt><trkpt lat="49.5751" lon="-1.67192"><ele>97.86</ele></trkpt><trkpt lat="49.57499" lon="-1.67206"><ele>97.19</ele></trkpt><trkpt lat="49.57488" lon="-1.67213"><ele>95.97</ele></trkpt><trkpt lat="49.57444" lon="-1.67223"><ele>90.67</ele></trkpt><trkpt lat="49.57409" lon="-1.67245"><ele>88.56</ele></trkpt><trkpt lat="49.57375" lon="-1.67228"><ele>89.15</ele></trkpt><trkpt lat="49.57332" lon="-1.67183"><ele>92.2</ele></trkpt><trkpt lat="49.5731" lon="-1.67174"><ele>91.87</ele></trkpt><trkpt lat="49.57303" lon="-1.67181"><ele>89.21</ele></trkpt><trkpt lat="49.57302" lon="-1.6718"><ele>89.21</ele></trkpt><trkpt lat="49.57303" lon="-1.67181"><ele>89.21</ele></trkpt><trkpt lat="49.57302" lon="-1.67186"><ele>88.9</ele></trkpt><trkpt lat="49.57286" lon="-1.67225"><ele>96.71</ele></trkpt><trkpt lat="49.57271" lon="-1.67263"><ele>96.7</ele></trkpt><trkpt lat="49.57251" lon="-1.67283"><ele>95.45</ele></trkpt><trkpt lat="49.57214" lon="-1.67305"><ele>95.36</ele></trkpt><trkpt lat="49.57146" lon="-1.67339"><ele>95.48</ele></trkpt><trkpt lat="49.57136" lon="-1.67357"><ele>95.64</ele></trkpt><trkpt lat="49.57141" lon="-1.67371"><ele>96.19</ele></trkpt><trkpt lat="49.57154" lon="-1.67384"><ele>97.18</ele></trkpt><trkpt lat="49.5717" lon="-1.67397"><ele>98.58</ele></trkpt><trkpt lat="49.57186" lon="-1.67412"><ele>100.1</ele></trkpt><trkpt lat="49.57188" lon="-1.67417"><ele>100</ele></trkpt><trkpt lat="49.57187" lon="-1.67421"><ele>100.05</ele></trkpt><trkpt lat="49.57187" lon="-1.67425"><ele>100.24</ele></trkpt><trkpt lat="49.57183" lon="-1.67428"><ele>100.54</ele></trkpt><trkpt lat="49.57146" lon="-1.6746"><ele>100.11</ele></trkpt><trkpt lat="49.57137" lon="-1.67467"><ele>100.06</ele></trkpt><trkpt lat="49.57116" lon="-1.67482"><ele>99.87</ele></trkpt><trkpt lat="49.57103" lon="-1.67493"><ele>99.65</ele></trkpt><trkpt lat="49.57094" lon="-1.67502"><ele>99.6</ele></trkpt><trkpt lat="49.57026" lon="-1.6756"><ele>100.24</ele></trkpt><trkpt lat="49.5699" lon="-1.67594"><ele>100.65</ele></trkpt><trkpt lat="49.56946" lon="-1.67621"><ele>101.54</ele></trkpt><trkpt lat="49.56921" lon="-1.67638"><ele>102.27</ele></trkpt><trkpt lat="49.56877" lon="-1.67675"><ele>103.66</ele></trkpt><trkpt lat="49.56862" lon="-1.67693"><ele>103.92</ele></trkpt><trkpt lat="49.56859" lon="-1.67696"><ele>103.97</ele></trkpt><trkpt lat="49.56852" lon="-1.67686"><ele>104.7</ele></trkpt><trkpt lat="49.56851" lon="-1.67688"><ele>105.91</ele></trkpt><trkpt lat="49.56858" lon="-1.67698"><ele>103.97</ele></trkpt><trkpt lat="49.56856" lon="-1.67702"><ele>104.42</ele></trkpt><trkpt lat="49.56854" lon="-1.67704"><ele>104.17</ele></trkpt><trkpt lat="49.56821" lon="-1.67751"><ele>105.51</ele></trkpt><trkpt lat="49.56818" lon="-1.67756"><ele>105.63</ele></trkpt><trkpt lat="49.56814" lon="-1.6776"><ele>105.72</ele></trkpt><trkpt lat="49.56809" lon="-1.67766"><ele>105.96</ele></trkpt><trkpt lat="49.56782" lon="-1.67775"><ele>107.19</ele></trkpt><trkpt lat="49.56762" lon="-1.67784"><ele>107.92</ele></trkpt><trkpt lat="49.5674" lon="-1.67795"><ele>109</ele></trkpt><trkpt lat="49.56729" lon="-1.67799"><ele>108.96</ele></trkpt><trkpt lat="49.56728" lon="-1.678"><ele>108.96</ele></trkpt><trkpt lat="49.56719" lon="-1.67805"><ele>109.09</ele></trkpt><trkpt lat="49.567" lon="-1.67815"><ele>109.52</ele></trkpt><trkpt lat="49.56694" lon="-1.67819"><ele>109.56</ele></trkpt><trkpt lat="49.56679" lon="-1.67829"><ele>109.69</ele></trkpt><trkpt lat="49.5667" lon="-1.67835"><ele>109.7</ele></trkpt><trkpt lat="49.56661" lon="-1.6784"><ele>109.69</ele></trkpt><trkpt lat="49.56644" lon="-1.67851"><ele>109.57</ele></trkpt><trkpt lat="49.56639" lon="-1.67854"><ele>109.46</ele></trkpt><trkpt lat="49.56629" lon="-1.67859"><ele>109.27</ele></trkpt><trkpt lat="49.56627" lon="-1.6786"><ele>109.16</ele></trkpt><trkpt lat="49.56593" lon="-1.67875"><ele>108.33</ele></trkpt><trkpt lat="49.56589" lon="-1.67877"><ele>108.12</ele></trkpt><trkpt lat="49.56578" lon="-1.67882"><ele>107.94</ele></trkpt><trkpt lat="49.56575" lon="-1.67883"><ele>107.68</ele></trkpt><trkpt lat="49.56561" lon="-1.67888"><ele>107.3</ele></trkpt><trkpt lat="49.56558" lon="-1.67889"><ele>107.12</ele></trkpt><trkpt lat="49.56526" lon="-1.67895"><ele>106.28</ele></trkpt><trkpt lat="49.56518" lon="-1.67896"><ele>105.9</ele></trkpt><trkpt lat="49.56504" lon="-1.67901"><ele>105.43</ele></trkpt><trkpt lat="49.56497" lon="-1.67903"><ele>105.14</ele></trkpt><trkpt lat="49.56487" lon="-1.67908"><ele>104.9</ele></trkpt><trkpt lat="49.56478" lon="-1.67913"><ele>104.58</ele></trkpt><trkpt lat="49.5646" lon="-1.67922"><ele>103.86</ele></trkpt><trkpt lat="49.56453" lon="-1.67925"><ele>103.88</ele></trkpt><trkpt lat="49.56436" lon="-1.67934"><ele>103.35</ele></trkpt><trkpt lat="49.56419" lon="-1.67943"><ele>102.92</ele></trkpt><trkpt lat="49.5641" lon="-1.67947"><ele>102.83</ele></trkpt><trkpt lat="49.56391" lon="-1.67954"><ele>102.4</ele></trkpt><trkpt lat="49.56384" lon="-1.67956"><ele>102.35</ele></trkpt><trkpt lat="49.56366" lon="-1.6796"><ele>102.12</ele></trkpt><trkpt lat="49.56348" lon="-1.67964"><ele>101.94</ele></trkpt><trkpt lat="49.5633" lon="-1.67968"><ele>101.93</ele></trkpt><trkpt lat="49.56322" lon="-1.6797"><ele>101.98</ele></trkpt><trkpt lat="49.56295" lon="-1.67978"><ele>102.29</ele></trkpt><trkpt lat="49.56283" lon="-1.67981"><ele>102.61</ele></trkpt><trkpt lat="49.56278" lon="-1.67984"><ele>102.83</ele></trkpt><trkpt lat="49.56265" lon="-1.6799"><ele>103.26</ele></trkpt><trkpt lat="49.56258" lon="-1.67994"><ele>103.6</ele></trkpt><trkpt lat="49.56236" lon="-1.68009"><ele>104.31</ele></trkpt><trkpt lat="49.56228" lon="-1.68017"><ele>104.59</ele></trkpt><trkpt lat="49.562" lon="-1.68044"><ele>104.99</ele></trkpt><trkpt lat="49.56182" lon="-1.6806"><ele>105.31</ele></trkpt><trkpt lat="49.56183" lon="-1.68013"><ele>105.62</ele></trkpt><trkpt lat="49.56185" lon="-1.68013"><ele>105.62</ele></trkpt><trkpt lat="49.56188" lon="-1.67895"><ele>106.31</ele></trkpt><trkpt lat="49.56187" lon="-1.67888"><ele>106.48</ele></trkpt><trkpt lat="49.56187" lon="-1.67889"><ele>106.48</ele></trkpt><trkpt lat="49.56186" lon="-1.67882"><ele>106.5</ele></trkpt><trkpt lat="49.56182" lon="-1.67881"><ele>106.56</ele></trkpt><trkpt lat="49.56153" lon="-1.67867"><ele>108.16</ele></trkpt><trkpt lat="49.56138" lon="-1.67862"><ele>108.35</ele></trkpt><trkpt lat="49.56116" lon="-1.67849"><ele>108.44</ele></trkpt><trkpt lat="49.56085" lon="-1.67833"><ele>107.54</ele></trkpt><trkpt lat="49.5604" lon="-1.67798"><ele>105.85</ele></trkpt><trkpt lat="49.5603" lon="-1.67789"><ele>105.88</ele></trkpt><trkpt lat="49.56009" lon="-1.6777"><ele>105.61</ele></trkpt><trkpt lat="49.55949" lon="-1.67733"><ele>102.66</ele></trkpt><trkpt lat="49.55907" lon="-1.67702"><ele>100.75</ele></trkpt><trkpt lat="49.55886" lon="-1.67685"><ele>100</ele></trkpt><trkpt lat="49.5588" lon="-1.67671"><ele>99.24</ele></trkpt><trkpt lat="49.55875" lon="-1.67663"><ele>98.55</ele></trkpt><trkpt lat="49.55874" lon="-1.6766"><ele>98.82</ele></trkpt><trkpt lat="49.55873" lon="-1.67655"><ele>99.27</ele></trkpt><trkpt lat="49.55878" lon="-1.67635"><ele>99.52</ele></trkpt><trkpt lat="49.55906" lon="-1.67586"><ele>98.91</ele></trkpt><trkpt lat="49.55941" lon="-1.67548"><ele>98.24</ele></trkpt><trkpt lat="49.55973" lon="-1.67499"><ele>97.68</ele></trkpt><trkpt lat="49.56" lon="-1.6745"><ele>96.42</ele></trkpt><trkpt lat="49.55982" lon="-1.67412"><ele>94.11</ele></trkpt><trkpt lat="49.55966" lon="-1.67385"><ele>92.41</ele></trkpt><trkpt lat="49.55961" lon="-1.67367"><ele>91.76</ele></trkpt><trkpt lat="49.55962" lon="-1.67359"><ele>91.6</ele></trkpt><trkpt lat="49.55963" lon="-1.67357"><ele>91.93</ele></trkpt><trkpt lat="49.55962" lon="-1.67356"><ele>91.61</ele></trkpt><trkpt lat="49.55962" lon="-1.67354"><ele>91.61</ele></trkpt><trkpt lat="49.55961" lon="-1.67354"><ele>91.61</ele></trkpt><trkpt lat="49.5596" lon="-1.67351"><ele>91.57</ele></trkpt><trkpt lat="49.5596" lon="-1.67353"><ele>91.61</ele></trkpt><trkpt lat="49.5596" lon="-1.67352"><ele>91.57</ele></trkpt><trkpt lat="49.55962" lon="-1.67353"><ele>91.61</ele></trkpt><trkpt lat="49.5596" lon="-1.67353"><ele>91.61</ele></trkpt><trkpt lat="49.5596" lon="-1.6735"><ele>91.57</ele></trkpt><trkpt lat="49.5596" lon="-1.67349"><ele>91.57</ele></trkpt><trkpt lat="49.55959" lon="-1.67348"><ele>91.51</ele></trkpt><trkpt lat="49.55958" lon="-1.67349"><ele>91.79</ele></trkpt><trkpt lat="49.55959" lon="-1.67351"><ele>91.57</ele></trkpt><trkpt lat="49.55958" lon="-1.67349"><ele>91.79</ele></trkpt><trkpt lat="49.55957" lon="-1.67352"><ele>91.79</ele></trkpt><trkpt lat="49.55958" lon="-1.67353"><ele>91.7</ele></trkpt><trkpt lat="49.55958" lon="-1.67352"><ele>91.79</ele></trkpt><trkpt lat="49.55958" lon="-1.67351"><ele>91.79</ele></trkpt><trkpt lat="49.55959" lon="-1.67347"><ele>91.51</ele></trkpt><trkpt lat="49.55963" lon="-1.67315"><ele>90.3</ele></trkpt><trkpt lat="49.55949" lon="-1.67305"><ele>89.57</ele></trkpt><trkpt lat="49.55928" lon="-1.67303"><ele>89.38</ele></trkpt><trkpt lat="49.559" lon="-1.67298"><ele>88.8</ele></trkpt><trkpt lat="49.55832" lon="-1.67313"><ele>87.31</ele></trkpt><trkpt lat="49.55828" lon="-1.67314"><ele>87.53</ele></trkpt><trkpt lat="49.55826" lon="-1.67316"><ele>87.46</ele></trkpt><trkpt lat="49.55823" lon="-1.67317"><ele>87.69</ele></trkpt><trkpt lat="49.55823" lon="-1.67315"><ele>87.69</ele></trkpt><trkpt lat="49.55824" lon="-1.67316"><ele>87.69</ele></trkpt><trkpt lat="49.55824" lon="-1.67315"><ele>87.69</ele></trkpt><trkpt lat="49.55815" lon="-1.67318"><ele>87.41</ele></trkpt><trkpt lat="49.55762" lon="-1.67357"><ele>85.07</ele></trkpt><trkpt lat="49.55672" lon="-1.67444"><ele>82.14</ele></trkpt><trkpt lat="49.55625" lon="-1.67543"><ele>80.47</ele></trkpt><trkpt lat="49.55572" lon="-1.67704"><ele>78.56</ele></trkpt><trkpt lat="49.55555" lon="-1.67741"><ele>78.34</ele></trkpt><trkpt lat="49.55548" lon="-1.67756"><ele>77.87</ele></trkpt><trkpt lat="49.55536" lon="-1.67789"><ele>77.42</ele></trkpt><trkpt lat="49.55497" lon="-1.67848"><ele>76.67</ele></trkpt><trkpt lat="49.55489" lon="-1.67883"><ele>76.46</ele></trkpt><trkpt lat="49.5549" lon="-1.67885"><ele>76.48</ele></trkpt><trkpt lat="49.55493" lon="-1.6788"><ele>76.54</ele></trkpt><trkpt lat="49.5549" lon="-1.67882"><ele>76.46</ele></trkpt><trkpt lat="49.55491" lon="-1.67886"><ele>76.46</ele></trkpt><trkpt lat="49.55491" lon="-1.67888"><ele>76.46</ele></trkpt><trkpt lat="49.55487" lon="-1.67881"><ele>76.46</ele></trkpt><trkpt lat="49.55479" lon="-1.67878"><ele>76.23</ele></trkpt><trkpt lat="49.55459" lon="-1.67903"><ele>76.14</ele></trkpt><trkpt lat="49.55439" lon="-1.67941"><ele>75.86</ele></trkpt><trkpt lat="49.55434" lon="-1.6796"><ele>75.71</ele></trkpt><trkpt lat="49.55403" lon="-1.68077"><ele>76.01</ele></trkpt><trkpt lat="49.55365" lon="-1.68232"><ele>74.81</ele></trkpt><trkpt lat="49.5536" lon="-1.68253"><ele>75.31</ele></trkpt><trkpt lat="49.55334" lon="-1.68301"><ele>75.41</ele></trkpt><trkpt lat="49.55334" lon="-1.683"><ele>75.41</ele></trkpt><trkpt lat="49.55334" lon="-1.68301"><ele>75.41</ele></trkpt><trkpt lat="49.55328" lon="-1.68308"><ele>75.61</ele></trkpt><trkpt lat="49.55295" lon="-1.68352"><ele>74.15</ele></trkpt><trkpt lat="49.55238" lon="-1.6841"><ele>72.46</ele></trkpt><trkpt lat="49.55225" lon="-1.68432"><ele>73.85</ele></trkpt><trkpt lat="49.5521" lon="-1.68447"><ele>74.11</ele></trkpt><trkpt lat="49.55181" lon="-1.68453"><ele>71.9</ele></trkpt><trkpt lat="49.55166" lon="-1.68452"><ele>71.37</ele></trkpt><trkpt lat="49.5517" lon="-1.68451"><ele>71.93</ele></trkpt><trkpt lat="49.55169" lon="-1.68452"><ele>71.61</ele></trkpt><trkpt lat="49.55162" lon="-1.6845"><ele>71.81</ele></trkpt><trkpt lat="49.55155" lon="-1.68448"><ele>71.66</ele></trkpt><trkpt lat="49.55145" lon="-1.68467"><ele>70.77</ele></trkpt><trkpt lat="49.55139" lon="-1.68484"><ele>70.24</ele></trkpt><trkpt lat="49.55126" lon="-1.68507"><ele>69.64</ele></trkpt><trkpt lat="49.55108" lon="-1.68544"><ele>68.31</ele></trkpt><trkpt lat="49.55082" lon="-1.68615"><ele>66.26</ele></trkpt><trkpt lat="49.55069" lon="-1.68632"><ele>65.82</ele></trkpt><trkpt lat="49.55037" lon="-1.68657"><ele>65.02</ele></trkpt><trkpt lat="49.55001" lon="-1.68746"><ele>64.13</ele></trkpt><trkpt lat="49.5496" lon="-1.68781"><ele>63.69</ele></trkpt><trkpt lat="49.54934" lon="-1.68777"><ele>63.85</ele></trkpt><trkpt lat="49.54915" lon="-1.68747"><ele>64.79</ele></trkpt><trkpt lat="49.54904" lon="-1.68708"><ele>64.94</ele></trkpt><trkpt lat="49.54898" lon="-1.68696"><ele>65.61</ele></trkpt><trkpt lat="49.54885" lon="-1.68674"><ele>65.92</ele></trkpt><trkpt lat="49.54861" lon="-1.68638"><ele>67.04</ele></trkpt><trkpt lat="49.5484" lon="-1.68637"><ele>69.17</ele></trkpt><trkpt lat="49.54822" lon="-1.68665"><ele>71.21</ele></trkpt><trkpt lat="49.54819" lon="-1.68668"><ele>71.4</ele></trkpt><trkpt lat="49.54813" lon="-1.68671"><ele>71.65</ele></trkpt><trkpt lat="49.54798" lon="-1.68698"><ele>71.7</ele></trkpt><trkpt lat="49.54792" lon="-1.6872"><ele>71.65</ele></trkpt><trkpt lat="49.54787" lon="-1.68733"><ele>71.81</ele></trkpt><trkpt lat="49.54765" lon="-1.68762"><ele>72.55</ele></trkpt><trkpt lat="49.54743" lon="-1.68792"><ele>72.21</ele></trkpt><trkpt lat="49.54663" lon="-1.68788"><ele>75.93</ele></trkpt><trkpt lat="49.5465" lon="-1.68785"><ele>77.39</ele></trkpt><trkpt lat="49.54632" lon="-1.68818"><ele>77.98</ele></trkpt><trkpt lat="49.54632" lon="-1.68826"><ele>78</ele></trkpt><trkpt lat="49.54628" lon="-1.68879"><ele>78.53</ele></trkpt><trkpt lat="49.54624" lon="-1.68902"><ele>78.31</ele></trkpt><trkpt lat="49.54623" lon="-1.68916"><ele>78.11</ele></trkpt><trkpt lat="49.54619" lon="-1.6895"><ele>77.05</ele></trkpt><trkpt lat="49.54604" lon="-1.6902"><ele>75.35</ele></trkpt><trkpt lat="49.54588" lon="-1.69059"><ele>72.95</ele></trkpt><trkpt lat="49.54575" lon="-1.69131"><ele>77.11</ele></trkpt><trkpt lat="49.54587" lon="-1.6915"><ele>75.89</ele></trkpt><trkpt lat="49.546" lon="-1.69163"><ele>74.32</ele></trkpt><trkpt lat="49.54612" lon="-1.69181"><ele>73.04</ele></trkpt><trkpt lat="49.5462" lon="-1.69228"><ele>71.94</ele></trkpt><trkpt lat="49.54611" lon="-1.69263"><ele>70.73</ele></trkpt><trkpt lat="49.5461" lon="-1.69308"><ele>69.43</ele></trkpt><trkpt lat="49.54619" lon="-1.69329"><ele>69.37</ele></trkpt><trkpt lat="49.54633" lon="-1.69354"><ele>70.94</ele></trkpt><trkpt lat="49.54665" lon="-1.69391"><ele>75.37</ele></trkpt><trkpt lat="49.54676" lon="-1.69409"><ele>76.19</ele></trkpt><trkpt lat="49.54695" lon="-1.69449"><ele>78.4</ele></trkpt><trkpt lat="49.54729" lon="-1.69537"><ele>80.42</ele></trkpt><trkpt lat="49.54729" lon="-1.6954"><ele>80.44</ele></trkpt><trkpt lat="49.54729" lon="-1.69555"><ele>80.75</ele></trkpt><trkpt lat="49.54731" lon="-1.69623"><ele>82.94</ele></trkpt><trkpt lat="49.54742" lon="-1.69709"><ele>86.23</ele></trkpt><trkpt lat="49.54759" lon="-1.69775"><ele>87.48</ele></trkpt><trkpt lat="49.54774" lon="-1.69839"><ele>88.33</ele></trkpt><trkpt lat="49.5478" lon="-1.6988"><ele>89.27</ele></trkpt><trkpt lat="49.54798" lon="-1.69999"><ele>91.23</ele></trkpt><trkpt lat="49.54798" lon="-1.70006"><ele>91.2</ele></trkpt><trkpt lat="49.54832" lon="-1.70123"><ele>87.12</ele></trkpt><trkpt lat="49.54859" lon="-1.70193"><ele>84.9</ele></trkpt><trkpt lat="49.54869" lon="-1.70221"><ele>84.21</ele></trkpt><trkpt lat="49.54919" lon="-1.70338"><ele>82.51</ele></trkpt><trkpt lat="49.54952" lon="-1.70418"><ele>82.04</ele></trkpt><trkpt lat="49.54964" lon="-1.70441"><ele>81.65</ele></trkpt><trkpt lat="49.54971" lon="-1.70457"><ele>82.44</ele></trkpt><trkpt lat="49.54981" lon="-1.70472"><ele>82.34</ele></trkpt><trkpt lat="49.54993" lon="-1.70492"><ele>83.16</ele></trkpt><trkpt lat="49.55007" lon="-1.70517"><ele>83.99</ele></trkpt><trkpt lat="49.55039" lon="-1.70584"><ele>86.79</ele></trkpt><trkpt lat="49.55047" lon="-1.70596"><ele>86.99</ele></trkpt><trkpt lat="49.5512" lon="-1.70707"><ele>86.38</ele></trkpt><trkpt lat="49.55157" lon="-1.70752"><ele>86.02</ele></trkpt><trkpt lat="49.55171" lon="-1.70778"><ele>86.08</ele></trkpt><trkpt lat="49.55183" lon="-1.70801"><ele>85.96</ele></trkpt><trkpt lat="49.55194" lon="-1.70817"><ele>85.79</ele></trkpt><trkpt lat="49.55204" lon="-1.70814"><ele>86.78</ele></trkpt><trkpt lat="49.55208" lon="-1.70809"><ele>85.57</ele></trkpt><trkpt lat="49.5521" lon="-1.70801"><ele>85.64</ele></trkpt><trkpt lat="49.55215" lon="-1.70773"><ele>85.46</ele></trkpt><trkpt lat="49.55224" lon="-1.70716"><ele>85.15</ele></trkpt><trkpt lat="49.55234" lon="-1.70657"><ele>85.23</ele></trkpt><trkpt lat="49.55244" lon="-1.70598"><ele>84.84</ele></trkpt><trkpt lat="49.55244" lon="-1.70558"><ele>84.47</ele></trkpt><trkpt lat="49.55224" lon="-1.70482"><ele>84.14</ele></trkpt><trkpt lat="49.55198" lon="-1.7038"><ele>82.64</ele></trkpt><trkpt lat="49.55188" lon="-1.70344"><ele>81.9</ele></trkpt><trkpt lat="49.55169" lon="-1.70277"><ele>79.2</ele></trkpt><trkpt lat="49.55175" lon="-1.70258"><ele>79.11</ele></trkpt><trkpt lat="49.55184" lon="-1.70242"><ele>78.59</ele></trkpt><trkpt lat="49.55193" lon="-1.70219"><ele>76.65</ele></trkpt><trkpt lat="49.55199" lon="-1.702"><ele>77.18</ele></trkpt><trkpt lat="49.55225" lon="-1.701"><ele>74.94</ele></trkpt><trkpt lat="49.55242" lon="-1.70067"><ele>72.84</ele></trkpt><trkpt lat="49.55256" lon="-1.70044"><ele>71.93</ele></trkpt><trkpt lat="49.55271" lon="-1.70011"><ele>70.83</ele></trkpt><trkpt lat="49.55328" lon="-1.69943"><ele>68.04</ele></trkpt><trkpt lat="49.55378" lon="-1.69895"><ele>65.31</ele></trkpt><trkpt lat="49.5542" lon="-1.69855"><ele>62.41</ele></trkpt><trkpt lat="49.55442" lon="-1.69836"><ele>61.64</ele></trkpt><trkpt lat="49.55479" lon="-1.69783"><ele>58.65</ele></trkpt><trkpt lat="49.55495" lon="-1.69769"><ele>55.47</ele></trkpt><trkpt lat="49.55494" lon="-1.69742"><ele>55.03</ele></trkpt><trkpt lat="49.55486" lon="-1.697"><ele>55.03</ele></trkpt><trkpt lat="49.55488" lon="-1.69671"><ele>55.2</ele></trkpt><trkpt lat="49.55493" lon="-1.69648"><ele>55.43</ele></trkpt><trkpt lat="49.55491" lon="-1.69593"><ele>55.58</ele></trkpt><trkpt lat="49.5549" lon="-1.69594"><ele>55.93</ele></trkpt><trkpt lat="49.55491" lon="-1.69593"><ele>55.58</ele></trkpt><trkpt lat="49.55495" lon="-1.69538"><ele>56.34</ele></trkpt><trkpt lat="49.55502" lon="-1.69476"><ele>58.64</ele></trkpt><trkpt lat="49.5552" lon="-1.69419"><ele>60.65</ele></trkpt><trkpt lat="49.55537" lon="-1.69355"><ele>63.82</ele></trkpt><trkpt lat="49.55556" lon="-1.69308"><ele>67.26</ele></trkpt><trkpt lat="49.55566" lon="-1.69287"><ele>68.32</ele></trkpt><trkpt lat="49.55569" lon="-1.69288"><ele>69.12</ele></trkpt><trkpt lat="49.55568" lon="-1.69273"><ele>68.55</ele></trkpt><trkpt lat="49.55585" lon="-1.69223"><ele>69.82</ele></trkpt><trkpt lat="49.5561" lon="-1.69143"><ele>73.2</ele></trkpt><trkpt lat="49.55641" lon="-1.69102"><ele>75.67</ele></trkpt><trkpt lat="49.55695" lon="-1.69071"><ele>77.29</ele></trkpt><trkpt lat="49.5573" lon="-1.69026"><ele>79.35</ele></trkpt><trkpt lat="49.55756" lon="-1.68953"><ele>81.21</ele></trkpt><trkpt lat="49.55755" lon="-1.68948"><ele>81.21</ele></trkpt><trkpt lat="49.55739" lon="-1.68942"><ele>82.93</ele></trkpt><trkpt lat="49.55711" lon="-1.68934"><ele>84.52</ele></trkpt><trkpt lat="49.55643" lon="-1.68933"><ele>86.06</ele></trkpt><trkpt lat="49.55618" lon="-1.68931"><ele>86.71</ele></trkpt><trkpt lat="49.55602" lon="-1.68923"><ele>86.92</ele></trkpt><trkpt lat="49.55544" lon="-1.68885"><ele>88.93</ele></trkpt><trkpt lat="49.55475" lon="-1.68856"><ele>90.06</ele></trkpt><trkpt lat="49.55461" lon="-1.68841"><ele>90.64</ele></trkpt><trkpt lat="49.55461" lon="-1.6884"><ele>90.64</ele></trkpt><trkpt lat="49.55462" lon="-1.68839"><ele>90.64</ele></trkpt><trkpt lat="49.55461" lon="-1.68834"><ele>91.17</ele></trkpt><trkpt lat="49.55462" lon="-1.68837"><ele>91.17</ele></trkpt><trkpt lat="49.55463" lon="-1.68837"><ele>91.17</ele></trkpt><trkpt lat="49.55462" lon="-1.68834"><ele>91.17</ele></trkpt><trkpt lat="49.55461" lon="-1.68831"><ele>91.48</ele></trkpt><trkpt lat="49.55461" lon="-1.6883"><ele>91.48</ele></trkpt><trkpt lat="49.55462" lon="-1.68831"><ele>91.48</ele></trkpt><trkpt lat="49.5546" lon="-1.68831"><ele>91.4</ele></trkpt><trkpt lat="49.5546" lon="-1.6883"><ele>91.4</ele></trkpt><trkpt lat="49.5546" lon="-1.68836"><ele>90.96</ele></trkpt><trkpt lat="49.5546" lon="-1.68834"><ele>90.96</ele></trkpt><trkpt lat="49.5546" lon="-1.68835"><ele>90.96</ele></trkpt><trkpt lat="49.55463" lon="-1.6883"><ele>91.48</ele></trkpt></trkseg></trk></gpx>
