<?xml version="1.0" encoding="UTF-8" standalone="no"?>
<gpx xmlns="http://www.topografix.com/GPX/1/1" version="1.1" xmlns:xsi="http://www.w3.org/2001/XMLSchema-instance" xsi:schemaLocation="http://www.topografix.com/GPX/1/1 http://www.topografix.com/GPX/1/1/gpx.xsd" creator="Cirkwi"><metadata><name><![CDATA[Bocage au Coeur du Cotentin]]></name><desc><![CDATA[L’itinéraire proposé, entre routes  et  chemins, permet de découvrir de belles demeures de style et de beaux points de vue sur les communes des environs avec des points culminants entre 61 et 118m.]]></desc><author><name><![CDATA[Attitude Manche]]></name></author><link href="http://fichier0.cirkwi.com/image/photo/circuit/1300x1300/483172/fr/0.jpg"><text><![CDATA[Photo N°2_Derni+¿re de couverture  Manoir  d'Anneville|Office de Tourisme du Coeur du Cotentin]]></text></link><link href="http://fichier0.cirkwi.com/image/photo/circuit/1300x1300/483172/fr/1.jpg"><text><![CDATA[Photo N°3_Derni+¿re de couverture Manoir  le Nordez|Office de Tourisme du Coeur du Cotentin]]></text></link><link href="http://fichier0.cirkwi.com/image/photo/circuit/1300x1300/483172/fr/2.jpg"><text><![CDATA[Photo N°4_Alauna ©Mairie de Valgones|Mairie de Valognes]]></text></link><time>2025-12-15T10:33:15Z</time></metadata><trk><trkseg><trkpt lat="49.510687814383" lon="-1.4378933586466"><ele>51.29</ele></trkpt><trkpt lat="49.510678842662" lon="-1.4379160674442"><ele>51.29</ele></trkpt><trkpt lat="49.510628397131" lon="-1.4380816724239"><ele>51.58</ele></trkpt><trkpt lat="49.5105822774" lon="-1.438228300516"><ele>51.39</ele></trkpt><trkpt lat="49.510543439118" lon="-1.4383493012745"><ele>51.34</ele></trkpt><trkpt lat="49.510454836733" lon="-1.4383344207695"><ele>51.66</ele></trkpt><trkpt lat="49.510232001624" lon="-1.4382493787247"><ele>52.44</ele></trkpt><trkpt lat="49.5100332973" lon="-1.4381692728717"><ele>55.15</ele></trkpt><trkpt lat="49.509892251207" lon="-1.4380888172041"><ele>57.14</ele></trkpt><trkpt lat="49.509830100253" lon="-1.4380652490856"><ele>57.22</ele></trkpt><trkpt lat="49.509777770659" lon="-1.4380439469978"><ele>57.44</ele></trkpt><trkpt lat="49.509717944829" lon="-1.4380302705035"><ele>57.71</ele></trkpt><trkpt lat="49.509612550131" lon="-1.4380069654563"><ele>57.8</ele></trkpt><trkpt lat="49.509480804478" lon="-1.4379660767823"><ele>58.03</ele></trkpt><trkpt lat="49.509388134149" lon="-1.4379397659983"><ele>58.05</ele></trkpt><trkpt lat="49.509354028841" lon="-1.4379602152275"><ele>57.92</ele></trkpt><trkpt lat="49.509322778551" lon="-1.4380002859382"><ele>57.95</ele></trkpt><trkpt lat="49.509280818293" lon="-1.4380850397995"><ele>58.29</ele></trkpt><trkpt lat="49.509206092974" lon="-1.4382968697422"><ele>58.55</ele></trkpt><trkpt lat="49.509151434745" lon="-1.4385257181255"><ele>58.98</ele></trkpt><trkpt lat="49.509105909969" lon="-1.4387512374786"><ele>59.31</ele></trkpt><trkpt lat="49.509082602221" lon="-1.4389137432487"><ele>59.36</ele></trkpt><trkpt lat="49.509049306613" lon="-1.4390310885444"><ele>59.33</ele></trkpt><trkpt lat="49.508981489264" lon="-1.4392034244945"><ele>59.44</ele></trkpt><trkpt lat="49.508872122321" lon="-1.4394024547522"><ele>59.22</ele></trkpt><trkpt lat="49.508713972075" lon="-1.4396289114536"><ele>58.31</ele></trkpt><trkpt lat="49.508479960187" lon="-1.4399315367918"><ele>56.85</ele></trkpt><trkpt lat="49.508348947928" lon="-1.4401548976435"><ele>56.24</ele></trkpt><trkpt lat="49.508339130694" lon="-1.4401761457846"><ele>56.36</ele></trkpt><trkpt lat="49.508262226187" lon="-1.4403269129775"><ele>56.21</ele></trkpt><trkpt lat="49.508197940814" lon="-1.4404774313442"><ele>56.47</ele></trkpt><trkpt lat="49.508112755007" lon="-1.4406800136392"><ele>56.69</ele></trkpt><trkpt lat="49.507957686712" lon="-1.4410381415588"><ele>57.49</ele></trkpt><trkpt lat="49.507933038072" lon="-1.4410940179238"><ele>57.71</ele></trkpt><trkpt lat="49.507844365831" lon="-1.4412935182477"><ele>58.89</ele></trkpt><trkpt lat="49.50768505135" lon="-1.4415267756335"><ele>60.69</ele></trkpt><trkpt lat="49.507665942145" lon="-1.4415554864349"><ele>60.69</ele></trkpt><trkpt lat="49.50753048364" lon="-1.4417300289916"><ele>61.75</ele></trkpt><trkpt lat="49.507439162513" lon="-1.4418808778058"><ele>62.21</ele></trkpt><trkpt lat="49.507372862087" lon="-1.441989715844"><ele>62.31</ele></trkpt><trkpt lat="49.507258160849" lon="-1.4422103844864"><ele>63.01</ele></trkpt><trkpt lat="49.507131173518" lon="-1.4425405988989"><ele>64.75</ele></trkpt><trkpt lat="49.506931821457" lon="-1.4430441097541"><ele>66.03</ele></trkpt><trkpt lat="49.506788467559" lon="-1.4434018933276"><ele>66.11</ele></trkpt><trkpt lat="49.506695678223" lon="-1.4436383595411"><ele>65.81</ele></trkpt><trkpt lat="49.506494263106" lon="-1.4441485919657"><ele>63.64</ele></trkpt><trkpt lat="49.506455747326" lon="-1.4443553619562"><ele>62.92</ele></trkpt><trkpt lat="49.506454079946" lon="-1.4445170385717"><ele>62.33</ele></trkpt><trkpt lat="49.506442953003" lon="-1.4446197721218"><ele>62.08</ele></trkpt><trkpt lat="49.506431615512" lon="-1.4447280192172"><ele>61.8</ele></trkpt><trkpt lat="49.506295466775" lon="-1.4445193600405"><ele>62.4</ele></trkpt><trkpt lat="49.506255744721" lon="-1.4444037514198"><ele>62.68</ele></trkpt><trkpt lat="49.506144186331" lon="-1.4440935726544"><ele>63.53</ele></trkpt><trkpt lat="49.506129751823" lon="-1.4439525780168"><ele>63.91</ele></trkpt><trkpt lat="49.506129324309" lon="-1.4439165783079"><ele>64.01</ele></trkpt><trkpt lat="49.506129103851" lon="-1.4438515516228"><ele>64.09</ele></trkpt><trkpt lat="49.506126538413" lon="-1.4436355533868"><ele>63.89</ele></trkpt><trkpt lat="49.506117784055" lon="-1.4433456927647"><ele>63.63</ele></trkpt><trkpt lat="49.506110508657" lon="-1.4430642641183"><ele>64.07</ele></trkpt><trkpt lat="49.506103250364" lon="-1.4429004025704"><ele>64.02</ele></trkpt><trkpt lat="49.506094571877" lon="-1.442773757617"><ele>63.77</ele></trkpt><trkpt lat="49.506067204483" lon="-1.4426647950284"><ele>63.77</ele></trkpt><trkpt lat="49.506014019817" lon="-1.4425714904662"><ele>63.9</ele></trkpt><trkpt lat="49.505900897242" lon="-1.4424202354576"><ele>63.4</ele></trkpt><trkpt lat="49.505810909724" lon="-1.4423236206933"><ele>63.33</ele></trkpt><trkpt lat="49.505645780795" lon="-1.4421898183174"><ele>62.7</ele></trkpt><trkpt lat="49.505477008617" lon="-1.4420570722285"><ele>62.57</ele></trkpt><trkpt lat="49.505318639722" lon="-1.4419349445459"><ele>62.9</ele></trkpt><trkpt lat="49.505147121776" lon="-1.4418033363504"><ele>62.85</ele></trkpt><trkpt lat="49.505044623319" lon="-1.4417277283843"><ele>62.7</ele></trkpt><trkpt lat="49.504822345753" lon="-1.4414864416691"><ele>62.33</ele></trkpt><trkpt lat="49.504721003733" lon="-1.4413805110748"><ele>62.53</ele></trkpt><trkpt lat="49.504659480373" lon="-1.4413168883422"><ele>62.56</ele></trkpt><trkpt lat="49.504558134306" lon="-1.4411874457763"><ele>62.1</ele></trkpt><trkpt lat="49.504522799733" lon="-1.4411220295243"><ele>62.04</ele></trkpt><trkpt lat="49.5045002461" lon="-1.4410757427716"><ele>62.08</ele></trkpt><trkpt lat="49.504406017147" lon="-1.4405707453717"><ele>62.55</ele></trkpt><trkpt lat="49.504350562198" lon="-1.4401826481215"><ele>62.65</ele></trkpt><trkpt lat="49.504330632067" lon="-1.440043932189"><ele>62.77</ele></trkpt><trkpt lat="49.5042882677" lon="-1.4396431824825"><ele>63.33</ele></trkpt><trkpt lat="49.504254908099" lon="-1.4394078280506"><ele>63.01</ele></trkpt><trkpt lat="49.504242114066" lon="-1.4393181616179"><ele>62.92</ele></trkpt><trkpt lat="49.504185831532" lon="-1.4390461704859"><ele>62.92</ele></trkpt><trkpt lat="49.504152483812" lon="-1.4388813543695"><ele>62.89</ele></trkpt><trkpt lat="49.50411749384" lon="-1.438688729633"><ele>62.78</ele></trkpt><trkpt lat="49.504098096186" lon="-1.4385832564609"><ele>62.68</ele></trkpt><trkpt lat="49.504044290194" lon="-1.4382935099118"><ele>62.19</ele></trkpt><trkpt lat="49.504041592831" lon="-1.4382697554658"><ele>62.19</ele></trkpt><trkpt lat="49.504016987544" lon="-1.4379936983632"><ele>61.9</ele></trkpt><trkpt lat="49.50401159269" lon="-1.4379461895328"><ele>61.82</ele></trkpt><trkpt lat="49.503928805684" lon="-1.4371642382414"><ele>58.58</ele></trkpt><trkpt lat="49.503846409189" lon="-1.4362537012452"><ele>54.72</ele></trkpt><trkpt lat="49.503786724173" lon="-1.4359053430142"><ele>54.88</ele></trkpt><trkpt lat="49.503763886022" lon="-1.4357719018356"><ele>54.66</ele></trkpt><trkpt lat="49.503658784512" lon="-1.4351497717706"><ele>53.15</ele></trkpt><trkpt lat="49.503596240627" lon="-1.434781797141"><ele>52.89</ele></trkpt><trkpt lat="49.50353384247" lon="-1.4345991642292"><ele>52.14</ele></trkpt><trkpt lat="49.503465585604" lon="-1.4346649528993"><ele>51.79</ele></trkpt><trkpt lat="49.503281696894" lon="-1.4347397199687"><ele>51.11</ele></trkpt><trkpt lat="49.503069036588" lon="-1.4348367972411"><ele>50.29</ele></trkpt><trkpt lat="49.502936150097" lon="-1.4348967809568"><ele>50.26</ele></trkpt><trkpt lat="49.502816197907" lon="-1.4349482447658"><ele>50.2</ele></trkpt><trkpt lat="49.502509721445" lon="-1.4350963645396"><ele>49.36</ele></trkpt><trkpt lat="49.502343527626" lon="-1.4352031439462"><ele>49.3</ele></trkpt><trkpt lat="49.502231659046" lon="-1.4352788435044"><ele>49.41</ele></trkpt><trkpt lat="49.502183879638" lon="-1.4353035955092"><ele>49.49</ele></trkpt><trkpt lat="49.502155475522" lon="-1.4353162575507"><ele>49.58</ele></trkpt><trkpt lat="49.502132929724" lon="-1.4353169986913"><ele>49.58</ele></trkpt><trkpt lat="49.502083349971" lon="-1.4353180778836"><ele>49.6</ele></trkpt><trkpt lat="49.502015392482" lon="-1.4353050595479"><ele>49.25</ele></trkpt><trkpt lat="49.501805698915" lon="-1.4352060132156"><ele>49.49</ele></trkpt><trkpt lat="49.501799925192" lon="-1.435121132055"><ele>49.95</ele></trkpt><trkpt lat="49.501784688009" lon="-1.434740823494"><ele>53.4</ele></trkpt><trkpt lat="49.501773265866" lon="-1.4344258584784"><ele>54.85</ele></trkpt><trkpt lat="49.501770000585" lon="-1.4342277973912"><ele>55.79</ele></trkpt><trkpt lat="49.501763290024" lon="-1.4337417647802"><ele>57.1</ele></trkpt><trkpt lat="49.501754196165" lon="-1.4334602011696"><ele>57.56</ele></trkpt><trkpt lat="49.501748935026" lon="-1.4333145148446"><ele>57.96</ele></trkpt><trkpt lat="49.501706270551" lon="-1.4326371692137"><ele>58.95</ele></trkpt><trkpt lat="49.501695699237" lon="-1.4323706866372"><ele>59.77</ele></trkpt><trkpt lat="49.501686881551" lon="-1.4321527661739"><ele>59.92</ele></trkpt><trkpt lat="49.501676075581" lon="-1.4320107316833"><ele>59.81</ele></trkpt><trkpt lat="49.501646885778" lon="-1.4316181100112"><ele>59.68</ele></trkpt><trkpt lat="49.501582120952" lon="-1.4310715516623"><ele>59.75</ele></trkpt><trkpt lat="49.50148720504" lon="-1.4303231408923"><ele>59.03</ele></trkpt><trkpt lat="49.501370759737" lon="-1.4296433341629"><ele>56.58</ele></trkpt><trkpt lat="49.501354413834" lon="-1.4295284640263"><ele>56.66</ele></trkpt><trkpt lat="49.501292795905" lon="-1.4291357047783"><ele>54.69</ele></trkpt><trkpt lat="49.501270861875" lon="-1.4288599090675"><ele>53.62</ele></trkpt><trkpt lat="49.501268510402" lon="-1.4287559752659"><ele>53.61</ele></trkpt><trkpt lat="49.501268012949" lon="-1.4286743352953"><ele>53.36</ele></trkpt><trkpt lat="49.501265405624" lon="-1.4286008039645"><ele>53.08</ele></trkpt><trkpt lat="49.501265012909" lon="-1.4285164074584"><ele>52.76</ele></trkpt><trkpt lat="49.501264679016" lon="-1.4284541437831"><ele>52.67</ele></trkpt><trkpt lat="49.501264410445" lon="-1.4284375240383"><ele>52.67</ele></trkpt><trkpt lat="49.501263716031" lon="-1.4284084193626"><ele>52.68</ele></trkpt><trkpt lat="49.501264017612" lon="-1.4283531275352"><ele>52.71</ele></trkpt><trkpt lat="49.501259503474" lon="-1.4282586806951"><ele>52.31</ele></trkpt><trkpt lat="49.501257269332" lon="-1.4281990125974"><ele>52.36</ele></trkpt><trkpt lat="49.501248587921" lon="-1.4281194048255"><ele>52.4</ele></trkpt><trkpt lat="49.501229927616" lon="-1.4280416683005"><ele>52.3</ele></trkpt><trkpt lat="49.501200285949" lon="-1.4279684791246"><ele>52.29</ele></trkpt><trkpt lat="49.501170231477" lon="-1.4279298272447"><ele>52.64</ele></trkpt><trkpt lat="49.501127079344" lon="-1.4278803203219"><ele>52.81</ele></trkpt><trkpt lat="49.50110853688" lon="-1.4278468495957"><ele>52.73</ele></trkpt><trkpt lat="49.501077741973" lon="-1.4278039825822"><ele>52.75</ele></trkpt><trkpt lat="49.501045937985" lon="-1.4277402806788"><ele>52.81</ele></trkpt><trkpt lat="49.50102882386" lon="-1.4277166188724"><ele>52.81</ele></trkpt><trkpt lat="49.501018786001" lon="-1.4276963574301"><ele>52.9</ele></trkpt><trkpt lat="49.50099981756" lon="-1.4276504019883"><ele>52.94</ele></trkpt><trkpt lat="49.500988665776" lon="-1.4276120621834"><ele>53.07</ele></trkpt><trkpt lat="49.500990133314" lon="-1.4275734707812"><ele>53.13</ele></trkpt><trkpt lat="49.500905060773" lon="-1.4275368016932"><ele>53.37</ele></trkpt><trkpt lat="49.500811994328" lon="-1.4274261192966"><ele>53.31</ele></trkpt><trkpt lat="49.500700915923" lon="-1.4272916953445"><ele>53.9</ele></trkpt><trkpt lat="49.500376792998" lon="-1.426814564949"><ele>55.86</ele></trkpt><trkpt lat="49.499967955011" lon="-1.4262676163987"><ele>58.66</ele></trkpt><trkpt lat="49.499912385491" lon="-1.4261893406851"><ele>58.99</ele></trkpt><trkpt lat="49.499631582212" lon="-1.425804614577"><ele>61.11</ele></trkpt><trkpt lat="49.499468620259" lon="-1.4255659781949"><ele>61.46</ele></trkpt><trkpt lat="49.499401366825" lon="-1.4254396379833"><ele>61.56</ele></trkpt><trkpt lat="49.499351654044" lon="-1.4253494427005"><ele>61.73</ele></trkpt><trkpt lat="49.499259828454" lon="-1.4251586703575"><ele>62.01</ele></trkpt><trkpt lat="49.499186433933" lon="-1.4249806133778"><ele>61.87</ele></trkpt><trkpt lat="49.499095933497" lon="-1.4246364584349"><ele>62.18</ele></trkpt><trkpt lat="49.49897402313" lon="-1.424147052051"><ele>62.12</ele></trkpt><trkpt lat="49.498885577343" lon="-1.4237961698698"><ele>62.67</ele></trkpt><trkpt lat="49.498824366271" lon="-1.4235818694341"><ele>62.9</ele></trkpt><trkpt lat="49.498753228392" lon="-1.4233680633906"><ele>62.73</ele></trkpt><trkpt lat="49.498665880221" lon="-1.4231541891292"><ele>63.13</ele></trkpt><trkpt lat="49.498456518291" lon="-1.4226431312556"><ele>63.8</ele></trkpt><trkpt lat="49.498296121078" lon="-1.4221945430967"><ele>64.24</ele></trkpt><trkpt lat="49.498179214359" lon="-1.4218577161663"><ele>65.15</ele></trkpt><trkpt lat="49.498068396501" lon="-1.421573985268"><ele>65.9</ele></trkpt><trkpt lat="49.498040127306" lon="-1.4215119908781"><ele>65.91</ele></trkpt><trkpt lat="49.497937882149" lon="-1.4212871096247"><ele>65.94</ele></trkpt><trkpt lat="49.497773337417" lon="-1.4209238974984"><ele>65.54</ele></trkpt><trkpt lat="49.497594368872" lon="-1.4205372711383"><ele>65.29</ele></trkpt><trkpt lat="49.497501062119" lon="-1.420361594097"><ele>65.08</ele></trkpt><trkpt lat="49.497347161851" lon="-1.4200975236968"><ele>64.17</ele></trkpt><trkpt lat="49.497229191296" lon="-1.4199071956157"><ele>63.42</ele></trkpt><trkpt lat="49.49702990395" lon="-1.4195574789722"><ele>61.46</ele></trkpt><trkpt lat="49.496937859551" lon="-1.4193722389841"><ele>60.53</ele></trkpt><trkpt lat="49.496905040335" lon="-1.4192877148119"><ele>59.88</ele></trkpt><trkpt lat="49.496815035649" lon="-1.4190487276707"><ele>58.66</ele></trkpt><trkpt lat="49.496652375353" lon="-1.4186594266427"><ele>57.24</ele></trkpt><trkpt lat="49.496556975017" lon="-1.4183964511961"><ele>56.46</ele></trkpt><trkpt lat="49.496517802253" lon="-1.4182657266912"><ele>55.9</ele></trkpt><trkpt lat="49.496462297741" lon="-1.4180906738741"><ele>55.52</ele></trkpt><trkpt lat="49.4963268078" lon="-1.4176498791938"><ele>54.44</ele></trkpt><trkpt lat="49.496163646032" lon="-1.4172024638582"><ele>51.69</ele></trkpt><trkpt lat="49.496029617245" lon="-1.4168655162167"><ele>50.47</ele></trkpt><trkpt lat="49.495896851093" lon="-1.4165190037292"><ele>49.54</ele></trkpt><trkpt lat="49.495772171659" lon="-1.4161967239252"><ele>48.69</ele></trkpt><trkpt lat="49.495600568572" lon="-1.4157817514314"><ele>47.53</ele></trkpt><trkpt lat="49.495491435656" lon="-1.4155244740421"><ele>47.42</ele></trkpt><trkpt lat="49.495412013234" lon="-1.4153625009321"><ele>46.83</ele></trkpt><trkpt lat="49.495306758734" lon="-1.4151691806077"><ele>46.4</ele></trkpt><trkpt lat="49.495172081407" lon="-1.4149441926271"><ele>46.56</ele></trkpt><trkpt lat="49.495029168028" lon="-1.4147226181202"><ele>46.82</ele></trkpt><trkpt lat="49.494850790762" lon="-1.4144149086763"><ele>47.58</ele></trkpt><trkpt lat="49.494713827702" lon="-1.4141551513466"><ele>48.65</ele></trkpt><trkpt lat="49.494590851287" lon="-1.4138828176947"><ele>49.34</ele></trkpt><trkpt lat="49.494471488693" lon="-1.4135389045388"><ele>50.89</ele></trkpt><trkpt lat="49.494361381846" lon="-1.4132359202325"><ele>52.56</ele></trkpt><trkpt lat="49.49428621637" lon="-1.4130328523156"><ele>53.5</ele></trkpt><trkpt lat="49.494185750029" lon="-1.4128081660593"><ele>53.59</ele></trkpt><trkpt lat="49.494072882519" lon="-1.4126017314495"><ele>54.24</ele></trkpt><trkpt lat="49.493922346171" lon="-1.4123435365904"><ele>55.36</ele></trkpt><trkpt lat="49.493807359401" lon="-1.4121217047056"><ele>55.54</ele></trkpt><trkpt lat="49.493758524102" lon="-1.4120081056685"><ele>55.55</ele></trkpt><trkpt lat="49.49371432382" lon="-1.4118672660059"><ele>55.31</ele></trkpt><trkpt lat="49.493652476836" lon="-1.4115741316797"><ele>55.34</ele></trkpt><trkpt lat="49.49353265458" lon="-1.4109093951655"><ele>56.77</ele></trkpt><trkpt lat="49.493397767146" lon="-1.4102142797139"><ele>56.92</ele></trkpt><trkpt lat="49.493252177276" lon="-1.4094449284397"><ele>58.32</ele></trkpt><trkpt lat="49.493165848031" lon="-1.4089657126549"><ele>59.11</ele></trkpt><trkpt lat="49.493150201955" lon="-1.4088080682583"><ele>59.44</ele></trkpt><trkpt lat="49.493141329727" lon="-1.4085666824312"><ele>59.57</ele></trkpt><trkpt lat="49.493144094908" lon="-1.4082558164488"><ele>59.77</ele></trkpt><trkpt lat="49.493127560103" lon="-1.4080026852587"><ele>60.04</ele></trkpt><trkpt lat="49.49312564985" lon="-1.4079817739493"><ele>60.04</ele></trkpt><trkpt lat="49.493124511693" lon="-1.407916684426"><ele>60.04</ele></trkpt><trkpt lat="49.493129604894" lon="-1.4078535337013"><ele>60.06</ele></trkpt><trkpt lat="49.493154801047" lon="-1.4077589915224"><ele>60.11</ele></trkpt><trkpt lat="49.493199526136" lon="-1.4076482164781"><ele>60.22</ele></trkpt><trkpt lat="49.493229199712" lon="-1.4075305672792"><ele>60.27</ele></trkpt><trkpt lat="49.49325896681" lon="-1.4073866545081"><ele>60.3</ele></trkpt><trkpt lat="49.493326548707" lon="-1.4071479419815"><ele>60.75</ele></trkpt><trkpt lat="49.493386187959" lon="-1.406976273919"><ele>60.86</ele></trkpt><trkpt lat="49.493425861" lon="-1.4069037634145"><ele>60.79</ele></trkpt><trkpt lat="49.493484593393" lon="-1.4068274222963"><ele>60.74</ele></trkpt><trkpt lat="49.493569357695" lon="-1.4067534034595"><ele>60.62</ele></trkpt><trkpt lat="49.493792108548" lon="-1.4066031994709"><ele>60.36</ele></trkpt><trkpt lat="49.49399864926" lon="-1.4064529307772"><ele>59.99</ele></trkpt><trkpt lat="49.494117263351" lon="-1.4063888440095"><ele>59.68</ele></trkpt><trkpt lat="49.494186319629" lon="-1.4063728804854"><ele>59.53</ele></trkpt><trkpt lat="49.494257234286" lon="-1.4063792067402"><ele>59.22</ele></trkpt><trkpt lat="49.494324141034" lon="-1.4063962375032"><ele>58.5</ele></trkpt><trkpt lat="49.494399983055" lon="-1.4064389550495"><ele>57.46</ele></trkpt><trkpt lat="49.494513485241" lon="-1.4065099221456"><ele>57.1</ele></trkpt><trkpt lat="49.494677225547" lon="-1.4066337682906"><ele>56.52</ele></trkpt><trkpt lat="49.494768442762" lon="-1.4066985997418"><ele>56.41</ele></trkpt><trkpt lat="49.494873531227" lon="-1.4067300997558"><ele>56.15</ele></trkpt><trkpt lat="49.494919676711" lon="-1.4067245373584"><ele>56.09</ele></trkpt><trkpt lat="49.494990517477" lon="-1.4066852261035"><ele>56.16</ele></trkpt><trkpt lat="49.495171558774" lon="-1.406542358641"><ele>57</ele></trkpt><trkpt lat="49.495475888954" lon="-1.406283272663"><ele>59.77</ele></trkpt><trkpt lat="49.495794037446" lon="-1.4059922291338"><ele>61.98</ele></trkpt><trkpt lat="49.495891640088" lon="-1.4059359442542"><ele>62.55</ele></trkpt><trkpt lat="49.495942430255" lon="-1.4059266469307"><ele>63.1</ele></trkpt><trkpt lat="49.496126699033" lon="-1.4059126627093"><ele>64.08</ele></trkpt><trkpt lat="49.496380411064" lon="-1.4059200839032"><ele>65.25</ele></trkpt><trkpt lat="49.496392080561" lon="-1.4059211248706"><ele>65.25</ele></trkpt><trkpt lat="49.496541884389" lon="-1.4059372536677"><ele>65.71</ele></trkpt><trkpt lat="49.496661000523" lon="-1.4059312855894"><ele>65.99</ele></trkpt><trkpt lat="49.496804279125" lon="-1.4058818397312"><ele>66.63</ele></trkpt><trkpt lat="49.496961845948" lon="-1.4057880348403"><ele>67.19</ele></trkpt><trkpt lat="49.497177455173" lon="-1.4056122882985"><ele>67.9</ele></trkpt><trkpt lat="49.497411192462" lon="-1.4053621010249"><ele>69.12</ele></trkpt><trkpt lat="49.497644750416" lon="-1.4050690272205"><ele>70.16</ele></trkpt><trkpt lat="49.498075094106" lon="-1.4045501179515"><ele>71.88</ele></trkpt><trkpt lat="49.498248500325" lon="-1.404347090073"><ele>72.71</ele></trkpt><trkpt lat="49.498359104456" lon="-1.4042089867393"><ele>73.2</ele></trkpt><trkpt lat="49.498430442915" lon="-1.4041088674707"><ele>73.44</ele></trkpt><trkpt lat="49.498487001753" lon="-1.40401849298"><ele>73.72</ele></trkpt><trkpt lat="49.498564444407" lon="-1.4038760485099"><ele>73.99</ele></trkpt><trkpt lat="49.498674845767" lon="-1.4036480384568"><ele>74.41</ele></trkpt><trkpt lat="49.498739929309" lon="-1.4034989594755"><ele>74.69</ele></trkpt><trkpt lat="49.498805910313" lon="-1.4033499601334"><ele>74.89</ele></trkpt><trkpt lat="49.498844839748" lon="-1.4032732240501"><ele>75.13</ele></trkpt><trkpt lat="49.498891170415" lon="-1.4032151251187"><ele>75.15</ele></trkpt><trkpt lat="49.498926845002" lon="-1.403176819257"><ele>75.21</ele></trkpt><trkpt lat="49.499002172753" lon="-1.4031378998738"><ele>75.33</ele></trkpt><trkpt lat="49.499111298632" lon="-1.4031102908482"><ele>75.4</ele></trkpt><trkpt lat="49.499270733707" lon="-1.403062274854"><ele>75.35</ele></trkpt><trkpt lat="49.499605437232" lon="-1.4029524416084"><ele>75.99</ele></trkpt><trkpt lat="49.499912573919" lon="-1.4028332348218"><ele>76.42</ele></trkpt><trkpt lat="49.500293086356" lon="-1.4026790802184"><ele>76.65</ele></trkpt><trkpt lat="49.500385793712" lon="-1.4026569204411"><ele>76.92</ele></trkpt><trkpt lat="49.500423755792" lon="-1.4026533899776"><ele>77.09</ele></trkpt><trkpt lat="49.500500369138" lon="-1.4026519221644"><ele>77.61</ele></trkpt><trkpt lat="49.500547047177" lon="-1.4026560832984"><ele>77.76</ele></trkpt><trkpt lat="49.500597211599" lon="-1.4026633210879"><ele>77.75</ele></trkpt><trkpt lat="49.500644318235" lon="-1.4026799667928"><ele>77.81</ele></trkpt><trkpt lat="49.500721684531" lon="-1.4027062247242"><ele>78.19</ele></trkpt><trkpt lat="49.500806492647" lon="-1.4027262314995"><ele>78.51</ele></trkpt><trkpt lat="49.500843348598" lon="-1.402728134182"><ele>78.63</ele></trkpt><trkpt lat="49.500884003638" lon="-1.4027248438115"><ele>78.75</ele></trkpt><trkpt lat="49.500932152621" lon="-1.4027139238908"><ele>78.87</ele></trkpt><trkpt lat="49.501167876402" lon="-1.4026491957609"><ele>79.65</ele></trkpt><trkpt lat="49.501257942879" lon="-1.4026254171698"><ele>79.85</ele></trkpt><trkpt lat="49.501570372451" lon="-1.4025329523475"><ele>80.8</ele></trkpt><trkpt lat="49.501864484029" lon="-1.4024485341621"><ele>81.7</ele></trkpt><trkpt lat="49.501879107072" lon="-1.4024429229077"><ele>81.7</ele></trkpt><trkpt lat="49.502183990406" lon="-1.4023594638892"><ele>82.78</ele></trkpt><trkpt lat="49.502827751685" lon="-1.4021748282619"><ele>83.99</ele></trkpt><trkpt lat="49.503021922373" lon="-1.4021133060849"><ele>84.21</ele></trkpt><trkpt lat="49.503325855594" lon="-1.402031141446"><ele>84.26</ele></trkpt><trkpt lat="49.50345255758" lon="-1.4019912642422"><ele>84.51</ele></trkpt><trkpt lat="49.503462014901" lon="-1.4020031712849"><ele>84.49</ele></trkpt><trkpt lat="49.503491284512" lon="-1.4020389724557"><ele>84.49</ele></trkpt><trkpt lat="49.503716024081" lon="-1.4022885855519"><ele>84.35</ele></trkpt><trkpt lat="49.504020347817" lon="-1.4026725338336"><ele>83.19</ele></trkpt><trkpt lat="49.504171611546" lon="-1.4028644297155"><ele>82.42</ele></trkpt><trkpt lat="49.504328260871" lon="-1.4030568069832"><ele>81.66</ele></trkpt><trkpt lat="49.504402279577" lon="-1.4031477715398"><ele>81.45</ele></trkpt><trkpt lat="49.50460795749" lon="-1.4034012269591"><ele>80.83</ele></trkpt><trkpt lat="49.504735284658" lon="-1.4035591830065"><ele>80.41</ele></trkpt><trkpt lat="49.504829804044" lon="-1.4036796381237"><ele>80.08</ele></trkpt><trkpt lat="49.505154936868" lon="-1.4040848226108"><ele>78.79</ele></trkpt><trkpt lat="49.505178130795" lon="-1.4041145522244"><ele>78.65</ele></trkpt><trkpt lat="49.50539600872" lon="-1.4043787853771"><ele>77.7</ele></trkpt><trkpt lat="49.505422688902" lon="-1.4044115923449"><ele>77.57</ele></trkpt><trkpt lat="49.505468335341" lon="-1.4044668369247"><ele>77.29</ele></trkpt><trkpt lat="49.505503627043" lon="-1.4045100935242"><ele>77.18</ele></trkpt><trkpt lat="49.505640305431" lon="-1.4046827202052"><ele>76.61</ele></trkpt><trkpt lat="49.505814278989" lon="-1.4048932514383"><ele>76.84</ele></trkpt><trkpt lat="49.505872868522" lon="-1.4049634822269"><ele>76.96</ele></trkpt><trkpt lat="49.505904621575" lon="-1.4050050408167"><ele>77</ele></trkpt><trkpt lat="49.505923014133" lon="-1.4050426414985"><ele>76.99</ele></trkpt><trkpt lat="49.505945425623" lon="-1.4050930484186"><ele>76.96</ele></trkpt><trkpt lat="49.506019036671" lon="-1.4052185597831"><ele>77.08</ele></trkpt><trkpt lat="49.506083004249" lon="-1.4053847037016"><ele>77.11</ele></trkpt><trkpt lat="49.50618095908" lon="-1.4056285668262"><ele>77.4</ele></trkpt><trkpt lat="49.506247920914" lon="-1.4057631680131"><ele>77.61</ele></trkpt><trkpt lat="49.506336791295" lon="-1.4058900426726"><ele>77.79</ele></trkpt><trkpt lat="49.506444836121" lon="-1.4060338426542"><ele>78.13</ele></trkpt><trkpt lat="49.506652887612" lon="-1.4062958315144"><ele>78.94</ele></trkpt><trkpt lat="49.50688064551" lon="-1.4065844770638"><ele>79.79</ele></trkpt><trkpt lat="49.506894381946" lon="-1.4066023001341"><ele>79.88</ele></trkpt><trkpt lat="49.507003271359" lon="-1.4067475618551"><ele>80.36</ele></trkpt><trkpt lat="49.507329395277" lon="-1.4071501075222"><ele>81.41</ele></trkpt><trkpt lat="49.507448847096" lon="-1.4073018469992"><ele>81.71</ele></trkpt><trkpt lat="49.507490901537" lon="-1.407356776038"><ele>81.85</ele></trkpt><trkpt lat="49.507555407884" lon="-1.4074372222484"><ele>82.09</ele></trkpt><trkpt lat="49.507722299518" lon="-1.4076443733915"><ele>82.84</ele></trkpt><trkpt lat="49.507865997821" lon="-1.407821792936"><ele>83.62</ele></trkpt><trkpt lat="49.507938269604" lon="-1.4079112323991"><ele>84.21</ele></trkpt><trkpt lat="49.508242783134" lon="-1.408289734138"><ele>87.19</ele></trkpt><trkpt lat="49.508386480431" lon="-1.4084671574264"><ele>88.38</ele></trkpt><trkpt lat="49.50870773428" lon="-1.40885545982"><ele>90</ele></trkpt><trkpt lat="49.508830450881" lon="-1.4089922845714"><ele>90.67</ele></trkpt><trkpt lat="49.508857234119" lon="-1.4090223393016"><ele>90.7</ele></trkpt><trkpt lat="49.509130232847" lon="-1.40930536854"><ele>91.4</ele></trkpt><trkpt lat="49.509173653735" lon="-1.4093479747025"><ele>91.4</ele></trkpt><trkpt lat="49.509479613842" lon="-1.4096643811866"><ele>91.83</ele></trkpt><trkpt lat="49.50948653402" lon="-1.4096719150967"><ele>91.83</ele></trkpt><trkpt lat="49.509694034702" lon="-1.4099006904331"><ele>92.64</ele></trkpt><trkpt lat="49.509706027528" lon="-1.4099169765761"><ele>92.64</ele></trkpt><trkpt lat="49.509786491067" lon="-1.4100279020583"><ele>93.13</ele></trkpt><trkpt lat="49.509859825529" lon="-1.4101368079888"><ele>93.65</ele></trkpt><trkpt lat="49.509878529643" lon="-1.4101661424046"><ele>93.71</ele></trkpt><trkpt lat="49.510007934085" lon="-1.4103879461675"><ele>94.76</ele></trkpt><trkpt lat="49.510250407381" lon="-1.4107872187066"><ele>95.97</ele></trkpt><trkpt lat="49.510308157852" lon="-1.4108795194536"><ele>96.06</ele></trkpt><trkpt lat="49.510439773944" lon="-1.4110904590318"><ele>96.9</ele></trkpt><trkpt lat="49.510537259265" lon="-1.4112513213057"><ele>97.35</ele></trkpt><trkpt lat="49.510822460819" lon="-1.4116876175754"><ele>97.92</ele></trkpt><trkpt lat="49.511060336916" lon="-1.4120892591409"><ele>98.3</ele></trkpt><trkpt lat="49.511094946746" lon="-1.412150447388"><ele>98.13</ele></trkpt><trkpt lat="49.511224033969" lon="-1.4123805331986"><ele>97.76</ele></trkpt><trkpt lat="49.51129827352" lon="-1.4125130418745"><ele>97.53</ele></trkpt><trkpt lat="49.511503779302" lon="-1.4129131817185"><ele>96.56</ele></trkpt><trkpt lat="49.511566714545" lon="-1.4130349989524"><ele>96.21</ele></trkpt><trkpt lat="49.511684923789" lon="-1.4132668836336"><ele>95.88</ele></trkpt><trkpt lat="49.511853386234" lon="-1.4135987058205"><ele>95.54</ele></trkpt><trkpt lat="49.511999834029" lon="-1.4139410116576"><ele>95.23</ele></trkpt><trkpt lat="49.512068861395" lon="-1.4141159399809"><ele>95.46</ele></trkpt><trkpt lat="49.512166902278" lon="-1.4143570927567"><ele>95.5</ele></trkpt><trkpt lat="49.512209556006" lon="-1.4144674174499"><ele>95.6</ele></trkpt><trkpt lat="49.512351469966" lon="-1.4148342219851"><ele>95.37</ele></trkpt><trkpt lat="49.512577268188" lon="-1.4154353868474"><ele>95.28</ele></trkpt><trkpt lat="49.512630353869" lon="-1.4156268764184"><ele>95.25</ele></trkpt><trkpt lat="49.51264194579" lon="-1.4157012267535"><ele>95.1</ele></trkpt><trkpt lat="49.512655280675" lon="-1.415777116285"><ele>95.13</ele></trkpt><trkpt lat="49.512664659031" lon="-1.4158623349492"><ele>95.24</ele></trkpt><trkpt lat="49.512668808297" lon="-1.4159429361414"><ele>95.4</ele></trkpt><trkpt lat="49.51267387307" lon="-1.4160706506819"><ele>95.49</ele></trkpt><trkpt lat="49.512680523879" lon="-1.4162040402332"><ele>95.41</ele></trkpt><trkpt lat="49.512685091132" lon="-1.4162736126604"><ele>95.45</ele></trkpt><trkpt lat="49.512695777162" lon="-1.4164668442206"><ele>95.4</ele></trkpt><trkpt lat="49.51270403136" lon="-1.4166529419639"><ele>95.4</ele></trkpt><trkpt lat="49.512712703538" lon="-1.4168280109482"><ele>95.37</ele></trkpt><trkpt lat="49.512744017221" lon="-1.4172610124884"><ele>94.59</ele></trkpt><trkpt lat="49.512750074081" lon="-1.4173625338996"><ele>94.6</ele></trkpt><trkpt lat="49.512755215851" lon="-1.4174169418966"><ele>94.75</ele></trkpt><trkpt lat="49.51278521197" lon="-1.4177184146184"><ele>94.08</ele></trkpt><trkpt lat="49.512818953765" lon="-1.4181585513482"><ele>92.74</ele></trkpt><trkpt lat="49.512838108336" lon="-1.4182709281328"><ele>92.25</ele></trkpt><trkpt lat="49.512851441548" lon="-1.4183468186587"><ele>91.79</ele></trkpt><trkpt lat="49.512876400207" lon="-1.4184486487192"><ele>91.51</ele></trkpt><trkpt lat="49.512922753676" lon="-1.41858005928"><ele>91.1</ele></trkpt><trkpt lat="49.512981542281" lon="-1.4187872805981"><ele>90.25</ele></trkpt><trkpt lat="49.513004339112" lon="-1.4188986007355"><ele>90.11</ele></trkpt><trkpt lat="49.513015188235" lon="-1.4189687362354"><ele>89.84</ele></trkpt><trkpt lat="49.513021078321" lon="-1.4190508775484"><ele>89.5</ele></trkpt><trkpt lat="49.513021425576" lon="-1.4191366726595"><ele>89.27</ele></trkpt><trkpt lat="49.513019454359" lon="-1.4192360931727"><ele>89.41</ele></trkpt><trkpt lat="49.513014467954" lon="-1.4193200276057"><ele>89.45</ele></trkpt><trkpt lat="49.513009811942" lon="-1.4194427237438"><ele>88.99</ele></trkpt><trkpt lat="49.513004475678" lon="-1.4195833417614"><ele>88.6</ele></trkpt><trkpt lat="49.513002991396" lon="-1.4197173881181"><ele>88.26</ele></trkpt><trkpt lat="49.513002677483" lon="-1.4197256597642"><ele>88.25</ele></trkpt><trkpt lat="49.513005185758" lon="-1.4198019653018"><ele>88.28</ele></trkpt><trkpt lat="49.513009968335" lon="-1.4198895407733"><ele>88.17</ele></trkpt><trkpt lat="49.513012971895" lon="-1.4200239889231"><ele>87.91</ele></trkpt><trkpt lat="49.513009953448" lon="-1.4201509815328"><ele>87.61</ele></trkpt><trkpt lat="49.513009534857" lon="-1.4201620103921"><ele>87.45</ele></trkpt><trkpt lat="49.513009470802" lon="-1.4202823510351"><ele>87.11</ele></trkpt><trkpt lat="49.513010251936" lon="-1.4204041506493"><ele>86.73</ele></trkpt><trkpt lat="49.513021534906" lon="-1.4205102910117"><ele>85.09</ele></trkpt><trkpt lat="49.513044322051" lon="-1.4205980953314"><ele>84.9</ele></trkpt><trkpt lat="49.513079362088" lon="-1.4206952965592"><ele>84.21</ele></trkpt><trkpt lat="49.51310145277" lon="-1.4207539895288"><ele>84.08</ele></trkpt><trkpt lat="49.513119316889" lon="-1.4208053876423"><ele>83.29</ele></trkpt><trkpt lat="49.513168883944" lon="-1.4209232560716"><ele>82.61</ele></trkpt><trkpt lat="49.513186216684" lon="-1.4209649236612"><ele>82.42</ele></trkpt><trkpt lat="49.513375941609" lon="-1.421471601028"><ele>79.77</ele></trkpt><trkpt lat="49.513612021535" lon="-1.4221332149602"><ele>76.85</ele></trkpt><trkpt lat="49.513624970349" lon="-1.4221717241151"><ele>76.44</ele></trkpt><trkpt lat="49.513736960911" lon="-1.4224957669907"><ele>75.08</ele></trkpt><trkpt lat="49.513740184998" lon="-1.422505738982"><ele>75.08</ele></trkpt><trkpt lat="49.513827144586" lon="-1.4226587764893"><ele>73.77</ele></trkpt><trkpt lat="49.513998736741" lon="-1.4229549614577"><ele>71.29</ele></trkpt><trkpt lat="49.514000322586" lon="-1.4229606368106"><ele>71.29</ele></trkpt><trkpt lat="49.514119604017" lon="-1.4231400880912"><ele>69.49</ele></trkpt><trkpt lat="49.514231928503" lon="-1.4233604168665"><ele>67.67</ele></trkpt><trkpt lat="49.51427579296" lon="-1.4234860798128"><ele>67.08</ele></trkpt><trkpt lat="49.514432519878" lon="-1.4236993218294"><ele>65.56</ele></trkpt><trkpt lat="49.514586875074" lon="-1.4239275694587"><ele>63.73</ele></trkpt><trkpt lat="49.51473403407" lon="-1.4241081400176"><ele>62.64</ele></trkpt><trkpt lat="49.514793561861" lon="-1.4241771080368"><ele>62.07</ele></trkpt><trkpt lat="49.514906386241" lon="-1.4243131028483"><ele>61.36</ele></trkpt><trkpt lat="49.515003098128" lon="-1.4244227540483"><ele>60.44</ele></trkpt><trkpt lat="49.515279394772" lon="-1.4247366364123"><ele>58.37</ele></trkpt><trkpt lat="49.515306226272" lon="-1.4247653249278"><ele>58.13</ele></trkpt><trkpt lat="49.515553266694" lon="-1.4250669054577"><ele>56.39</ele></trkpt><trkpt lat="49.515747324614" lon="-1.4252931879558"><ele>55.14</ele></trkpt><trkpt lat="49.515787044255" lon="-1.4253382493913"><ele>54.87</ele></trkpt><trkpt lat="49.515900502945" lon="-1.4254812234599"><ele>54.05</ele></trkpt><trkpt lat="49.515958556001" lon="-1.4255652798211"><ele>53.63</ele></trkpt><trkpt lat="49.516024216203" lon="-1.4256624687314"><ele>53.36</ele></trkpt><trkpt lat="49.516155064839" lon="-1.4258692555286"><ele>52.57</ele></trkpt><trkpt lat="49.516310687025" lon="-1.4261114657668"><ele>51.98</ele></trkpt><trkpt lat="49.516493199064" lon="-1.4264045072588"><ele>51.47</ele></trkpt><trkpt lat="49.516556853693" lon="-1.426507052172"><ele>51.37</ele></trkpt><trkpt lat="49.51662341073" lon="-1.4266043239927"><ele>51.35</ele></trkpt><trkpt lat="49.516683048625" lon="-1.4266940586831"><ele>51.13</ele></trkpt><trkpt lat="49.516774431609" lon="-1.4268253753357"><ele>51.11</ele></trkpt><trkpt lat="49.516800260143" lon="-1.4268567427773"><ele>51</ele></trkpt><trkpt lat="49.516869031383" lon="-1.4269431468643"><ele>50.91</ele></trkpt><trkpt lat="49.516958926507" lon="-1.4270425126606"><ele>50.9</ele></trkpt><trkpt lat="49.516983116932" lon="-1.4270695832161"><ele>50.84</ele></trkpt><trkpt lat="49.517028962083" lon="-1.4271193467916"><ele>50.81</ele></trkpt><trkpt lat="49.517114630924" lon="-1.4272114171837"><ele>50.74</ele></trkpt><trkpt lat="49.517191166139" lon="-1.4273068190798"><ele>50.68</ele></trkpt><trkpt lat="49.517260946159" lon="-1.4274140662476"><ele>50.73</ele></trkpt><trkpt lat="49.517303947685" lon="-1.4274912438119"><ele>50.62</ele></trkpt><trkpt lat="49.517330785134" lon="-1.4275434537408"><ele>50.44</ele></trkpt><trkpt lat="49.517387683604" lon="-1.4276578468319"><ele>50.38</ele></trkpt><trkpt lat="49.51741790846" lon="-1.4277394126303"><ele>50.36</ele></trkpt><trkpt lat="49.517387683604" lon="-1.4276578468319"><ele>50.38</ele></trkpt><trkpt lat="49.517330785134" lon="-1.4275434537408"><ele>50.44</ele></trkpt><trkpt lat="49.517303947685" lon="-1.4274912438119"><ele>50.62</ele></trkpt><trkpt lat="49.517260946159" lon="-1.4274140662476"><ele>50.73</ele></trkpt><trkpt lat="49.517191166139" lon="-1.4273068190798"><ele>50.68</ele></trkpt><trkpt lat="49.517114630924" lon="-1.4272114171837"><ele>50.74</ele></trkpt><trkpt lat="49.517028962083" lon="-1.4271193467916"><ele>50.81</ele></trkpt><trkpt lat="49.516983116932" lon="-1.4270695832161"><ele>50.84</ele></trkpt><trkpt lat="49.516958926507" lon="-1.4270425126606"><ele>50.9</ele></trkpt><trkpt lat="49.516869031383" lon="-1.4269431468643"><ele>50.91</ele></trkpt><trkpt lat="49.516800260143" lon="-1.4268567427773"><ele>51</ele></trkpt><trkpt lat="49.516774431609" lon="-1.4268253753357"><ele>51.11</ele></trkpt><trkpt lat="49.516683048625" lon="-1.4266940586831"><ele>51.13</ele></trkpt><trkpt lat="49.51662341073" lon="-1.4266043239927"><ele>51.35</ele></trkpt><trkpt lat="49.516556853693" lon="-1.426507052172"><ele>51.37</ele></trkpt><trkpt lat="49.516493199064" lon="-1.4264045072588"><ele>51.47</ele></trkpt><trkpt lat="49.516310687025" lon="-1.4261114657668"><ele>51.98</ele></trkpt><trkpt lat="49.516155064839" lon="-1.4258692555286"><ele>52.57</ele></trkpt><trkpt lat="49.516024216203" lon="-1.4256624687314"><ele>53.36</ele></trkpt><trkpt lat="49.515958556001" lon="-1.4255652798211"><ele>53.63</ele></trkpt><trkpt lat="49.515900502945" lon="-1.4254812234599"><ele>54.05</ele></trkpt><trkpt lat="49.515787044255" lon="-1.4253382493913"><ele>54.87</ele></trkpt><trkpt lat="49.515747324614" lon="-1.4252931879558"><ele>55.14</ele></trkpt><trkpt lat="49.515553266694" lon="-1.4250669054577"><ele>56.39</ele></trkpt><trkpt lat="49.515306226272" lon="-1.4247653249278"><ele>58.13</ele></trkpt><trkpt lat="49.515279394772" lon="-1.4247366364123"><ele>58.37</ele></trkpt><trkpt lat="49.515003098128" lon="-1.4244227540483"><ele>60.44</ele></trkpt><trkpt lat="49.514906386241" lon="-1.4243131028483"><ele>61.36</ele></trkpt><trkpt lat="49.514793561861" lon="-1.4241771080368"><ele>62.07</ele></trkpt><trkpt lat="49.51473403407" lon="-1.4241081400176"><ele>62.64</ele></trkpt><trkpt lat="49.514586875074" lon="-1.4239275694587"><ele>63.73</ele></trkpt><trkpt lat="49.514432519878" lon="-1.4236993218294"><ele>65.56</ele></trkpt><trkpt lat="49.51427579296" lon="-1.4234860798128"><ele>67.08</ele></trkpt><trkpt lat="49.514163423662" lon="-1.4236226449925"><ele>67.78</ele></trkpt><trkpt lat="49.513940218006" lon="-1.4239028274948"><ele>68.65</ele></trkpt><trkpt lat="49.513760921468" lon="-1.4241177762354"><ele>68.99</ele></trkpt><trkpt lat="49.513660003881" lon="-1.424237381705"><ele>69.18</ele></trkpt><trkpt lat="49.513297235217" lon="-1.4246585988877"><ele>69.39</ele></trkpt><trkpt lat="49.513216214977" lon="-1.4247523192924"><ele>69.6</ele></trkpt><trkpt lat="49.513026990459" lon="-1.4249677554864"><ele>70.25</ele></trkpt><trkpt lat="49.513016592659" lon="-1.4249806565917"><ele>70.56</ele></trkpt><trkpt lat="49.512870118545" lon="-1.4251376744256"><ele>71.2</ele></trkpt><trkpt lat="49.512734887299" lon="-1.4252832494129"><ele>72.11</ele></trkpt><trkpt lat="49.512545011947" lon="-1.4254446751455"><ele>72.95</ele></trkpt><trkpt lat="49.512438693054" lon="-1.4255167593913"><ele>73.11</ele></trkpt><trkpt lat="49.512350903089" lon="-1.4255752880598"><ele>73.21</ele></trkpt><trkpt lat="49.512190471066" lon="-1.4256729534376"><ele>73.1</ele></trkpt><trkpt lat="49.511995240736" lon="-1.4257619659424"><ele>72.72</ele></trkpt><trkpt lat="49.511917527193" lon="-1.4257923482699"><ele>72.7</ele></trkpt><trkpt lat="49.511817694092" lon="-1.4258359636919"><ele>72.61</ele></trkpt><trkpt lat="49.511651233365" lon="-1.4259026550748"><ele>72.54</ele></trkpt><trkpt lat="49.511528435405" lon="-1.4259580440739"><ele>72.43</ele></trkpt><trkpt lat="49.511503675326" lon="-1.4259696571718"><ele>72.12</ele></trkpt><trkpt lat="49.511422528354" lon="-1.4259955813462"><ele>71.88</ele></trkpt><trkpt lat="49.511339848069" lon="-1.426014451735"><ele>71.7</ele></trkpt><trkpt lat="49.511352180756" lon="-1.4261165345919"><ele>71.39</ele></trkpt><trkpt lat="49.511390715772" lon="-1.4262638472172"><ele>70.26</ele></trkpt><trkpt lat="49.511499628502" lon="-1.4265737772354"><ele>69.21</ele></trkpt><trkpt lat="49.511644591164" lon="-1.4270252669111"><ele>67.77</ele></trkpt><trkpt lat="49.51166204674" lon="-1.4271347263672"><ele>67.41</ele></trkpt><trkpt lat="49.511665709838" lon="-1.4272042178844"><ele>66.81</ele></trkpt><trkpt lat="49.51166772815" lon="-1.4272458967025"><ele>66.56</ele></trkpt><trkpt lat="49.511659715244" lon="-1.4272908258517"><ele>66.45</ele></trkpt><trkpt lat="49.511647476193" lon="-1.4273284597372"><ele>66.47</ele></trkpt><trkpt lat="49.511634817856" lon="-1.4273771220955"><ele>66.22</ele></trkpt><trkpt lat="49.5115692124" lon="-1.4274680675499"><ele>66.05</ele></trkpt><trkpt lat="49.511521126981" lon="-1.4275246191073"><ele>65.67</ele></trkpt><trkpt lat="49.511445647432" lon="-1.4276146787363"><ele>65.18</ele></trkpt><trkpt lat="49.511320024936" lon="-1.4277680209604"><ele>64.72</ele></trkpt><trkpt lat="49.511167905664" lon="-1.4279549507078"><ele>63.11</ele></trkpt><trkpt lat="49.51107116425" lon="-1.4281067316063"><ele>62.3</ele></trkpt><trkpt lat="49.511045408006" lon="-1.4281445358601"><ele>62.07</ele></trkpt><trkpt lat="49.51089794003" lon="-1.4283512459976"><ele>61.09</ele></trkpt><trkpt lat="49.51079422026" lon="-1.4284733514489"><ele>60.69</ele></trkpt><trkpt lat="49.510696200702" lon="-1.4285876682402"><ele>60.4</ele></trkpt><trkpt lat="49.510623262348" lon="-1.4287056174224"><ele>60.15</ele></trkpt><trkpt lat="49.510564161746" lon="-1.4288386397691"><ele>59.69</ele></trkpt><trkpt lat="49.510508343305" lon="-1.4290037705281"><ele>59.62</ele></trkpt><trkpt lat="49.510454051428" lon="-1.4291524391145"><ele>59.41</ele></trkpt><trkpt lat="49.51042376055" lon="-1.4292147337355"><ele>59.18</ele></trkpt><trkpt lat="49.510380162432" lon="-1.4292716848889"><ele>59.14</ele></trkpt><trkpt lat="49.510265676347" lon="-1.429416336234"><ele>58.97</ele></trkpt><trkpt lat="49.510061497878" lon="-1.4296221016632"><ele>58.93</ele></trkpt><trkpt lat="49.509989974263" lon="-1.4297028279528"><ele>59.09</ele></trkpt><trkpt lat="49.509858432598" lon="-1.4298459470739"><ele>59.51</ele></trkpt><trkpt lat="49.509682604377" lon="-1.4300404205505"><ele>59.61</ele></trkpt><trkpt lat="49.509374021181" lon="-1.4303861993816"><ele>58.89</ele></trkpt><trkpt lat="49.509345734681" lon="-1.4304431389899"><ele>58.53</ele></trkpt><trkpt lat="49.509331699337" lon="-1.4304806092506"><ele>58.63</ele></trkpt><trkpt lat="49.509326319588" lon="-1.4305036409375"><ele>58.38</ele></trkpt><trkpt lat="49.509328808743" lon="-1.4305329114741"><ele>58.38</ele></trkpt><trkpt lat="49.509197405321" lon="-1.4306013463815"><ele>58.69</ele></trkpt><trkpt lat="49.509107508764" lon="-1.4306914868496"><ele>59.21</ele></trkpt><trkpt lat="49.507766861344" lon="-1.4322406638744"><ele>57.83</ele></trkpt><trkpt lat="49.507186770368" lon="-1.4328096266526"><ele>56.15</ele></trkpt><trkpt lat="49.506823754554" lon="-1.4332127257131"><ele>56</ele></trkpt><trkpt lat="49.506782165097" lon="-1.4332878304148"><ele>55.9</ele></trkpt><trkpt lat="49.506787752049" lon="-1.4334722885064"><ele>55.8</ele></trkpt><trkpt lat="49.506795921224" lon="-1.4336362315322"><ele>55.8</ele></trkpt><trkpt lat="49.506787554641" lon="-1.433761345338"><ele>55.75</ele></trkpt><trkpt lat="49.50677485186" lon="-1.4338584071276"><ele>55.65</ele></trkpt><trkpt lat="49.506732899928" lon="-1.433966673838"><ele>55.44</ele></trkpt><trkpt lat="49.506661814425" lon="-1.434130415753"><ele>55.44</ele></trkpt><trkpt lat="49.506659121532" lon="-1.4341301739432"><ele>55.44</ele></trkpt><trkpt lat="49.506545962202" lon="-1.4340978827545"><ele>55.4</ele></trkpt><trkpt lat="49.506397952706" lon="-1.4340583130238"><ele>55.71</ele></trkpt><trkpt lat="49.506057949714" lon="-1.4339752248955"><ele>57.2</ele></trkpt><trkpt lat="49.505810035267" lon="-1.4339100882031"><ele>58.21</ele></trkpt><trkpt lat="49.50556191082" lon="-1.4338504657049"><ele>58.44</ele></trkpt><trkpt lat="49.505527165616" lon="-1.4338404305264"><ele>58.61</ele></trkpt><trkpt lat="49.505278148861" lon="-1.4338042411341"><ele>58.37</ele></trkpt><trkpt lat="49.505162989568" lon="-1.4338008168566"><ele>58.66</ele></trkpt><trkpt lat="49.505056544162" lon="-1.4338050903969"><ele>58.34</ele></trkpt><trkpt lat="49.504881889481" lon="-1.4338502643763"><ele>57.77</ele></trkpt><trkpt lat="49.504673345425" lon="-1.4339338874004"><ele>57.21</ele></trkpt><trkpt lat="49.504430266043" lon="-1.434001961232"><ele>56.37</ele></trkpt><trkpt lat="49.5044917934" lon="-1.4340655745663"><ele>56.69</ele></trkpt><trkpt lat="49.504647813805" lon="-1.4342732138785"><ele>57.02</ele></trkpt><trkpt lat="49.504937528086" lon="-1.4347307501319"><ele>55.59</ele></trkpt><trkpt lat="49.505150381097" lon="-1.4350306321246"><ele>55.12</ele></trkpt><trkpt lat="49.505357417361" lon="-1.43529403389"><ele>54.9</ele></trkpt><trkpt lat="49.50555670444" lon="-1.4356189813432"><ele>55.2</ele></trkpt><trkpt lat="49.505672208708" lon="-1.4357552187497"><ele>55.29</ele></trkpt><trkpt lat="49.505887814276" lon="-1.4361009997288"><ele>56.25</ele></trkpt><trkpt lat="49.505977396618" lon="-1.4362556571562"><ele>56.66</ele></trkpt><trkpt lat="49.506184544748" lon="-1.4365633385412"><ele>57.26</ele></trkpt><trkpt lat="49.506229015712" lon="-1.4366254250105"><ele>57.42</ele></trkpt><trkpt lat="49.506503843191" lon="-1.4368824825101"><ele>58.48</ele></trkpt><trkpt lat="49.506858253305" lon="-1.437202019481"><ele>59.56</ele></trkpt><trkpt lat="49.506897013618" lon="-1.4372248663601"><ele>59.76</ele></trkpt><trkpt lat="49.507064148878" lon="-1.43732978931"><ele>60.3</ele></trkpt><trkpt lat="49.507344748292" lon="-1.4374117136711"><ele>61.06</ele></trkpt><trkpt lat="49.507379650753" lon="-1.4374176164322"><ele>61.22</ele></trkpt><trkpt lat="49.507728990493" lon="-1.4374683738516"><ele>61.93</ele></trkpt><trkpt lat="49.507964756234" lon="-1.4375213739899"><ele>62.26</ele></trkpt><trkpt lat="49.50815875826" lon="-1.4375830699772"><ele>62.23</ele></trkpt><trkpt lat="49.508467665843" lon="-1.4377021212673"><ele>61.74</ele></trkpt><trkpt lat="49.508731949966" lon="-1.4377867333621"><ele>60.43</ele></trkpt><trkpt lat="49.50881733426" lon="-1.4378151550643"><ele>60.51</ele></trkpt><trkpt lat="49.509085304731" lon="-1.437850304464"><ele>59.61</ele></trkpt><trkpt lat="49.509268320292" lon="-1.4378930340551"><ele>58.15</ele></trkpt><trkpt lat="49.509388134149" lon="-1.4379397659983"><ele>58.05</ele></trkpt><trkpt lat="49.509480804478" lon="-1.4379660767823"><ele>58.03</ele></trkpt><trkpt lat="49.509612550131" lon="-1.4380069654563"><ele>57.8</ele></trkpt><trkpt lat="49.509717944829" lon="-1.4380302705035"><ele>57.71</ele></trkpt><trkpt lat="49.509777770659" lon="-1.4380439469978"><ele>57.44</ele></trkpt><trkpt lat="49.509830100253" lon="-1.4380652490856"><ele>57.22</ele></trkpt><trkpt lat="49.509862124968" lon="-1.4379339549227"><ele>57.89</ele></trkpt><trkpt lat="49.509865133055" lon="-1.4379259259503"><ele>57.89</ele></trkpt><trkpt lat="49.509898436676" lon="-1.4378556083894"><ele>58.38</ele></trkpt><trkpt lat="49.509938978382" lon="-1.4378080728578"><ele>58.36</ele></trkpt><trkpt lat="49.509986337942" lon="-1.4377943474257"><ele>58.4</ele></trkpt><trkpt lat="49.510035335156" lon="-1.4377849188347"><ele>58.29</ele></trkpt><trkpt lat="49.510069812731" lon="-1.437778334945"><ele>58.22</ele></trkpt><trkpt lat="49.510094521466" lon="-1.4377681066062"><ele>58.22</ele></trkpt><trkpt lat="49.510128259009" lon="-1.4377573064969"><ele>58.19</ele></trkpt><trkpt lat="49.510158501923" lon="-1.4376963959925"><ele>58.23</ele></trkpt><trkpt lat="49.51041764611" lon="-1.4374195239747"><ele>54.2</ele></trkpt><trkpt lat="49.510435861305" lon="-1.4374142447712"><ele>54.2</ele></trkpt><trkpt lat="49.51045381386" lon="-1.4374158581529"><ele>53.96</ele></trkpt><trkpt lat="49.510478641556" lon="-1.4374734189681"><ele>53.93</ele></trkpt><trkpt lat="49.510540180755" lon="-1.4376075909461"><ele>53.02</ele></trkpt><trkpt lat="49.510647459998" lon="-1.4378178029166"><ele>51.7</ele></trkpt><trkpt lat="49.510687814383" lon="-1.4378933586466"><ele>51.29</ele></trkpt></trkseg></trk></gpx>
