<?xml version="1.0" encoding="UTF-8" standalone="no"?>
<gpx xmlns="http://www.topografix.com/GPX/1/1" version="1.1" xmlns:xsi="http://www.w3.org/2001/XMLSchema-instance" xsi:schemaLocation="http://www.topografix.com/GPX/1/1 http://www.topografix.com/GPX/1/1/gpx.xsd" creator="Cirkwi"><metadata><name><![CDATA[GR®223 - Sainte-Mère-Eglise - Fontenay-sur-Mer]]></name><desc><![CDATA[Avant de vous lancer dans cette étape de 14 km, profitez de votre venue pour visiter Sainte-Mère-Église. Au cours de la nuit du 5 au 6 juin 1944, 15 000 soldats seront largués sur le village et ses environs. Emportés par leur parachute, certains restent accrochés dans les arbres : c’est ainsi que le soldat John Steele restera accroché au clocher de l’église pendant deux heures avant d’être sauvé ! Au petit matin, Sainte-Mère-Église devient la première ville de France libérée par les airs. Tout à côté de l’église, le musée Airborne présente l’histoire de ces parachutages. Un petit passage par la biscuiterie de Sainte-Mère pour faire le plein de gourmandises et c’est parti pour 14 km de randonnée jusqu’à Fontenay-sur-Mer. À voir également à Sainte-Mère : la borne 0 de la voie de la Liberté. Des plages normandes à la Belgique, 1200 bornes jalonnent la route empruntée par les alliés et l’armée française pour libérer la France.  À la sortie de la ville, il faut rejoindre la chasse du Monet. Ce chemin parcourt le Plain, cette région bocagère du Cotentin. C’est aussi le berceau des races bovines et chevalines normandes ; ici sont nés des trotteurs et des chevaux de selle aux multiples prix.  Après le pont Percé, le chemin vous conduit au petit village d’Azeville, célèbre pour sa batterie allemande. Édifiée en 1942, elle marque le début de la présence des allemands sur le littoral de la Manche. Votre randonnée se poursuit sur des chemins de terre (aussi appelés “chasse”) jusqu’à Saint-Marcouf, où vous pouvez découvrir l’église du 13ème siècle restaurée, la crypte et la fontaine et ses eaux miraculeuses. Au large, les îles du même nom sont aujourd’hui une réserve ornithologique pour l'île de Terre et un fort militaire en cours de restauration pour l’île du Large.  Laissez la route pour suivre le chemin vous conduisant à la batterie de Crisbecq. Traversez Dangueville pour rejoindre Fontenay-sur-Mer, la fin de votre étape de la journée.]]></desc><author><name><![CDATA[Attitude Manche]]></name></author><link href="http://fichier0.cirkwi.com/image/photo/circuit/1300x1300/483127/fr/0.jpg"><text><![CDATA[2022_Sainte_Mere_Eglise_musee_Airborne_5-Alice_Bertrand_Attitude_Manche.jpg-2000px|]]></text></link><link href="http://fichier0.cirkwi.com/image/photo/circuit/1300x1300/483127/fr/1.jpg"><text><![CDATA[Sainte-Mere-eglise-Airborne-Museum-5.jpg-2000px|]]></text></link><link href="http://fichier0.cirkwi.com/image/photo/circuit/1300x1300/483127/fr/2.jpg"><text><![CDATA[Azeville_Batterie_20221007_DDaguierCD50---71.jpeg-2000px|]]></text></link><time>2025-12-15T10:24:41Z</time></metadata><trk><trkseg><trkpt lat="49.4086" lon="-1.31766"><ele>21.85</ele></trkpt><trkpt lat="49.40886" lon="-1.31788"><ele>21.37</ele></trkpt><trkpt lat="49.40931" lon="-1.31823"><ele>22.31</ele></trkpt><trkpt lat="49.40956" lon="-1.31844"><ele>23.93</ele></trkpt><trkpt lat="49.40966" lon="-1.31852"><ele>24.22</ele></trkpt><trkpt lat="49.40982" lon="-1.31863"><ele>25.17</ele></trkpt><trkpt lat="49.41036" lon="-1.31906"><ele>27.64</ele></trkpt><trkpt lat="49.41114" lon="-1.31967"><ele>30.54</ele></trkpt><trkpt lat="49.41126" lon="-1.31977"><ele>30.6</ele></trkpt><trkpt lat="49.4113" lon="-1.31981"><ele>30.54</ele></trkpt><trkpt lat="49.41185" lon="-1.32022"><ele>30.37</ele></trkpt><trkpt lat="49.4122" lon="-1.32049"><ele>30.07</ele></trkpt><trkpt lat="49.41233" lon="-1.3202"><ele>30.93</ele></trkpt><trkpt lat="49.41249" lon="-1.31982"><ele>31.25</ele></trkpt><trkpt lat="49.41264" lon="-1.31951"><ele>31.7</ele></trkpt><trkpt lat="49.41299" lon="-1.31884"><ele>32.8</ele></trkpt><trkpt lat="49.41318" lon="-1.31849"><ele>33.1</ele></trkpt><trkpt lat="49.41325" lon="-1.3184"><ele>33.1</ele></trkpt><trkpt lat="49.41334" lon="-1.31832"><ele>33.26</ele></trkpt><trkpt lat="49.41341" lon="-1.31828"><ele>33.32</ele></trkpt><trkpt lat="49.41349" lon="-1.31826"><ele>33.44</ele></trkpt><trkpt lat="49.41354" lon="-1.31826"><ele>33.4</ele></trkpt><trkpt lat="49.4136" lon="-1.31826"><ele>33.17</ele></trkpt><trkpt lat="49.41372" lon="-1.31827"><ele>33.68</ele></trkpt><trkpt lat="49.41399" lon="-1.31833"><ele>33.07</ele></trkpt><trkpt lat="49.41415" lon="-1.31838"><ele>33.09</ele></trkpt><trkpt lat="49.41432" lon="-1.31841"><ele>32.89</ele></trkpt><trkpt lat="49.41449" lon="-1.31844"><ele>32.75</ele></trkpt><trkpt lat="49.41453" lon="-1.31844"><ele>32.7</ele></trkpt><trkpt lat="49.41456" lon="-1.31842"><ele>32.7</ele></trkpt><trkpt lat="49.41458" lon="-1.3184"><ele>32.76</ele></trkpt><trkpt lat="49.41459" lon="-1.31836"><ele>32.76</ele></trkpt><trkpt lat="49.41466" lon="-1.31801"><ele>33.54</ele></trkpt><trkpt lat="49.41469" lon="-1.31789"><ele>33.54</ele></trkpt><trkpt lat="49.41477" lon="-1.31772"><ele>33.62</ele></trkpt><trkpt lat="49.415" lon="-1.31724"><ele>33.74</ele></trkpt><trkpt lat="49.41524" lon="-1.31668"><ele>34.17</ele></trkpt><trkpt lat="49.41539" lon="-1.31635"><ele>34.1</ele></trkpt><trkpt lat="49.41553" lon="-1.31609"><ele>33.97</ele></trkpt><trkpt lat="49.4157" lon="-1.31582"><ele>34.21</ele></trkpt><trkpt lat="49.41586" lon="-1.31556"><ele>34.3</ele></trkpt><trkpt lat="49.41594" lon="-1.3154"><ele>34.3</ele></trkpt><trkpt lat="49.41602" lon="-1.31542"><ele>34.3</ele></trkpt><trkpt lat="49.41609" lon="-1.31545"><ele>34.33</ele></trkpt><trkpt lat="49.41616" lon="-1.3155"><ele>34.32</ele></trkpt><trkpt lat="49.41623" lon="-1.31556"><ele>34.39</ele></trkpt><trkpt lat="49.41643" lon="-1.31592"><ele>33.69</ele></trkpt><trkpt lat="49.41659" lon="-1.31619"><ele>32.99</ele></trkpt><trkpt lat="49.41658" lon="-1.31635"><ele>32.68</ele></trkpt><trkpt lat="49.41661" lon="-1.31644"><ele>32.34</ele></trkpt><trkpt lat="49.41699" lon="-1.31701"><ele>29.7</ele></trkpt><trkpt lat="49.41717" lon="-1.31733"><ele>28.4</ele></trkpt><trkpt lat="49.41733" lon="-1.31769"><ele>27.03</ele></trkpt><trkpt lat="49.41737" lon="-1.31778"><ele>26.99</ele></trkpt><trkpt lat="49.4174" lon="-1.31783"><ele>26.95</ele></trkpt><trkpt lat="49.41749" lon="-1.3178"><ele>27.17</ele></trkpt><trkpt lat="49.41779" lon="-1.31763"><ele>26.27</ele></trkpt><trkpt lat="49.4183" lon="-1.31742"><ele>25.76</ele></trkpt><trkpt lat="49.41855" lon="-1.31732"><ele>25.34</ele></trkpt><trkpt lat="49.41876" lon="-1.31726"><ele>24.32</ele></trkpt><trkpt lat="49.41881" lon="-1.31724"><ele>24.27</ele></trkpt><trkpt lat="49.41901" lon="-1.31719"><ele>24.3</ele></trkpt><trkpt lat="49.41925" lon="-1.31716"><ele>23.69</ele></trkpt><trkpt lat="49.42023" lon="-1.31714"><ele>22.8</ele></trkpt><trkpt lat="49.42038" lon="-1.31714"><ele>22.92</ele></trkpt><trkpt lat="49.42111" lon="-1.3172"><ele>22.97</ele></trkpt><trkpt lat="49.42171" lon="-1.3172"><ele>21.9</ele></trkpt><trkpt lat="49.42233" lon="-1.31718"><ele>21.15</ele></trkpt><trkpt lat="49.42258" lon="-1.31717"><ele>20.7</ele></trkpt><trkpt lat="49.42276" lon="-1.31718"><ele>20.96</ele></trkpt><trkpt lat="49.42291" lon="-1.31719"><ele>20.7</ele></trkpt><trkpt lat="49.42309" lon="-1.31724"><ele>20.56</ele></trkpt><trkpt lat="49.42335" lon="-1.31737"><ele>20.66</ele></trkpt><trkpt lat="49.42381" lon="-1.31766"><ele>21.07</ele></trkpt><trkpt lat="49.42419" lon="-1.31786"><ele>21.3</ele></trkpt><trkpt lat="49.42456" lon="-1.31801"><ele>21.51</ele></trkpt><trkpt lat="49.42509" lon="-1.31822"><ele>21.28</ele></trkpt><trkpt lat="49.42534" lon="-1.31834"><ele>21.03</ele></trkpt><trkpt lat="49.42564" lon="-1.31843"><ele>20.8</ele></trkpt><trkpt lat="49.42587" lon="-1.31846"><ele>20.41</ele></trkpt><trkpt lat="49.42595" lon="-1.31846"><ele>20.44</ele></trkpt><trkpt lat="49.42604" lon="-1.31848"><ele>20.4</ele></trkpt><trkpt lat="49.42635" lon="-1.31856"><ele>19.96</ele></trkpt><trkpt lat="49.42664" lon="-1.31863"><ele>19.74</ele></trkpt><trkpt lat="49.42679" lon="-1.31867"><ele>19.66</ele></trkpt><trkpt lat="49.42693" lon="-1.31878"><ele>19.39</ele></trkpt><trkpt lat="49.42711" lon="-1.31895"><ele>19.09</ele></trkpt><trkpt lat="49.42723" lon="-1.31905"><ele>18.81</ele></trkpt><trkpt lat="49.42743" lon="-1.31911"><ele>18.6</ele></trkpt><trkpt lat="49.42755" lon="-1.31916"><ele>18.44</ele></trkpt><trkpt lat="49.42774" lon="-1.31928"><ele>18.04</ele></trkpt><trkpt lat="49.42808" lon="-1.31961"><ele>17.61</ele></trkpt><trkpt lat="49.42869" lon="-1.3202"><ele>17</ele></trkpt><trkpt lat="49.42906" lon="-1.32053"><ele>16.5</ele></trkpt><trkpt lat="49.42918" lon="-1.32062"><ele>16.33</ele></trkpt><trkpt lat="49.42931" lon="-1.32069"><ele>16.21</ele></trkpt><trkpt lat="49.42949" lon="-1.32075"><ele>16.18</ele></trkpt><trkpt lat="49.43017" lon="-1.32098"><ele>15.97</ele></trkpt><trkpt lat="49.43072" lon="-1.32121"><ele>15.05</ele></trkpt><trkpt lat="49.43127" lon="-1.32141"><ele>14.15</ele></trkpt><trkpt lat="49.43173" lon="-1.32157"><ele>13.76</ele></trkpt><trkpt lat="49.43206" lon="-1.32168"><ele>13.4</ele></trkpt><trkpt lat="49.43244" lon="-1.32191"><ele>13.34</ele></trkpt><trkpt lat="49.43276" lon="-1.3221"><ele>13.05</ele></trkpt><trkpt lat="49.43305" lon="-1.3223"><ele>12.8</ele></trkpt><trkpt lat="49.43349" lon="-1.32263"><ele>12.67</ele></trkpt><trkpt lat="49.43391" lon="-1.32298"><ele>12.27</ele></trkpt><trkpt lat="49.43401" lon="-1.32309"><ele>12.25</ele></trkpt><trkpt lat="49.43404" lon="-1.32311"><ele>12.19</ele></trkpt><trkpt lat="49.4341" lon="-1.32314"><ele>12.25</ele></trkpt><trkpt lat="49.43438" lon="-1.32328"><ele>12.81</ele></trkpt><trkpt lat="49.43474" lon="-1.32348"><ele>9.11</ele></trkpt><trkpt lat="49.43487" lon="-1.32355"><ele>8.33</ele></trkpt><trkpt lat="49.43495" lon="-1.32358"><ele>7.95</ele></trkpt><trkpt lat="49.43505" lon="-1.32359"><ele>7.37</ele></trkpt><trkpt lat="49.43515" lon="-1.3236"><ele>6.96</ele></trkpt><trkpt lat="49.43528" lon="-1.32362"><ele>6.62</ele></trkpt><trkpt lat="49.43556" lon="-1.32373"><ele>6.62</ele></trkpt><trkpt lat="49.43569" lon="-1.3238"><ele>6.73</ele></trkpt><trkpt lat="49.43576" lon="-1.32384"><ele>6.83</ele></trkpt><trkpt lat="49.43583" lon="-1.32392"><ele>7.42</ele></trkpt><trkpt lat="49.43591" lon="-1.32402"><ele>8.33</ele></trkpt><trkpt lat="49.43598" lon="-1.32419"><ele>9.04</ele></trkpt><trkpt lat="49.43606" lon="-1.32447"><ele>10.18</ele></trkpt><trkpt lat="49.43613" lon="-1.32481"><ele>10.49</ele></trkpt><trkpt lat="49.4362" lon="-1.32502"><ele>10.38</ele></trkpt><trkpt lat="49.43631" lon="-1.32525"><ele>9.7</ele></trkpt><trkpt lat="49.43654" lon="-1.32559"><ele>11.52</ele></trkpt><trkpt lat="49.43692" lon="-1.32605"><ele>11.98</ele></trkpt><trkpt lat="49.43723" lon="-1.32641"><ele>11.67</ele></trkpt><trkpt lat="49.43751" lon="-1.32664"><ele>11.37</ele></trkpt><trkpt lat="49.43774" lon="-1.32679"><ele>11.28</ele></trkpt><trkpt lat="49.43796" lon="-1.32691"><ele>11.18</ele></trkpt><trkpt lat="49.43824" lon="-1.32702"><ele>10.98</ele></trkpt><trkpt lat="49.43854" lon="-1.32717"><ele>9.94</ele></trkpt><trkpt lat="49.43895" lon="-1.32735"><ele>9.17</ele></trkpt><trkpt lat="49.43926" lon="-1.32751"><ele>8.53</ele></trkpt><trkpt lat="49.43951" lon="-1.32766"><ele>8.34</ele></trkpt><trkpt lat="49.43998" lon="-1.32802"><ele>8.3</ele></trkpt><trkpt lat="49.44043" lon="-1.32839"><ele>8.02</ele></trkpt><trkpt lat="49.44081" lon="-1.32876"><ele>6.22</ele></trkpt><trkpt lat="49.44101" lon="-1.32897"><ele>6.1</ele></trkpt><trkpt lat="49.44108" lon="-1.32905"><ele>6.31</ele></trkpt><trkpt lat="49.44109" lon="-1.32913"><ele>6.19</ele></trkpt><trkpt lat="49.44109" lon="-1.32915"><ele>5.56</ele></trkpt><trkpt lat="49.44112" lon="-1.32923"><ele>5.59</ele></trkpt><trkpt lat="49.44121" lon="-1.32946"><ele>6.19</ele></trkpt><trkpt lat="49.44137" lon="-1.32984"><ele>6.21</ele></trkpt><trkpt lat="49.4414" lon="-1.32994"><ele>6.17</ele></trkpt><trkpt lat="49.44142" lon="-1.33003"><ele>6.16</ele></trkpt><trkpt lat="49.44141" lon="-1.33014"><ele>6.19</ele></trkpt><trkpt lat="49.44176" lon="-1.33022"><ele>6.52</ele></trkpt><trkpt lat="49.44185" lon="-1.33024"><ele>6.51</ele></trkpt><trkpt lat="49.44264" lon="-1.33052"><ele>7.22</ele></trkpt><trkpt lat="49.44297" lon="-1.33066"><ele>7.58</ele></trkpt><trkpt lat="49.44302" lon="-1.33069"><ele>7.52</ele></trkpt><trkpt lat="49.44308" lon="-1.33074"><ele>7.63</ele></trkpt><trkpt lat="49.44319" lon="-1.33085"><ele>7.5</ele></trkpt><trkpt lat="49.44338" lon="-1.33106"><ele>7.98</ele></trkpt><trkpt lat="49.44356" lon="-1.33129"><ele>7.83</ele></trkpt><trkpt lat="49.44388" lon="-1.33166"><ele>8.03</ele></trkpt><trkpt lat="49.44415" lon="-1.33195"><ele>8.43</ele></trkpt><trkpt lat="49.44438" lon="-1.33217"><ele>9.05</ele></trkpt><trkpt lat="49.44463" lon="-1.3324"><ele>9.8</ele></trkpt><trkpt lat="49.44585" lon="-1.33334"><ele>14.81</ele></trkpt><trkpt lat="49.44675" lon="-1.33407"><ele>16.22</ele></trkpt><trkpt lat="49.44681" lon="-1.33411"><ele>16.42</ele></trkpt><trkpt lat="49.44704" lon="-1.33434"><ele>16.85</ele></trkpt><trkpt lat="49.44721" lon="-1.33445"><ele>16.95</ele></trkpt><trkpt lat="49.4476" lon="-1.33472"><ele>17.44</ele></trkpt><trkpt lat="49.448" lon="-1.33499"><ele>18.53</ele></trkpt><trkpt lat="49.44805" lon="-1.33502"><ele>18.73</ele></trkpt><trkpt lat="49.44809" lon="-1.33501"><ele>18.96</ele></trkpt><trkpt lat="49.44811" lon="-1.33498"><ele>18.96</ele></trkpt><trkpt lat="49.44813" lon="-1.33502"><ele>18.92</ele></trkpt><trkpt lat="49.44819" lon="-1.33508"><ele>19.27</ele></trkpt><trkpt lat="49.44833" lon="-1.33512"><ele>20.28</ele></trkpt><trkpt lat="49.44926" lon="-1.3353"><ele>21.19</ele></trkpt><trkpt lat="49.44974" lon="-1.33538"><ele>21.31</ele></trkpt><trkpt lat="49.44995" lon="-1.33545"><ele>21.43</ele></trkpt><trkpt lat="49.45027" lon="-1.33559"><ele>20.73</ele></trkpt><trkpt lat="49.45035" lon="-1.33562"><ele>20.63</ele></trkpt><trkpt lat="49.45053" lon="-1.33576"><ele>20.38</ele></trkpt><trkpt lat="49.45064" lon="-1.33586"><ele>19.83</ele></trkpt><trkpt lat="49.45079" lon="-1.336"><ele>19.75</ele></trkpt><trkpt lat="49.45096" lon="-1.3362"><ele>19.61</ele></trkpt><trkpt lat="49.45105" lon="-1.33633"><ele>19.48</ele></trkpt><trkpt lat="49.45116" lon="-1.33646"><ele>19.14</ele></trkpt><trkpt lat="49.45138" lon="-1.33633"><ele>17.99</ele></trkpt><trkpt lat="49.4516" lon="-1.33623"><ele>16.38</ele></trkpt><trkpt lat="49.45216" lon="-1.336"><ele>14.82</ele></trkpt><trkpt lat="49.4527" lon="-1.33578"><ele>13.74</ele></trkpt><trkpt lat="49.45274" lon="-1.33573"><ele>13.69</ele></trkpt><trkpt lat="49.45281" lon="-1.33559"><ele>13.47</ele></trkpt><trkpt lat="49.45292" lon="-1.3353"><ele>13.17</ele></trkpt><trkpt lat="49.45315" lon="-1.33477"><ele>12.62</ele></trkpt><trkpt lat="49.4532" lon="-1.33468"><ele>12.7</ele></trkpt><trkpt lat="49.45371" lon="-1.33418"><ele>12.62</ele></trkpt><trkpt lat="49.45396" lon="-1.33399"><ele>13.46</ele></trkpt><trkpt lat="49.4542" lon="-1.3339"><ele>14.37</ele></trkpt><trkpt lat="49.45465" lon="-1.33379"><ele>15.25</ele></trkpt><trkpt lat="49.45494" lon="-1.33371"><ele>15.07</ele></trkpt><trkpt lat="49.45501" lon="-1.33366"><ele>14.82</ele></trkpt><trkpt lat="49.45503" lon="-1.33363"><ele>14.79</ele></trkpt><trkpt lat="49.45504" lon="-1.3336"><ele>14.79</ele></trkpt><trkpt lat="49.4551" lon="-1.33333"><ele>14.54</ele></trkpt><trkpt lat="49.45515" lon="-1.33322"><ele>14.49</ele></trkpt><trkpt lat="49.45523" lon="-1.3331"><ele>14.52</ele></trkpt><trkpt lat="49.45534" lon="-1.33301"><ele>14.44</ele></trkpt><trkpt lat="49.45546" lon="-1.33292"><ele>14.4</ele></trkpt><trkpt lat="49.45546" lon="-1.33282"><ele>14.42</ele></trkpt><trkpt lat="49.45547" lon="-1.33265"><ele>14.5</ele></trkpt><trkpt lat="49.4555" lon="-1.33229"><ele>14.64</ele></trkpt><trkpt lat="49.45555" lon="-1.33222"><ele>14.6</ele></trkpt><trkpt lat="49.45559" lon="-1.33218"><ele>14.65</ele></trkpt><trkpt lat="49.45565" lon="-1.33212"><ele>15</ele></trkpt><trkpt lat="49.45572" lon="-1.33197"><ele>15.31</ele></trkpt><trkpt lat="49.45608" lon="-1.33107"><ele>16.74</ele></trkpt><trkpt lat="49.45632" lon="-1.3305"><ele>17.87</ele></trkpt><trkpt lat="49.45662" lon="-1.32976"><ele>18.4</ele></trkpt><trkpt lat="49.45671" lon="-1.3296"><ele>18.41</ele></trkpt><trkpt lat="49.45681" lon="-1.32946"><ele>18.41</ele></trkpt><trkpt lat="49.45726" lon="-1.32901"><ele>17.91</ele></trkpt><trkpt lat="49.45789" lon="-1.32839"><ele>17.09</ele></trkpt><trkpt lat="49.45845" lon="-1.32783"><ele>17.96</ele></trkpt><trkpt lat="49.45879" lon="-1.32749"><ele>18.32</ele></trkpt><trkpt lat="49.45918" lon="-1.32712"><ele>18.91</ele></trkpt><trkpt lat="49.45978" lon="-1.32662"><ele>19.13</ele></trkpt><trkpt lat="49.45971" lon="-1.32629"><ele>18.59</ele></trkpt><trkpt lat="49.45953" lon="-1.32553"><ele>17.76</ele></trkpt><trkpt lat="49.45944" lon="-1.32501"><ele>17.35</ele></trkpt><trkpt lat="49.4594" lon="-1.32461"><ele>17.43</ele></trkpt><trkpt lat="49.45937" lon="-1.32422"><ele>17.34</ele></trkpt><trkpt lat="49.45936" lon="-1.32372"><ele>17.08</ele></trkpt><trkpt lat="49.45934" lon="-1.32315"><ele>16.54</ele></trkpt><trkpt lat="49.45929" lon="-1.32268"><ele>15.55</ele></trkpt><trkpt lat="49.45922" lon="-1.32227"><ele>14.85</ele></trkpt><trkpt lat="49.45914" lon="-1.32199"><ele>15.01</ele></trkpt><trkpt lat="49.4589" lon="-1.32127"><ele>11.99</ele></trkpt><trkpt lat="49.4587" lon="-1.32072"><ele>11.57</ele></trkpt><trkpt lat="49.45868" lon="-1.32066"><ele>11.5</ele></trkpt><trkpt lat="49.45847" lon="-1.32002"><ele>13.03</ele></trkpt><trkpt lat="49.45827" lon="-1.31943"><ele>14.91</ele></trkpt><trkpt lat="49.45807" lon="-1.31884"><ele>15.89</ele></trkpt><trkpt lat="49.45798" lon="-1.31849"><ele>16.54</ele></trkpt><trkpt lat="49.45794" lon="-1.3184"><ele>17.06</ele></trkpt><trkpt lat="49.45803" lon="-1.31794"><ele>17.68</ele></trkpt><trkpt lat="49.45815" lon="-1.31739"><ele>18.59</ele></trkpt><trkpt lat="49.45819" lon="-1.31703"><ele>18.78</ele></trkpt><trkpt lat="49.45825" lon="-1.31638"><ele>20.27</ele></trkpt><trkpt lat="49.45828" lon="-1.31607"><ele>21</ele></trkpt><trkpt lat="49.45834" lon="-1.31582"><ele>21.55</ele></trkpt><trkpt lat="49.45853" lon="-1.31531"><ele>22.67</ele></trkpt><trkpt lat="49.4587" lon="-1.31483"><ele>23.19</ele></trkpt><trkpt lat="49.45876" lon="-1.3146"><ele>23.15</ele></trkpt><trkpt lat="49.45878" lon="-1.31448"><ele>23.09</ele></trkpt><trkpt lat="49.45878" lon="-1.31433"><ele>23.1</ele></trkpt><trkpt lat="49.45879" lon="-1.3141"><ele>23.04</ele></trkpt><trkpt lat="49.45882" lon="-1.31392"><ele>23.15</ele></trkpt><trkpt lat="49.45886" lon="-1.31382"><ele>23.25</ele></trkpt><trkpt lat="49.45893" lon="-1.31373"><ele>23.03</ele></trkpt><trkpt lat="49.45905" lon="-1.31362"><ele>22.81</ele></trkpt><trkpt lat="49.45911" lon="-1.31354"><ele>22.59</ele></trkpt><trkpt lat="49.45919" lon="-1.31334"><ele>22.46</ele></trkpt><trkpt lat="49.45908" lon="-1.31321"><ele>23.34</ele></trkpt><trkpt lat="49.45899" lon="-1.31309"><ele>24.82</ele></trkpt><trkpt lat="49.45893" lon="-1.31305"><ele>25.18</ele></trkpt><trkpt lat="49.45879" lon="-1.31298"><ele>26.37</ele></trkpt><trkpt lat="49.45868" lon="-1.31295"><ele>27.34</ele></trkpt><trkpt lat="49.45857" lon="-1.31287"><ele>27.55</ele></trkpt><trkpt lat="49.4584" lon="-1.31266"><ele>28.33</ele></trkpt><trkpt lat="49.4581" lon="-1.31233"><ele>28.94</ele></trkpt><trkpt lat="49.4577" lon="-1.31188"><ele>29.43</ele></trkpt><trkpt lat="49.45743" lon="-1.3116"><ele>29.34</ele></trkpt><trkpt lat="49.45707" lon="-1.31109"><ele>28.99</ele></trkpt><trkpt lat="49.45679" lon="-1.31064"><ele>28.04</ele></trkpt><trkpt lat="49.45658" lon="-1.31026"><ele>27.11</ele></trkpt><trkpt lat="49.45637" lon="-1.30981"><ele>25.69</ele></trkpt><trkpt lat="49.45616" lon="-1.30937"><ele>24.24</ele></trkpt><trkpt lat="49.4559" lon="-1.3088"><ele>22.26</ele></trkpt><trkpt lat="49.45561" lon="-1.30809"><ele>20.63</ele></trkpt><trkpt lat="49.45547" lon="-1.3077"><ele>19.99</ele></trkpt><trkpt lat="49.45542" lon="-1.30751"><ele>19.98</ele></trkpt><trkpt lat="49.45566" lon="-1.30745"><ele>20.78</ele></trkpt><trkpt lat="49.45588" lon="-1.30743"><ele>20.85</ele></trkpt><trkpt lat="49.45626" lon="-1.30737"><ele>21.62</ele></trkpt><trkpt lat="49.45649" lon="-1.30726"><ele>22.38</ele></trkpt><trkpt lat="49.45668" lon="-1.3071"><ele>23.09</ele></trkpt><trkpt lat="49.45717" lon="-1.3065"><ele>24.73</ele></trkpt><trkpt lat="49.45803" lon="-1.30543"><ele>26.6</ele></trkpt><trkpt lat="49.45934" lon="-1.30376"><ele>28.42</ele></trkpt><trkpt lat="49.4602" lon="-1.30266"><ele>29.32</ele></trkpt><trkpt lat="49.46101" lon="-1.30164"><ele>30.46</ele></trkpt><trkpt lat="49.46149" lon="-1.301"><ele>30.68</ele></trkpt><trkpt lat="49.46089" lon="-1.30034"><ele>31.56</ele></trkpt><trkpt lat="49.46044" lon="-1.29985"><ele>31</ele></trkpt><trkpt lat="49.46028" lon="-1.29965"><ele>30.63</ele></trkpt><trkpt lat="49.46012" lon="-1.29941"><ele>30.33</ele></trkpt><trkpt lat="49.45983" lon="-1.29891"><ele>29.59</ele></trkpt><trkpt lat="49.45947" lon="-1.29823"><ele>28.76</ele></trkpt><trkpt lat="49.45932" lon="-1.29795"><ele>28.44</ele></trkpt><trkpt lat="49.4591" lon="-1.29756"><ele>28.4</ele></trkpt><trkpt lat="49.4589" lon="-1.29713"><ele>28.59</ele></trkpt><trkpt lat="49.45878" lon="-1.29677"><ele>28.83</ele></trkpt><trkpt lat="49.45861" lon="-1.29624"><ele>29.32</ele></trkpt><trkpt lat="49.45828" lon="-1.29516"><ele>30.9</ele></trkpt><trkpt lat="49.45786" lon="-1.29374"><ele>31.12</ele></trkpt><trkpt lat="49.4576" lon="-1.29284"><ele>30.61</ele></trkpt><trkpt lat="49.45751" lon="-1.29261"><ele>30.45</ele></trkpt><trkpt lat="49.45757" lon="-1.29259"><ele>30.4</ele></trkpt><trkpt lat="49.45761" lon="-1.29259"><ele>30.44</ele></trkpt><trkpt lat="49.45766" lon="-1.2926"><ele>30.91</ele></trkpt><trkpt lat="49.45806" lon="-1.29297"><ele>31.36</ele></trkpt><trkpt lat="49.45822" lon="-1.29314"><ele>31.54</ele></trkpt><trkpt lat="49.45864" lon="-1.29356"><ele>31.68</ele></trkpt><trkpt lat="49.4588" lon="-1.29367"><ele>31.4</ele></trkpt><trkpt lat="49.45885" lon="-1.29369"><ele>31.4</ele></trkpt><trkpt lat="49.45893" lon="-1.2937"><ele>31.34</ele></trkpt><trkpt lat="49.45917" lon="-1.29364"><ele>31.2</ele></trkpt><trkpt lat="49.45925" lon="-1.29363"><ele>31.17</ele></trkpt><trkpt lat="49.45935" lon="-1.29364"><ele>31.1</ele></trkpt><trkpt lat="49.45976" lon="-1.29376"><ele>30.83</ele></trkpt><trkpt lat="49.46007" lon="-1.29386"><ele>30.5</ele></trkpt><trkpt lat="49.46025" lon="-1.29397"><ele>30.45</ele></trkpt><trkpt lat="49.4605" lon="-1.29419"><ele>30.15</ele></trkpt><trkpt lat="49.46052" lon="-1.2942"><ele>30.05</ele></trkpt><trkpt lat="49.46055" lon="-1.2942"><ele>30.12</ele></trkpt><trkpt lat="49.46063" lon="-1.2943"><ele>29.7</ele></trkpt><trkpt lat="49.46112" lon="-1.29471"><ele>28.97</ele></trkpt><trkpt lat="49.46168" lon="-1.29514"><ele>28.49</ele></trkpt><trkpt lat="49.46191" lon="-1.29527"><ele>28.01</ele></trkpt><trkpt lat="49.46224" lon="-1.29542"><ele>28</ele></trkpt><trkpt lat="49.46254" lon="-1.29549"><ele>27.51</ele></trkpt><trkpt lat="49.46271" lon="-1.29552"><ele>27.55</ele></trkpt><trkpt lat="49.46291" lon="-1.29562"><ele>27.32</ele></trkpt><trkpt lat="49.46354" lon="-1.29604"><ele>26.65</ele></trkpt><trkpt lat="49.4638" lon="-1.29619"><ele>27.2</ele></trkpt><trkpt lat="49.46395" lon="-1.29632"><ele>27.15</ele></trkpt><trkpt lat="49.46436" lon="-1.29667"><ele>28.55</ele></trkpt><trkpt lat="49.46466" lon="-1.29689"><ele>29.9</ele></trkpt><trkpt lat="49.46503" lon="-1.29708"><ele>30.96</ele></trkpt><trkpt lat="49.46542" lon="-1.29722"><ele>31.39</ele></trkpt><trkpt lat="49.46585" lon="-1.2973"><ele>31.44</ele></trkpt><trkpt lat="49.46616" lon="-1.29739"><ele>31.48</ele></trkpt><trkpt lat="49.46636" lon="-1.29681"><ele>29.93</ele></trkpt><trkpt lat="49.46656" lon="-1.29622"><ele>27.8</ele></trkpt><trkpt lat="49.4668" lon="-1.2957"><ele>24.12</ele></trkpt><trkpt lat="49.46697" lon="-1.29532"><ele>21.8</ele></trkpt><trkpt lat="49.46708" lon="-1.29516"><ele>20.61</ele></trkpt><trkpt lat="49.46719" lon="-1.29507"><ele>20.56</ele></trkpt><trkpt lat="49.46741" lon="-1.29491"><ele>20.35</ele></trkpt><trkpt lat="49.46783" lon="-1.29469"><ele>20.98</ele></trkpt><trkpt lat="49.46813" lon="-1.29449"><ele>22.87</ele></trkpt><trkpt lat="49.46837" lon="-1.29424"><ele>24.31</ele></trkpt><trkpt lat="49.4687" lon="-1.29375"><ele>25.68</ele></trkpt><trkpt lat="49.46907" lon="-1.29313"><ele>25.88</ele></trkpt><trkpt lat="49.46923" lon="-1.2928"><ele>25.76</ele></trkpt><trkpt lat="49.46954" lon="-1.29233"><ele>26.54</ele></trkpt><trkpt lat="49.46983" lon="-1.29189"><ele>26.37</ele></trkpt><trkpt lat="49.46998" lon="-1.29158"><ele>25.86</ele></trkpt><trkpt lat="49.47007" lon="-1.29141"><ele>25.73</ele></trkpt><trkpt lat="49.47027" lon="-1.29109"><ele>25</ele></trkpt><trkpt lat="49.47059" lon="-1.29066"><ele>24.43</ele></trkpt><trkpt lat="49.47094" lon="-1.29018"><ele>22.74</ele></trkpt><trkpt lat="49.47109" lon="-1.28992"><ele>22.04</ele></trkpt><trkpt lat="49.47116" lon="-1.28974"><ele>21.7</ele></trkpt><trkpt lat="49.4712" lon="-1.28978"><ele>21.98</ele></trkpt><trkpt lat="49.47126" lon="-1.28983"><ele>22.36</ele></trkpt><trkpt lat="49.47131" lon="-1.28988"><ele>22.81</ele></trkpt><trkpt lat="49.47145" lon="-1.29002"><ele>23.44</ele></trkpt><trkpt lat="49.47158" lon="-1.29016"><ele>24.16</ele></trkpt><trkpt lat="49.47167" lon="-1.29024"><ele>24.61</ele></trkpt><trkpt lat="49.47178" lon="-1.29032"><ele>25</ele></trkpt><trkpt lat="49.47186" lon="-1.29036"><ele>25.15</ele></trkpt><trkpt lat="49.47194" lon="-1.29038"><ele>25.3</ele></trkpt><trkpt lat="49.47201" lon="-1.29041"><ele>25.22</ele></trkpt><trkpt lat="49.47206" lon="-1.29041"><ele>25.17</ele></trkpt><trkpt lat="49.47212" lon="-1.29041"><ele>25.12</ele></trkpt><trkpt lat="49.47219" lon="-1.29043"><ele>25.16</ele></trkpt><trkpt lat="49.47227" lon="-1.29048"><ele>25.14</ele></trkpt><trkpt lat="49.47235" lon="-1.29054"><ele>24.94</ele></trkpt><trkpt lat="49.47241" lon="-1.29058"><ele>24.75</ele></trkpt><trkpt lat="49.47244" lon="-1.2906"><ele>24.63</ele></trkpt><trkpt lat="49.47249" lon="-1.29061"><ele>24.46</ele></trkpt><trkpt lat="49.4725" lon="-1.29051"><ele>24.3</ele></trkpt><trkpt lat="49.47251" lon="-1.29042"><ele>23.82</ele></trkpt><trkpt lat="49.47253" lon="-1.29032"><ele>23.59</ele></trkpt><trkpt lat="49.47255" lon="-1.29021"><ele>23.44</ele></trkpt><trkpt lat="49.47258" lon="-1.2901"><ele>22.93</ele></trkpt><trkpt lat="49.4726" lon="-1.29003"><ele>22.55</ele></trkpt><trkpt lat="49.47264" lon="-1.28994"><ele>22.15</ele></trkpt><trkpt lat="49.47269" lon="-1.28985"><ele>21.78</ele></trkpt><trkpt lat="49.47275" lon="-1.28976"><ele>21.37</ele></trkpt><trkpt lat="49.47281" lon="-1.28967"><ele>20.91</ele></trkpt><trkpt lat="49.47285" lon="-1.28959"><ele>20.89</ele></trkpt><trkpt lat="49.47287" lon="-1.28961"><ele>20.83</ele></trkpt><trkpt lat="49.47292" lon="-1.2897"><ele>20.91</ele></trkpt><trkpt lat="49.47295" lon="-1.2898"><ele>20.95</ele></trkpt><trkpt lat="49.47301" lon="-1.28997"><ele>20.89</ele></trkpt><trkpt lat="49.47307" lon="-1.29012"><ele>20.54</ele></trkpt><trkpt lat="49.4731" lon="-1.29019"><ele>20.85</ele></trkpt><trkpt lat="49.4733" lon="-1.29071"><ele>21.4</ele></trkpt><trkpt lat="49.47348" lon="-1.29107"><ele>22.1</ele></trkpt><trkpt lat="49.4736" lon="-1.29133"><ele>22.44</ele></trkpt><trkpt lat="49.4738" lon="-1.29173"><ele>23.49</ele></trkpt><trkpt lat="49.47388" lon="-1.29187"><ele>23.93</ele></trkpt><trkpt lat="49.47396" lon="-1.29197"><ele>24.21</ele></trkpt><trkpt lat="49.47407" lon="-1.29207"><ele>24.53</ele></trkpt><trkpt lat="49.47421" lon="-1.29219"><ele>24.89</ele></trkpt><trkpt lat="49.47473" lon="-1.29265"><ele>25.95</ele></trkpt><trkpt lat="49.47483" lon="-1.29275"><ele>26.39</ele></trkpt><trkpt lat="49.47494" lon="-1.29287"><ele>26.86</ele></trkpt><trkpt lat="49.47502" lon="-1.29299"><ele>27.26</ele></trkpt><trkpt lat="49.47523" lon="-1.29306"><ele>27.86</ele></trkpt><trkpt lat="49.47549" lon="-1.29317"><ele>28.02</ele></trkpt><trkpt lat="49.4758" lon="-1.29336"><ele>28.47</ele></trkpt><trkpt lat="49.47622" lon="-1.2937"><ele>29.36</ele></trkpt><trkpt lat="49.4765" lon="-1.29391"><ele>29.68</ele></trkpt><trkpt lat="49.47682" lon="-1.29415"><ele>29.66</ele></trkpt><trkpt lat="49.4771" lon="-1.29444"><ele>30.09</ele></trkpt><trkpt lat="49.47743" lon="-1.29475"><ele>29.87</ele></trkpt><trkpt lat="49.47776" lon="-1.29507"><ele>30.16</ele></trkpt><trkpt lat="49.47809" lon="-1.2954"><ele>29.85</ele></trkpt><trkpt lat="49.47841" lon="-1.29577"><ele>29.75</ele></trkpt><trkpt lat="49.47864" lon="-1.29609"><ele>29.01</ele></trkpt><trkpt lat="49.47874" lon="-1.29625"><ele>28.89</ele></trkpt><trkpt lat="49.47897" lon="-1.29598"><ele>28.38</ele></trkpt><trkpt lat="49.47921" lon="-1.29553"><ele>26.96</ele></trkpt><trkpt lat="49.47934" lon="-1.29526"><ele>25.46</ele></trkpt><trkpt lat="49.47943" lon="-1.29534"><ele>25.89</ele></trkpt><trkpt lat="49.47963" lon="-1.29553"><ele>26.04</ele></trkpt><trkpt lat="49.47997" lon="-1.29581"><ele>25.47</ele></trkpt><trkpt lat="49.48043" lon="-1.29615"><ele>24.34</ele></trkpt><trkpt lat="49.48076" lon="-1.29638"><ele>22.87</ele></trkpt><trkpt lat="49.48106" lon="-1.29658"><ele>20.96</ele></trkpt><trkpt lat="49.48145" lon="-1.29685"><ele>17.67</ele></trkpt><trkpt lat="49.48176" lon="-1.29704"><ele>16</ele></trkpt><trkpt lat="49.48221" lon="-1.29725"><ele>14.52</ele></trkpt><trkpt lat="49.48242" lon="-1.29733"><ele>13.85</ele></trkpt><trkpt lat="49.4826" lon="-1.29727"><ele>13.4</ele></trkpt><trkpt lat="49.48271" lon="-1.29721"><ele>13.48</ele></trkpt><trkpt lat="49.48282" lon="-1.29722"><ele>13.84</ele></trkpt><trkpt lat="49.48294" lon="-1.29738"><ele>13.64</ele></trkpt><trkpt lat="49.48309" lon="-1.29752"><ele>13.36</ele></trkpt><trkpt lat="49.48313" lon="-1.29755"><ele>13.67</ele></trkpt><trkpt lat="49.48334" lon="-1.29778"><ele>15.77</ele></trkpt><trkpt lat="49.48347" lon="-1.29789"><ele>16.76</ele></trkpt><trkpt lat="49.48371" lon="-1.29818"><ele>18.49</ele></trkpt><trkpt lat="49.48387" lon="-1.29829"><ele>18.44</ele></trkpt><trkpt lat="49.48405" lon="-1.29842"><ele>18.21</ele></trkpt><trkpt lat="49.4842" lon="-1.29859"><ele>18.68</ele></trkpt><trkpt lat="49.48433" lon="-1.29879"><ele>19.4</ele></trkpt><trkpt lat="49.48445" lon="-1.29899"><ele>19.19</ele></trkpt><trkpt lat="49.48456" lon="-1.29919"><ele>18.8</ele></trkpt><trkpt lat="49.48464" lon="-1.29938"><ele>18.93</ele></trkpt><trkpt lat="49.48473" lon="-1.29962"><ele>19.75</ele></trkpt><trkpt lat="49.48489" lon="-1.29989"><ele>19.93</ele></trkpt><trkpt lat="49.485" lon="-1.30012"><ele>20.22</ele></trkpt><trkpt lat="49.48503" lon="-1.30031"><ele>20.99</ele></trkpt><trkpt lat="49.48511" lon="-1.30055"><ele>22.39</ele></trkpt><trkpt lat="49.48579" lon="-1.3013"><ele>23.54</ele></trkpt><trkpt lat="49.48631" lon="-1.30173"><ele>23.99</ele></trkpt><trkpt lat="49.48628" lon="-1.30193"><ele>24.73</ele></trkpt><trkpt lat="49.4862" lon="-1.30225"><ele>26.3</ele></trkpt><trkpt lat="49.48614" lon="-1.30235"><ele>26.11</ele></trkpt></trkseg></trk></gpx>
