<?xml version="1.0" encoding="UTF-8" standalone="no"?>
<gpx xmlns="http://www.topografix.com/GPX/1/1" version="1.1" xmlns:xsi="http://www.w3.org/2001/XMLSchema-instance" xsi:schemaLocation="http://www.topografix.com/GPX/1/1 http://www.topografix.com/GPX/1/1/gpx.xsd" creator="Cirkwi"><metadata><name><![CDATA[Cap à l'ouest]]></name><desc><![CDATA[Au départ de la promenade de la Saline, ce parcours s’élève rapidement sur les hauteurs et offre de nombreux panoramas sur la rade de Cherbourg-en-Cotentin. On y aperçoit les ferries voguant vers l’Angleterre ou l’Irlande ainsi que des paquebots en escale au terminal croisière. Partez du parking du centre aquatique d’Equeurdreville-Hainneville. Suivez la piste cyclable du parc de la Bonde en contournant le sud-est du centre aquatique (Equeurdreville-Hainneville, Cherbourg-en-Cotentin). Départ possible de la plage de Querqueville.  Coordonnées GPS : 49°39'25.2"N, 1°40'16.8"W Suivez le circuit selon le sens des aiguilles d'une montre. Le balisage est de couleur jaune. Vous retrouverez ce circuit dans le topoguide "Cherbourg-en-cotentin" de l'Office de tourisme du Cotentin.   Départ accessible avec le réseau de bus Cap Cotentin à l'arrêt "Centre aquatique" avec les lignes A et 2 (plus d'infos sur capcotentin.fr)]]></desc><author><name><![CDATA[Cotentin unique]]></name></author><link href="http://fichier0.cirkwi.com/image/photo/circuit/1300x1300/826556/fr/0.jpg"><text><![CDATA[|Aymeric PICOT]]></text></link><link href="http://fichier0.cirkwi.com/image/photo/circuit/1300x1300/826556/fr/1.jpg"><text><![CDATA[|Aymeric PICOT]]></text></link><link href="http://fichier0.cirkwi.com/image/photo/circuit/1300x1300/826556/fr/2.jpg"><text><![CDATA[|Alix Anger Valognes]]></text></link><link href="http://fichier0.cirkwi.com/image/photo/circuit/1300x1300/826556/fr/3.jpg"><text><![CDATA[|©]]></text></link><time>2026-07-09T13:44:41Z</time></metadata><trk><trkseg><trkpt lat="49.657" lon="-1.66916"><ele>8.47</ele></trkpt><trkpt lat="49.657" lon="-1.66983"><ele>7.9</ele></trkpt><trkpt lat="49.65681" lon="-1.66991"><ele>8.39</ele></trkpt><trkpt lat="49.6564" lon="-1.67021"><ele>9.47</ele></trkpt><trkpt lat="49.65628" lon="-1.67033"><ele>9.38</ele></trkpt><trkpt lat="49.65618" lon="-1.67047"><ele>8.98</ele></trkpt><trkpt lat="49.65594" lon="-1.67069"><ele>8.57</ele></trkpt><trkpt lat="49.65577" lon="-1.67075"><ele>8.64</ele></trkpt><trkpt lat="49.65569" lon="-1.6708"><ele>8.66</ele></trkpt><trkpt lat="49.65548" lon="-1.67106"><ele>7.91</ele></trkpt><trkpt lat="49.65537" lon="-1.67112"><ele>7.77</ele></trkpt><trkpt lat="49.65528" lon="-1.67109"><ele>7.89</ele></trkpt><trkpt lat="49.65514" lon="-1.67093"><ele>8.96</ele></trkpt><trkpt lat="49.65505" lon="-1.67092"><ele>9.54</ele></trkpt><trkpt lat="49.65502" lon="-1.67099"><ele>9.36</ele></trkpt><trkpt lat="49.65492" lon="-1.67111"><ele>9</ele></trkpt><trkpt lat="49.65487" lon="-1.67124"><ele>9.43</ele></trkpt><trkpt lat="49.65469" lon="-1.67123"><ele>9.94</ele></trkpt><trkpt lat="49.65425" lon="-1.67117"><ele>10.34</ele></trkpt><trkpt lat="49.6542" lon="-1.67185"><ele>10.56</ele></trkpt><trkpt lat="49.65381" lon="-1.67166"><ele>13.05</ele></trkpt><trkpt lat="49.65265" lon="-1.67125"><ele>16.37</ele></trkpt><trkpt lat="49.65239" lon="-1.67142"><ele>17.74</ele></trkpt><trkpt lat="49.65213" lon="-1.67154"><ele>19.78</ele></trkpt><trkpt lat="49.65198" lon="-1.6715"><ele>20.98</ele></trkpt><trkpt lat="49.65159" lon="-1.67133"><ele>21.96</ele></trkpt><trkpt lat="49.65136" lon="-1.67127"><ele>24.3</ele></trkpt><trkpt lat="49.65126" lon="-1.67123"><ele>24.96</ele></trkpt><trkpt lat="49.65102" lon="-1.67104"><ele>25.93</ele></trkpt><trkpt lat="49.6509" lon="-1.67098"><ele>26.34</ele></trkpt><trkpt lat="49.65053" lon="-1.67072"><ele>25.42</ele></trkpt><trkpt lat="49.6502" lon="-1.67046"><ele>25.96</ele></trkpt><trkpt lat="49.64984" lon="-1.67025"><ele>27.13</ele></trkpt><trkpt lat="49.64953" lon="-1.66997"><ele>26.64</ele></trkpt><trkpt lat="49.64944" lon="-1.66995"><ele>25.14</ele></trkpt><trkpt lat="49.64918" lon="-1.67011"><ele>24.97</ele></trkpt><trkpt lat="49.64909" lon="-1.67021"><ele>24.63</ele></trkpt><trkpt lat="49.64896" lon="-1.6704"><ele>24.8</ele></trkpt><trkpt lat="49.64882" lon="-1.67049"><ele>24.85</ele></trkpt><trkpt lat="49.64846" lon="-1.67084"><ele>24.74</ele></trkpt><trkpt lat="49.64831" lon="-1.67123"><ele>27.45</ele></trkpt><trkpt lat="49.64825" lon="-1.67147"><ele>30.31</ele></trkpt><trkpt lat="49.64819" lon="-1.67149"><ele>30.36</ele></trkpt><trkpt lat="49.64796" lon="-1.67151"><ele>32.06</ele></trkpt><trkpt lat="49.64779" lon="-1.6716"><ele>31.1</ele></trkpt><trkpt lat="49.6476" lon="-1.67185"><ele>31.33</ele></trkpt><trkpt lat="49.64735" lon="-1.67211"><ele>33.05</ele></trkpt><trkpt lat="49.64713" lon="-1.67272"><ele>33.14</ele></trkpt><trkpt lat="49.64698" lon="-1.67331"><ele>34.99</ele></trkpt><trkpt lat="49.64678" lon="-1.67395"><ele>35.94</ele></trkpt><trkpt lat="49.64649" lon="-1.67463"><ele>37.47</ele></trkpt><trkpt lat="49.6464" lon="-1.67476"><ele>38.35</ele></trkpt><trkpt lat="49.64629" lon="-1.67454"><ele>37.49</ele></trkpt><trkpt lat="49.64607" lon="-1.67422"><ele>38.56</ele></trkpt><trkpt lat="49.64601" lon="-1.67417"><ele>38.69</ele></trkpt><trkpt lat="49.64543" lon="-1.67391"><ele>42.62</ele></trkpt><trkpt lat="49.64534" lon="-1.67385"><ele>43.13</ele></trkpt><trkpt lat="49.64512" lon="-1.67365"><ele>45.17</ele></trkpt><trkpt lat="49.64503" lon="-1.67378"><ele>44.54</ele></trkpt><trkpt lat="49.64488" lon="-1.67386"><ele>43.23</ele></trkpt><trkpt lat="49.64453" lon="-1.674"><ele>39.86</ele></trkpt><trkpt lat="49.64444" lon="-1.67407"><ele>38.99</ele></trkpt><trkpt lat="49.64438" lon="-1.67417"><ele>38.33</ele></trkpt><trkpt lat="49.64436" lon="-1.67434"><ele>38.04</ele></trkpt><trkpt lat="49.64439" lon="-1.67543"><ele>40.21</ele></trkpt><trkpt lat="49.64435" lon="-1.67574"><ele>41.7</ele></trkpt><trkpt lat="49.64426" lon="-1.67609"><ele>42.47</ele></trkpt><trkpt lat="49.64413" lon="-1.67633"><ele>43.73</ele></trkpt><trkpt lat="49.64398" lon="-1.6765"><ele>45.52</ele></trkpt><trkpt lat="49.64399" lon="-1.67695"><ele>44.63</ele></trkpt><trkpt lat="49.64397" lon="-1.67723"><ele>43.26</ele></trkpt><trkpt lat="49.64387" lon="-1.67757"><ele>43.01</ele></trkpt><trkpt lat="49.64362" lon="-1.67813"><ele>43.17</ele></trkpt><trkpt lat="49.64367" lon="-1.67821"><ele>42.8</ele></trkpt><trkpt lat="49.6441" lon="-1.67869"><ele>41.1</ele></trkpt><trkpt lat="49.64425" lon="-1.67901"><ele>41.42</ele></trkpt><trkpt lat="49.64428" lon="-1.67914"><ele>41.86</ele></trkpt><trkpt lat="49.64429" lon="-1.67947"><ele>42.57</ele></trkpt><trkpt lat="49.6442" lon="-1.68029"><ele>45.11</ele></trkpt><trkpt lat="49.64383" lon="-1.68013"><ele>48.15</ele></trkpt><trkpt lat="49.6437" lon="-1.68013"><ele>48.91</ele></trkpt><trkpt lat="49.64353" lon="-1.68021"><ele>50.29</ele></trkpt><trkpt lat="49.64336" lon="-1.68032"><ele>52.09</ele></trkpt><trkpt lat="49.64311" lon="-1.68051"><ele>54.43</ele></trkpt><trkpt lat="49.64293" lon="-1.68069"><ele>57.28</ele></trkpt><trkpt lat="49.64284" lon="-1.68088"><ele>61.2</ele></trkpt><trkpt lat="49.64246" lon="-1.68218"><ele>67.76</ele></trkpt><trkpt lat="49.64231" lon="-1.68288"><ele>70.29</ele></trkpt><trkpt lat="49.64217" lon="-1.68342"><ele>71.43</ele></trkpt><trkpt lat="49.64178" lon="-1.68526"><ele>76.45</ele></trkpt><trkpt lat="49.64142" lon="-1.68679"><ele>83.44</ele></trkpt><trkpt lat="49.64138" lon="-1.68691"><ele>83.75</ele></trkpt><trkpt lat="49.64089" lon="-1.6878"><ele>86.45</ele></trkpt><trkpt lat="49.6406" lon="-1.68828"><ele>86.58</ele></trkpt><trkpt lat="49.64" lon="-1.68876"><ele>86.59</ele></trkpt><trkpt lat="49.63933" lon="-1.68935"><ele>86.58</ele></trkpt><trkpt lat="49.63985" lon="-1.69052"><ele>85.57</ele></trkpt><trkpt lat="49.64009" lon="-1.69112"><ele>82.56</ele></trkpt><trkpt lat="49.64015" lon="-1.69116"><ele>80.81</ele></trkpt><trkpt lat="49.64038" lon="-1.69116"><ele>79.15</ele></trkpt><trkpt lat="49.64048" lon="-1.69114"><ele>78.45</ele></trkpt><trkpt lat="49.64061" lon="-1.69108"><ele>77.68</ele></trkpt><trkpt lat="49.6408" lon="-1.69105"><ele>76.21</ele></trkpt><trkpt lat="49.64096" lon="-1.6909"><ele>74.61</ele></trkpt><trkpt lat="49.64104" lon="-1.69085"><ele>74.67</ele></trkpt><trkpt lat="49.64144" lon="-1.69078"><ele>70.86</ele></trkpt><trkpt lat="49.64173" lon="-1.69065"><ele>66.63</ele></trkpt><trkpt lat="49.64204" lon="-1.69042"><ele>62.93</ele></trkpt><trkpt lat="49.64233" lon="-1.6901"><ele>58.72</ele></trkpt><trkpt lat="49.64241" lon="-1.68999"><ele>57.86</ele></trkpt><trkpt lat="49.64279" lon="-1.68969"><ele>53.67</ele></trkpt><trkpt lat="49.64291" lon="-1.68949"><ele>52.81</ele></trkpt><trkpt lat="49.64306" lon="-1.68954"><ele>52.51</ele></trkpt><trkpt lat="49.64315" lon="-1.6896"><ele>52.49</ele></trkpt><trkpt lat="49.64342" lon="-1.6899"><ele>52.39</ele></trkpt><trkpt lat="49.64349" lon="-1.68991"><ele>52.45</ele></trkpt><trkpt lat="49.64417" lon="-1.68922"><ele>54.98</ele></trkpt><trkpt lat="49.64431" lon="-1.68906"><ele>55.18</ele></trkpt><trkpt lat="49.64458" lon="-1.6887"><ele>56.8</ele></trkpt><trkpt lat="49.64506" lon="-1.68786"><ele>62.21</ele></trkpt><trkpt lat="49.64536" lon="-1.68737"><ele>65.41</ele></trkpt><trkpt lat="49.6457" lon="-1.68689"><ele>71.61</ele></trkpt><trkpt lat="49.64578" lon="-1.68682"><ele>73.34</ele></trkpt><trkpt lat="49.64586" lon="-1.68678"><ele>74.77</ele></trkpt><trkpt lat="49.64613" lon="-1.68672"><ele>76.31</ele></trkpt><trkpt lat="49.64617" lon="-1.68681"><ele>75.94</ele></trkpt><trkpt lat="49.64651" lon="-1.6867"><ele>74.8</ele></trkpt><trkpt lat="49.64686" lon="-1.68652"><ele>72.73</ele></trkpt><trkpt lat="49.64692" lon="-1.68644"><ele>72.35</ele></trkpt><trkpt lat="49.64757" lon="-1.68493"><ele>69.61</ele></trkpt><trkpt lat="49.64786" lon="-1.68494"><ele>68.72</ele></trkpt><trkpt lat="49.64801" lon="-1.68459"><ele>68.58</ele></trkpt><trkpt lat="49.64822" lon="-1.68462"><ele>65.77</ele></trkpt><trkpt lat="49.64842" lon="-1.68384"><ele>63.15</ele></trkpt><trkpt lat="49.64912" lon="-1.68416"><ele>55.62</ele></trkpt><trkpt lat="49.64947" lon="-1.68421"><ele>51.42</ele></trkpt><trkpt lat="49.64966" lon="-1.68444"><ele>49.97</ele></trkpt><trkpt lat="49.64946" lon="-1.68537"><ele>52.39</ele></trkpt><trkpt lat="49.64902" lon="-1.68587"><ele>55.52</ele></trkpt><trkpt lat="49.64879" lon="-1.68634"><ele>58.28</ele></trkpt><trkpt lat="49.6486" lon="-1.68679"><ele>61.64</ele></trkpt><trkpt lat="49.64847" lon="-1.68791"><ele>64.96</ele></trkpt><trkpt lat="49.64858" lon="-1.68851"><ele>67.87</ele></trkpt><trkpt lat="49.64855" lon="-1.68962"><ele>71.62</ele></trkpt><trkpt lat="49.64819" lon="-1.69069"><ele>76.07</ele></trkpt><trkpt lat="49.64803" lon="-1.6911"><ele>76.63</ele></trkpt><trkpt lat="49.64788" lon="-1.69166"><ele>81.1</ele></trkpt><trkpt lat="49.64771" lon="-1.69215"><ele>83.46</ele></trkpt><trkpt lat="49.64736" lon="-1.69275"><ele>86.05</ele></trkpt><trkpt lat="49.64783" lon="-1.69448"><ele>91.87</ele></trkpt><trkpt lat="49.64778" lon="-1.69567"><ele>93.79</ele></trkpt><trkpt lat="49.64783" lon="-1.69587"><ele>93.06</ele></trkpt><trkpt lat="49.64693" lon="-1.69713"><ele>95.78</ele></trkpt><trkpt lat="49.64664" lon="-1.6974"><ele>97.18</ele></trkpt><trkpt lat="49.64624" lon="-1.69746"><ele>97.98</ele></trkpt><trkpt lat="49.64629" lon="-1.6977"><ele>96.68</ele></trkpt><trkpt lat="49.64657" lon="-1.69852"><ele>89.69</ele></trkpt><trkpt lat="49.64702" lon="-1.69996"><ele>82.69</ele></trkpt><trkpt lat="49.6471" lon="-1.70017"><ele>81.23</ele></trkpt><trkpt lat="49.64719" lon="-1.70039"><ele>79.77</ele></trkpt><trkpt lat="49.64732" lon="-1.70063"><ele>78.28</ele></trkpt><trkpt lat="49.64738" lon="-1.70071"><ele>77.78</ele></trkpt><trkpt lat="49.64753" lon="-1.70105"><ele>74.83</ele></trkpt><trkpt lat="49.64775" lon="-1.70181"><ele>66.04</ele></trkpt><trkpt lat="49.64779" lon="-1.70185"><ele>65.65</ele></trkpt><trkpt lat="49.64791" lon="-1.70184"><ele>63.35</ele></trkpt><trkpt lat="49.64797" lon="-1.70187"><ele>62.47</ele></trkpt><trkpt lat="49.64829" lon="-1.70333"><ele>56.96</ele></trkpt><trkpt lat="49.64833" lon="-1.70356"><ele>62.87</ele></trkpt><trkpt lat="49.64829" lon="-1.70363"><ele>64.49</ele></trkpt><trkpt lat="49.64808" lon="-1.70374"><ele>68.78</ele></trkpt><trkpt lat="49.64802" lon="-1.70388"><ele>70.97</ele></trkpt><trkpt lat="49.64801" lon="-1.70428"><ele>76.85</ele></trkpt><trkpt lat="49.64802" lon="-1.70479"><ele>83.66</ele></trkpt><trkpt lat="49.64811" lon="-1.70643"><ele>90.72</ele></trkpt><trkpt lat="49.64811" lon="-1.70656"><ele>90.9</ele></trkpt><trkpt lat="49.64809" lon="-1.70666"><ele>90.59</ele></trkpt><trkpt lat="49.64849" lon="-1.70673"><ele>87.9</ele></trkpt><trkpt lat="49.64905" lon="-1.70687"><ele>84.32</ele></trkpt><trkpt lat="49.64932" lon="-1.70692"><ele>82.6</ele></trkpt><trkpt lat="49.64945" lon="-1.70692"><ele>82.17</ele></trkpt><trkpt lat="49.64953" lon="-1.7069"><ele>82.07</ele></trkpt><trkpt lat="49.64963" lon="-1.70684"><ele>81.99</ele></trkpt><trkpt lat="49.64985" lon="-1.70659"><ele>82.17</ele></trkpt><trkpt lat="49.65003" lon="-1.70631"><ele>82.28</ele></trkpt><trkpt lat="49.65022" lon="-1.70606"><ele>81.87</ele></trkpt><trkpt lat="49.65057" lon="-1.70568"><ele>79.01</ele></trkpt><trkpt lat="49.6508" lon="-1.70555"><ele>77.04</ele></trkpt><trkpt lat="49.65185" lon="-1.70511"><ele>67.53</ele></trkpt><trkpt lat="49.65193" lon="-1.70507"><ele>67</ele></trkpt><trkpt lat="49.65209" lon="-1.70494"><ele>65.72</ele></trkpt><trkpt lat="49.65226" lon="-1.70474"><ele>64.66</ele></trkpt><trkpt lat="49.65312" lon="-1.70356"><ele>56.42</ele></trkpt><trkpt lat="49.65323" lon="-1.70334"><ele>55.45</ele></trkpt><trkpt lat="49.65328" lon="-1.7032"><ele>54.59</ele></trkpt><trkpt lat="49.65336" lon="-1.70287"><ele>52.14</ele></trkpt><trkpt lat="49.6534" lon="-1.70257"><ele>48.37</ele></trkpt><trkpt lat="49.65345" lon="-1.70246"><ele>46.96</ele></trkpt><trkpt lat="49.6536" lon="-1.70222"><ele>44.06</ele></trkpt><trkpt lat="49.6539" lon="-1.70182"><ele>38.13</ele></trkpt><trkpt lat="49.65437" lon="-1.70141"><ele>33.12</ele></trkpt><trkpt lat="49.6546" lon="-1.70116"><ele>29.43</ele></trkpt><trkpt lat="49.65479" lon="-1.70091"><ele>27.24</ele></trkpt><trkpt lat="49.65495" lon="-1.70064"><ele>24.66</ele></trkpt><trkpt lat="49.6551" lon="-1.70031"><ele>22.74</ele></trkpt><trkpt lat="49.65528" lon="-1.69983"><ele>20.69</ele></trkpt><trkpt lat="49.65536" lon="-1.69967"><ele>19.98</ele></trkpt><trkpt lat="49.65514" lon="-1.69967"><ele>20.57</ele></trkpt><trkpt lat="49.65519" lon="-1.69908"><ele>24.51</ele></trkpt><trkpt lat="49.65513" lon="-1.69828"><ele>29.06</ele></trkpt><trkpt lat="49.65512" lon="-1.69785"><ele>27.59</ele></trkpt><trkpt lat="49.65508" lon="-1.69743"><ele>26.67</ele></trkpt><trkpt lat="49.6553" lon="-1.69661"><ele>22.65</ele></trkpt><trkpt lat="49.65573" lon="-1.69561"><ele>20.54</ele></trkpt><trkpt lat="49.6556" lon="-1.69489"><ele>22.28</ele></trkpt><trkpt lat="49.65624" lon="-1.69469"><ele>17.56</ele></trkpt><trkpt lat="49.65655" lon="-1.69463"><ele>14.77</ele></trkpt><trkpt lat="49.65687" lon="-1.69463"><ele>13.19</ele></trkpt><trkpt lat="49.65708" lon="-1.69471"><ele>10.7</ele></trkpt><trkpt lat="49.65731" lon="-1.69454"><ele>10.71</ele></trkpt><trkpt lat="49.65757" lon="-1.69508"><ele>11.39</ele></trkpt><trkpt lat="49.65766" lon="-1.69506"><ele>11.33</ele></trkpt><trkpt lat="49.65773" lon="-1.69473"><ele>9.31</ele></trkpt><trkpt lat="49.65818" lon="-1.69471"><ele>8.59</ele></trkpt><trkpt lat="49.65855" lon="-1.69443"><ele>8.4</ele></trkpt><trkpt lat="49.6591" lon="-1.69491"><ele>10.86</ele></trkpt><trkpt lat="49.65982" lon="-1.69463"><ele>9.19</ele></trkpt><trkpt lat="49.66014" lon="-1.69478"><ele>9.47</ele></trkpt><trkpt lat="49.66032" lon="-1.69541"><ele>11</ele></trkpt><trkpt lat="49.65937" lon="-1.69646"><ele>16.86</ele></trkpt><trkpt lat="49.6601" lon="-1.69696"><ele>18.92</ele></trkpt><trkpt lat="49.66007" lon="-1.69717"><ele>19.72</ele></trkpt><trkpt lat="49.66003" lon="-1.69812"><ele>30.37</ele></trkpt><trkpt lat="49.6598" lon="-1.69922"><ele>41.79</ele></trkpt><trkpt lat="49.65962" lon="-1.69986"><ele>46.12</ele></trkpt><trkpt lat="49.65988" lon="-1.70093"><ele>35.03</ele></trkpt><trkpt lat="49.66036" lon="-1.70064"><ele>25.48</ele></trkpt><trkpt lat="49.66063" lon="-1.70082"><ele>25.53</ele></trkpt><trkpt lat="49.66065" lon="-1.70099"><ele>26.47</ele></trkpt><trkpt lat="49.66071" lon="-1.70116"><ele>32.92</ele></trkpt><trkpt lat="49.66079" lon="-1.70066"><ele>33.86</ele></trkpt><trkpt lat="49.66082" lon="-1.7009"><ele>35.55</ele></trkpt><trkpt lat="49.66105" lon="-1.70066"><ele>40.99</ele></trkpt><trkpt lat="49.66164" lon="-1.7009"><ele>48.94</ele></trkpt><trkpt lat="49.6619" lon="-1.69907"><ele>33.5</ele></trkpt><trkpt lat="49.66273" lon="-1.69887"><ele>33.67</ele></trkpt><trkpt lat="49.6634" lon="-1.6984"><ele>34.72</ele></trkpt><trkpt lat="49.66401" lon="-1.69778"><ele>36.52</ele></trkpt><trkpt lat="49.6638" lon="-1.69739"><ele>31.36</ele></trkpt><trkpt lat="49.66376" lon="-1.69703"><ele>25.02</ele></trkpt><trkpt lat="49.66432" lon="-1.69681"><ele>25.69</ele></trkpt><trkpt lat="49.66474" lon="-1.6967"><ele>24.74</ele></trkpt><trkpt lat="49.66469" lon="-1.69708"><ele>26.71</ele></trkpt><trkpt lat="49.66475" lon="-1.69737"><ele>29.21</ele></trkpt><trkpt lat="49.66457" lon="-1.69737"><ele>32.95</ele></trkpt><trkpt lat="49.66468" lon="-1.69751"><ele>36.17</ele></trkpt><trkpt lat="49.6644" lon="-1.69758"><ele>35.8</ele></trkpt><trkpt lat="49.66418" lon="-1.69777"><ele>36.46</ele></trkpt><trkpt lat="49.66402" lon="-1.69846"><ele>42.99</ele></trkpt><trkpt lat="49.66391" lon="-1.69954"><ele>51.54</ele></trkpt><trkpt lat="49.66385" lon="-1.6998"><ele>53.19</ele></trkpt><trkpt lat="49.66414" lon="-1.70005"><ele>56.56</ele></trkpt><trkpt lat="49.66447" lon="-1.7005"><ele>54.29</ele></trkpt><trkpt lat="49.66478" lon="-1.70084"><ele>49.29</ele></trkpt><trkpt lat="49.66504" lon="-1.70111"><ele>42.52</ele></trkpt><trkpt lat="49.66531" lon="-1.70144"><ele>37.15</ele></trkpt><trkpt lat="49.66563" lon="-1.70128"><ele>29.59</ele></trkpt><trkpt lat="49.66576" lon="-1.70131"><ele>24.61</ele></trkpt><trkpt lat="49.66581" lon="-1.70169"><ele>24.01</ele></trkpt><trkpt lat="49.66631" lon="-1.70155"><ele>16.84</ele></trkpt><trkpt lat="49.66748" lon="-1.7018"><ele>9.53</ele></trkpt><trkpt lat="49.66757" lon="-1.7018"><ele>9.75</ele></trkpt><trkpt lat="49.6676" lon="-1.7015"><ele>9.76</ele></trkpt><trkpt lat="49.66761" lon="-1.70109"><ele>9.92</ele></trkpt><trkpt lat="49.66788" lon="-1.70129"><ele>9.33</ele></trkpt><trkpt lat="49.66809" lon="-1.70136"><ele>9.25</ele></trkpt><trkpt lat="49.66824" lon="-1.70143"><ele>9.32</ele></trkpt><trkpt lat="49.66835" lon="-1.70151"><ele>9.35</ele></trkpt><trkpt lat="49.66854" lon="-1.70156"><ele>9.45</ele></trkpt><trkpt lat="49.66896" lon="-1.70161"><ele>9.08</ele></trkpt><trkpt lat="49.6697" lon="-1.70183"><ele>6.86</ele></trkpt><trkpt lat="49.67007" lon="-1.70197"><ele>5.58</ele></trkpt><trkpt lat="49.6699" lon="-1.7011"><ele>6.14</ele></trkpt><trkpt lat="49.66982" lon="-1.70045"><ele>6.26</ele></trkpt><trkpt lat="49.66976" lon="-1.6997"><ele>6.61</ele></trkpt><trkpt lat="49.66975" lon="-1.69934"><ele>6.48</ele></trkpt><trkpt lat="49.66963" lon="-1.6984"><ele>6.73</ele></trkpt><trkpt lat="49.66958" lon="-1.69765"><ele>6.37</ele></trkpt><trkpt lat="49.66957" lon="-1.69662"><ele>6.74</ele></trkpt><trkpt lat="49.66967" lon="-1.69654"><ele>6.5</ele></trkpt><trkpt lat="49.66973" lon="-1.69645"><ele>6.56</ele></trkpt><trkpt lat="49.66983" lon="-1.69624"><ele>6.58</ele></trkpt><trkpt lat="49.66993" lon="-1.69586"><ele>6.58</ele></trkpt><trkpt lat="49.66999" lon="-1.69549"><ele>6.62</ele></trkpt><trkpt lat="49.67017" lon="-1.69467"><ele>6.7</ele></trkpt><trkpt lat="49.67027" lon="-1.6943"><ele>6.48</ele></trkpt><trkpt lat="49.67046" lon="-1.6939"><ele>6.55</ele></trkpt><trkpt lat="49.67112" lon="-1.69229"><ele>6.67</ele></trkpt><trkpt lat="49.67185" lon="-1.68992"><ele>6.83</ele></trkpt><trkpt lat="49.67236" lon="-1.68846"><ele>6</ele></trkpt><trkpt lat="49.67287" lon="-1.68763"><ele>5.66</ele></trkpt><trkpt lat="49.67293" lon="-1.68757"><ele>5.6</ele></trkpt><trkpt lat="49.67297" lon="-1.68743"><ele>5.21</ele></trkpt><trkpt lat="49.67297" lon="-1.68733"><ele>5.19</ele></trkpt><trkpt lat="49.67295" lon="-1.68725"><ele>5.22</ele></trkpt><trkpt lat="49.6727" lon="-1.68688"><ele>5.36</ele></trkpt><trkpt lat="49.67254" lon="-1.68671"><ele>5.26</ele></trkpt><trkpt lat="49.67194" lon="-1.68579"><ele>5.05</ele></trkpt><trkpt lat="49.67176" lon="-1.68564"><ele>5.28</ele></trkpt><trkpt lat="49.67136" lon="-1.68554"><ele>5.03</ele></trkpt><trkpt lat="49.67128" lon="-1.68548"><ele>5.23</ele></trkpt><trkpt lat="49.67121" lon="-1.68522"><ele>5.11</ele></trkpt><trkpt lat="49.67111" lon="-1.68451"><ele>5.29</ele></trkpt><trkpt lat="49.671" lon="-1.68396"><ele>5.22</ele></trkpt><trkpt lat="49.67089" lon="-1.68351"><ele>5.08</ele></trkpt><trkpt lat="49.67085" lon="-1.68341"><ele>5.05</ele></trkpt><trkpt lat="49.67067" lon="-1.68322"><ele>4.74</ele></trkpt><trkpt lat="49.67023" lon="-1.68265"><ele>4.86</ele></trkpt><trkpt lat="49.66952" lon="-1.6822"><ele>5.35</ele></trkpt><trkpt lat="49.66936" lon="-1.68216"><ele>5.5</ele></trkpt><trkpt lat="49.66906" lon="-1.68218"><ele>5.7</ele></trkpt><trkpt lat="49.66911" lon="-1.6821"><ele>5.71</ele></trkpt><trkpt lat="49.66845" lon="-1.68321"><ele>6.46</ele></trkpt><trkpt lat="49.66801" lon="-1.68389"><ele>7.01</ele></trkpt><trkpt lat="49.66781" lon="-1.68414"><ele>7.29</ele></trkpt><trkpt lat="49.66756" lon="-1.6844"><ele>7.43</ele></trkpt><trkpt lat="49.66734" lon="-1.68459"><ele>7.45</ele></trkpt><trkpt lat="49.66728" lon="-1.68449"><ele>7.53</ele></trkpt><trkpt lat="49.66723" lon="-1.68445"><ele>7.46</ele></trkpt><trkpt lat="49.66711" lon="-1.68446"><ele>7.22</ele></trkpt><trkpt lat="49.667" lon="-1.6845"><ele>7.25</ele></trkpt><trkpt lat="49.66658" lon="-1.68454"><ele>7.31</ele></trkpt><trkpt lat="49.66618" lon="-1.68453"><ele>7.53</ele></trkpt><trkpt lat="49.66608" lon="-1.68451"><ele>7.5</ele></trkpt><trkpt lat="49.66553" lon="-1.68405"><ele>7.8</ele></trkpt><trkpt lat="49.66551" lon="-1.684"><ele>7.83</ele></trkpt><trkpt lat="49.66518" lon="-1.68373"><ele>8.13</ele></trkpt><trkpt lat="49.66506" lon="-1.68357"><ele>7.93</ele></trkpt><trkpt lat="49.66447" lon="-1.68308"><ele>7.84</ele></trkpt><trkpt lat="49.66407" lon="-1.68268"><ele>7.83</ele></trkpt><trkpt lat="49.66371" lon="-1.68212"><ele>7.14</ele></trkpt><trkpt lat="49.66337" lon="-1.68164"><ele>5.91</ele></trkpt><trkpt lat="49.6627" lon="-1.68087"><ele>5.04</ele></trkpt><trkpt lat="49.66263" lon="-1.68082"><ele>4.83</ele></trkpt><trkpt lat="49.66256" lon="-1.68081"><ele>5.24</ele></trkpt><trkpt lat="49.66205" lon="-1.68037"><ele>4.13</ele></trkpt><trkpt lat="49.66194" lon="-1.68025"><ele>5.49</ele></trkpt><trkpt lat="49.66197" lon="-1.68014"><ele>5.5</ele></trkpt><trkpt lat="49.66211" lon="-1.67994"><ele>5.64</ele></trkpt><trkpt lat="49.66212" lon="-1.67973"><ele>5.89</ele></trkpt><trkpt lat="49.66209" lon="-1.67962"><ele>5.98</ele></trkpt><trkpt lat="49.6605" lon="-1.67697"><ele>6.13</ele></trkpt><trkpt lat="49.65813" lon="-1.67292"><ele>6.04</ele></trkpt><trkpt lat="49.65797" lon="-1.67252"><ele>6.1</ele></trkpt><trkpt lat="49.65784" lon="-1.6721"><ele>6.06</ele></trkpt><trkpt lat="49.65775" lon="-1.67172"><ele>5.95</ele></trkpt><trkpt lat="49.65767" lon="-1.67103"><ele>5.99</ele></trkpt><trkpt lat="49.65765" lon="-1.67058"><ele>5.89</ele></trkpt><trkpt lat="49.65768" lon="-1.67005"><ele>6.01</ele></trkpt><trkpt lat="49.65777" lon="-1.66951"><ele>6.19</ele></trkpt><trkpt lat="49.65788" lon="-1.66906"><ele>5.95</ele></trkpt><trkpt lat="49.65786" lon="-1.669"><ele>5.99</ele></trkpt><trkpt lat="49.65774" lon="-1.66899"><ele>7.52</ele></trkpt><trkpt lat="49.65745" lon="-1.66892"><ele>8.51</ele></trkpt><trkpt lat="49.65742" lon="-1.669"><ele>8.41</ele></trkpt><trkpt lat="49.65739" lon="-1.66922"><ele>8.24</ele></trkpt><trkpt lat="49.65731" lon="-1.66922"><ele>8.18</ele></trkpt><trkpt lat="49.65713" lon="-1.66919"><ele>8.16</ele></trkpt></trkseg></trk></gpx>
