<?xml version="1.0" encoding="UTF-8" standalone="no"?>
<gpx xmlns="http://www.topografix.com/GPX/1/1" version="1.1" xmlns:xsi="http://www.w3.org/2001/XMLSchema-instance" xsi:schemaLocation="http://www.topografix.com/GPX/1/1 http://www.topografix.com/GPX/1/1/gpx.xsd" creator="Cirkwi"><metadata><name><![CDATA[GR®223 - Saint-Vaast-la-Hougue - Phare de Gatteville]]></name><desc><![CDATA[Cette étape de 17 km entre Saint-Vaast-la-Hougue et le phare de Gatteville alterne entre bord de mer, bocage, pâturages et cultures maraîchères. Au départ de Saint-Vaast-la-Hougue, vous quittez un temps le bord de mer pour traverser la pointe de Saire et ses hameaux et villages typiques. Vous le retrouvez à la pointe de la Loge pour ne plus la quitter jusqu’à votre arrivée. Encore quelques kilomètres à parcourir entre criques et dunes avant d’arriver à Barfleur, classé parmi les plus beaux villages de France. Ce petit port de pêche pittoresque est reconnaissable avec ses maisons de granit couvertes de schiste et son église massive. Profitez-en pour faire une pause gourmande composée d’huîtres ou de moules 100% Manche et recharger les batteries ! Reprenez ensuite votre route le long des différents havres : havre du Crabec, havre de Flicmare et le havre de Houlvi pour rejoindre le point d’arrivée : le phare de Gatteville. Construit entre 1829 et 1834 avec plus de 11.000 pierres de taille en granit, il permet du haut de ses 75 mètres de guider les navigateurs dans le dangereux passage du raz de Barfleur. Une visite sportive mais à la vue époustouflante, à ne pas manquer !]]></desc><author><name><![CDATA[Attitude Manche]]></name></author><link href="http://fichier0.cirkwi.com/image/photo/circuit/1300x1300/483129/fr/0.jpg"><text><![CDATA[Saint-Vaast---Tatihou-11.jpg-2000px|]]></text></link><link href="http://fichier0.cirkwi.com/image/photo/circuit/1300x1300/483129/fr/1.jpg"><text><![CDATA[Saint-Vaast---Tatihou-5.jpg-2000px|]]></text></link><link href="http://fichier0.cirkwi.com/image/photo/circuit/1300x1300/483129/fr/2.jpg"><text><![CDATA[Saint-Vaast---Tatihou-79.jpg-2000px|]]></text></link><link href="http://fichier0.cirkwi.com/image/photo/circuit/1300x1300/483129/fr/3.jpg"><text><![CDATA[Port-de-Barfleur---Bateaux---Fin-de-journee.jpg-2000px|]]></text></link><link href="http://fichier0.cirkwi.com/image/photo/circuit/1300x1300/483129/fr/4.jpg"><text><![CDATA[Barfleur-31|]]></text></link><link href="http://fichier0.cirkwi.com/image/photo/circuit/1300x1300/483129/fr/5.jpg"><text><![CDATA[Phare-de-Gatteville---Lever-de-soleil.jpg-2000px|]]></text></link><link href="http://fichier0.cirkwi.com/image/photo/circuit/1300x1300/483129/fr/6.jpg"><text><![CDATA[Rando-Cap-Levi-Gatteville-78.jpg-2000px|]]></text></link><link href="http://fichier0.cirkwi.com/image/photo/circuit/1300x1300/483129/fr/7.jpg"><text><![CDATA[2019_Gatteville_phare-Captain_Yvon.jpg-2000px|Gregory MIGNARD - gregorymignard.com]]></text></link><time>2025-12-15T10:25:10Z</time></metadata><trk><trkseg><trkpt lat="49.58535" lon="-1.26237"><ele>4.88</ele></trkpt><trkpt lat="49.58544" lon="-1.26218"><ele>4.13</ele></trkpt><trkpt lat="49.5857" lon="-1.26203"><ele>2.9</ele></trkpt><trkpt lat="49.5858" lon="-1.26198"><ele>2.59</ele></trkpt><trkpt lat="49.58588" lon="-1.26197"><ele>4.08</ele></trkpt><trkpt lat="49.58601" lon="-1.26196"><ele>0</ele></trkpt><trkpt lat="49.5861" lon="-1.26197"><ele>0</ele></trkpt><trkpt lat="49.5861" lon="-1.26199"><ele>0</ele></trkpt><trkpt lat="49.58618" lon="-1.26199"><ele>0</ele></trkpt><trkpt lat="49.5862" lon="-1.26219"><ele>3.93</ele></trkpt><trkpt lat="49.5862" lon="-1.26291"><ele>1.17</ele></trkpt><trkpt lat="49.58619" lon="-1.26353"><ele>4.31</ele></trkpt><trkpt lat="49.58631" lon="-1.26381"><ele>2.84</ele></trkpt><trkpt lat="49.58631" lon="-1.26383"><ele>3.6</ele></trkpt><trkpt lat="49.58653" lon="-1.26437"><ele>3.18</ele></trkpt><trkpt lat="49.58854" lon="-1.26583"><ele>1.59</ele></trkpt><trkpt lat="49.58862" lon="-1.26589"><ele>4.33</ele></trkpt><trkpt lat="49.58932" lon="-1.2661"><ele>4.28</ele></trkpt><trkpt lat="49.58942" lon="-1.26611"><ele>4.23</ele></trkpt><trkpt lat="49.58953" lon="-1.26594"><ele>2.28</ele></trkpt><trkpt lat="49.58962" lon="-1.26583"><ele>2.93</ele></trkpt><trkpt lat="49.58967" lon="-1.2659"><ele>4.66</ele></trkpt><trkpt lat="49.58974" lon="-1.26601"><ele>4.55</ele></trkpt><trkpt lat="49.59002" lon="-1.26628"><ele>4.72</ele></trkpt><trkpt lat="49.59011" lon="-1.26636"><ele>5.44</ele></trkpt><trkpt lat="49.59224" lon="-1.26662"><ele>5.51</ele></trkpt><trkpt lat="49.59273" lon="-1.26667"><ele>5.55</ele></trkpt><trkpt lat="49.59437" lon="-1.26568"><ele>5.16</ele></trkpt><trkpt lat="49.5967" lon="-1.26426"><ele>5.05</ele></trkpt><trkpt lat="49.59802" lon="-1.26346"><ele>5.18</ele></trkpt><trkpt lat="49.59874" lon="-1.26302"><ele>5.06</ele></trkpt><trkpt lat="49.59934" lon="-1.26265"><ele>5.29</ele></trkpt><trkpt lat="49.60056" lon="-1.26155"><ele>5.2</ele></trkpt><trkpt lat="49.60161" lon="-1.26058"><ele>5.16</ele></trkpt><trkpt lat="49.60239" lon="-1.26025"><ele>4.94</ele></trkpt><trkpt lat="49.60289" lon="-1.25988"><ele>5.02</ele></trkpt><trkpt lat="49.60397" lon="-1.25914"><ele>5.24</ele></trkpt><trkpt lat="49.6048" lon="-1.25861"><ele>4.59</ele></trkpt><trkpt lat="49.60567" lon="-1.25809"><ele>4.7</ele></trkpt><trkpt lat="49.60586" lon="-1.25798"><ele>5.5</ele></trkpt><trkpt lat="49.6065" lon="-1.25761"><ele>5.75</ele></trkpt><trkpt lat="49.60733" lon="-1.25713"><ele>6.36</ele></trkpt><trkpt lat="49.6078" lon="-1.25685"><ele>6.29</ele></trkpt><trkpt lat="49.60842" lon="-1.25636"><ele>4.79</ele></trkpt><trkpt lat="49.60872" lon="-1.25613"><ele>3.36</ele></trkpt><trkpt lat="49.60961" lon="-1.25547"><ele>4.3</ele></trkpt><trkpt lat="49.60996" lon="-1.2552"><ele>4.19</ele></trkpt><trkpt lat="49.61011" lon="-1.25508"><ele>4.64</ele></trkpt><trkpt lat="49.61069" lon="-1.25482"><ele>3.79</ele></trkpt><trkpt lat="49.61095" lon="-1.2547"><ele>3.3</ele></trkpt><trkpt lat="49.61103" lon="-1.25468"><ele>4.15</ele></trkpt><trkpt lat="49.61118" lon="-1.25501"><ele>3.97</ele></trkpt><trkpt lat="49.61131" lon="-1.25534"><ele>3.95</ele></trkpt><trkpt lat="49.61169" lon="-1.25627"><ele>4.53</ele></trkpt><trkpt lat="49.61176" lon="-1.25625"><ele>4.58</ele></trkpt><trkpt lat="49.61221" lon="-1.25611"><ele>0</ele></trkpt><trkpt lat="49.61229" lon="-1.25609"><ele>0</ele></trkpt><trkpt lat="49.61237" lon="-1.25606"><ele>0</ele></trkpt><trkpt lat="49.61246" lon="-1.25603"><ele>5.22</ele></trkpt><trkpt lat="49.61259" lon="-1.25599"><ele>5.12</ele></trkpt><trkpt lat="49.61284" lon="-1.25591"><ele>4.97</ele></trkpt><trkpt lat="49.61303" lon="-1.25572"><ele>4.16</ele></trkpt><trkpt lat="49.613" lon="-1.25534"><ele>3.93</ele></trkpt><trkpt lat="49.61289" lon="-1.25491"><ele>3.84</ele></trkpt><trkpt lat="49.61279" lon="-1.25445"><ele>3.82</ele></trkpt><trkpt lat="49.61279" lon="-1.25444"><ele>3.82</ele></trkpt><trkpt lat="49.61269" lon="-1.25397"><ele>3.89</ele></trkpt><trkpt lat="49.61264" lon="-1.25366"><ele>3.99</ele></trkpt><trkpt lat="49.6126" lon="-1.25326"><ele>3.9</ele></trkpt><trkpt lat="49.61259" lon="-1.25298"><ele>3.91</ele></trkpt><trkpt lat="49.61258" lon="-1.25272"><ele>3.97</ele></trkpt><trkpt lat="49.61256" lon="-1.25217"><ele>4.11</ele></trkpt><trkpt lat="49.61255" lon="-1.25176"><ele>4.19</ele></trkpt><trkpt lat="49.61255" lon="-1.25168"><ele>4.25</ele></trkpt><trkpt lat="49.61258" lon="-1.25117"><ele>4.14</ele></trkpt><trkpt lat="49.61259" lon="-1.25091"><ele>4.02</ele></trkpt><trkpt lat="49.61261" lon="-1.2507"><ele>4</ele></trkpt><trkpt lat="49.61263" lon="-1.25052"><ele>3.97</ele></trkpt><trkpt lat="49.61265" lon="-1.25029"><ele>3.95</ele></trkpt><trkpt lat="49.61269" lon="-1.24976"><ele>4.03</ele></trkpt><trkpt lat="49.6127" lon="-1.24925"><ele>4.01</ele></trkpt><trkpt lat="49.61271" lon="-1.24903"><ele>4.24</ele></trkpt><trkpt lat="49.61275" lon="-1.24892"><ele>4.18</ele></trkpt><trkpt lat="49.61279" lon="-1.24885"><ele>3.99</ele></trkpt><trkpt lat="49.61288" lon="-1.24875"><ele>3.99</ele></trkpt><trkpt lat="49.61293" lon="-1.24871"><ele>3.91</ele></trkpt><trkpt lat="49.61305" lon="-1.24861"><ele>4.02</ele></trkpt><trkpt lat="49.61326" lon="-1.24844"><ele>4.12</ele></trkpt><trkpt lat="49.61343" lon="-1.24833"><ele>4.13</ele></trkpt><trkpt lat="49.61363" lon="-1.24825"><ele>4.24</ele></trkpt><trkpt lat="49.61388" lon="-1.24816"><ele>4.44</ele></trkpt><trkpt lat="49.61399" lon="-1.24812"><ele>4.54</ele></trkpt><trkpt lat="49.61403" lon="-1.2481"><ele>4.58</ele></trkpt><trkpt lat="49.61412" lon="-1.24806"><ele>4.68</ele></trkpt><trkpt lat="49.61414" lon="-1.24805"><ele>4.81</ele></trkpt><trkpt lat="49.61428" lon="-1.24796"><ele>5.1</ele></trkpt><trkpt lat="49.61449" lon="-1.24785"><ele>5.65</ele></trkpt><trkpt lat="49.61455" lon="-1.24783"><ele>5.75</ele></trkpt><trkpt lat="49.61471" lon="-1.24777"><ele>6.23</ele></trkpt><trkpt lat="49.61492" lon="-1.24766"><ele>6.57</ele></trkpt><trkpt lat="49.61514" lon="-1.24755"><ele>6.78</ele></trkpt><trkpt lat="49.61549" lon="-1.24736"><ele>6.77</ele></trkpt><trkpt lat="49.61584" lon="-1.24719"><ele>6.6</ele></trkpt><trkpt lat="49.61605" lon="-1.24711"><ele>6.51</ele></trkpt><trkpt lat="49.61628" lon="-1.24702"><ele>6.57</ele></trkpt><trkpt lat="49.61638" lon="-1.247"><ele>6.51</ele></trkpt><trkpt lat="49.61646" lon="-1.24701"><ele>6.49</ele></trkpt><trkpt lat="49.61657" lon="-1.24702"><ele>6.53</ele></trkpt><trkpt lat="49.61674" lon="-1.24704"><ele>6.67</ele></trkpt><trkpt lat="49.61704" lon="-1.24708"><ele>6.88</ele></trkpt><trkpt lat="49.6173" lon="-1.24712"><ele>7</ele></trkpt><trkpt lat="49.61744" lon="-1.24715"><ele>6.97</ele></trkpt><trkpt lat="49.61748" lon="-1.24738"><ele>7.12</ele></trkpt><trkpt lat="49.61752" lon="-1.24759"><ele>7.17</ele></trkpt><trkpt lat="49.61761" lon="-1.24809"><ele>7.05</ele></trkpt><trkpt lat="49.61769" lon="-1.24845"><ele>6.88</ele></trkpt><trkpt lat="49.61774" lon="-1.24867"><ele>6.52</ele></trkpt><trkpt lat="49.61776" lon="-1.24872"><ele>6.45</ele></trkpt><trkpt lat="49.61778" lon="-1.24878"><ele>6.49</ele></trkpt><trkpt lat="49.61779" lon="-1.24882"><ele>6.37</ele></trkpt><trkpt lat="49.61781" lon="-1.24889"><ele>6.12</ele></trkpt><trkpt lat="49.61782" lon="-1.24894"><ele>5.99</ele></trkpt><trkpt lat="49.6179" lon="-1.24889"><ele>6.01</ele></trkpt><trkpt lat="49.61806" lon="-1.24872"><ele>6.41</ele></trkpt><trkpt lat="49.61915" lon="-1.24802"><ele>6.44</ele></trkpt><trkpt lat="49.61926" lon="-1.2479"><ele>6.88</ele></trkpt><trkpt lat="49.61946" lon="-1.24777"><ele>7.06</ele></trkpt><trkpt lat="49.61958" lon="-1.24769"><ele>7.15</ele></trkpt><trkpt lat="49.61963" lon="-1.24768"><ele>7.11</ele></trkpt><trkpt lat="49.6197" lon="-1.24768"><ele>7.09</ele></trkpt><trkpt lat="49.61978" lon="-1.24767"><ele>7.2</ele></trkpt><trkpt lat="49.61987" lon="-1.24766"><ele>7.21</ele></trkpt><trkpt lat="49.61991" lon="-1.24765"><ele>7.21</ele></trkpt><trkpt lat="49.62005" lon="-1.24762"><ele>7.26</ele></trkpt><trkpt lat="49.62019" lon="-1.2476"><ele>7.28</ele></trkpt><trkpt lat="49.62053" lon="-1.2475"><ele>7.58</ele></trkpt><trkpt lat="49.62084" lon="-1.24741"><ele>7.68</ele></trkpt><trkpt lat="49.62098" lon="-1.24736"><ele>7.48</ele></trkpt><trkpt lat="49.62104" lon="-1.24742"><ele>7.56</ele></trkpt><trkpt lat="49.62125" lon="-1.24763"><ele>7.75</ele></trkpt><trkpt lat="49.62137" lon="-1.24778"><ele>8.02</ele></trkpt><trkpt lat="49.62151" lon="-1.24802"><ele>8.15</ele></trkpt><trkpt lat="49.62163" lon="-1.24798"><ele>8.59</ele></trkpt><trkpt lat="49.62184" lon="-1.24789"><ele>9.17</ele></trkpt><trkpt lat="49.62204" lon="-1.2478"><ele>9.43</ele></trkpt><trkpt lat="49.62219" lon="-1.24774"><ele>9.51</ele></trkpt><trkpt lat="49.6223" lon="-1.24769"><ele>9.64</ele></trkpt><trkpt lat="49.62236" lon="-1.24766"><ele>9.56</ele></trkpt><trkpt lat="49.62244" lon="-1.24762"><ele>9.59</ele></trkpt><trkpt lat="49.62248" lon="-1.2476"><ele>9.47</ele></trkpt><trkpt lat="49.62252" lon="-1.24757"><ele>9.47</ele></trkpt><trkpt lat="49.62257" lon="-1.24747"><ele>9.53</ele></trkpt><trkpt lat="49.62265" lon="-1.24703"><ele>9.03</ele></trkpt><trkpt lat="49.62278" lon="-1.24626"><ele>8.99</ele></trkpt><trkpt lat="49.62289" lon="-1.2459"><ele>9.35</ele></trkpt><trkpt lat="49.62295" lon="-1.24573"><ele>9.38</ele></trkpt><trkpt lat="49.62301" lon="-1.24561"><ele>9.68</ele></trkpt><trkpt lat="49.62309" lon="-1.2455"><ele>9.78</ele></trkpt><trkpt lat="49.62312" lon="-1.24544"><ele>9.85</ele></trkpt><trkpt lat="49.62317" lon="-1.24536"><ele>10.1</ele></trkpt><trkpt lat="49.62318" lon="-1.24528"><ele>10.18</ele></trkpt><trkpt lat="49.62319" lon="-1.24522"><ele>10.49</ele></trkpt><trkpt lat="49.62319" lon="-1.24515"><ele>10.65</ele></trkpt><trkpt lat="49.62318" lon="-1.24504"><ele>10.86</ele></trkpt><trkpt lat="49.62317" lon="-1.24491"><ele>10.85</ele></trkpt><trkpt lat="49.62317" lon="-1.24476"><ele>10.67</ele></trkpt><trkpt lat="49.62323" lon="-1.24471"><ele>11.16</ele></trkpt><trkpt lat="49.62329" lon="-1.24463"><ele>11.11</ele></trkpt><trkpt lat="49.62331" lon="-1.24461"><ele>11.11</ele></trkpt><trkpt lat="49.62336" lon="-1.24451"><ele>10.73</ele></trkpt><trkpt lat="49.6234" lon="-1.24446"><ele>10.39</ele></trkpt><trkpt lat="49.62345" lon="-1.24442"><ele>10.04</ele></trkpt><trkpt lat="49.62349" lon="-1.24442"><ele>9.71</ele></trkpt><trkpt lat="49.62353" lon="-1.24443"><ele>9.39</ele></trkpt><trkpt lat="49.62357" lon="-1.24445"><ele>9.39</ele></trkpt><trkpt lat="49.62358" lon="-1.24446"><ele>8.94</ele></trkpt><trkpt lat="49.62367" lon="-1.24448"><ele>8.29</ele></trkpt><trkpt lat="49.62374" lon="-1.24448"><ele>7.99</ele></trkpt><trkpt lat="49.62388" lon="-1.24444"><ele>7.18</ele></trkpt><trkpt lat="49.62407" lon="-1.24435"><ele>6.56</ele></trkpt><trkpt lat="49.62422" lon="-1.24425"><ele>6.21</ele></trkpt><trkpt lat="49.62439" lon="-1.24414"><ele>5.88</ele></trkpt><trkpt lat="49.62449" lon="-1.24406"><ele>5.73</ele></trkpt><trkpt lat="49.62455" lon="-1.24402"><ele>5.7</ele></trkpt><trkpt lat="49.62462" lon="-1.24398"><ele>5.67</ele></trkpt><trkpt lat="49.62469" lon="-1.24395"><ele>5.73</ele></trkpt><trkpt lat="49.62476" lon="-1.24394"><ele>5.79</ele></trkpt><trkpt lat="49.6248" lon="-1.24395"><ele>5.76</ele></trkpt><trkpt lat="49.62482" lon="-1.2438"><ele>5.93</ele></trkpt><trkpt lat="49.62483" lon="-1.24375"><ele>5.96</ele></trkpt><trkpt lat="49.62486" lon="-1.24367"><ele>5.99</ele></trkpt><trkpt lat="49.6249" lon="-1.2436"><ele>6.14</ele></trkpt><trkpt lat="49.62499" lon="-1.24343"><ele>6.39</ele></trkpt><trkpt lat="49.62508" lon="-1.24327"><ele>7.07</ele></trkpt><trkpt lat="49.62516" lon="-1.2431"><ele>8.01</ele></trkpt><trkpt lat="49.62519" lon="-1.24298"><ele>8.38</ele></trkpt><trkpt lat="49.62527" lon="-1.24299"><ele>8.71</ele></trkpt><trkpt lat="49.62531" lon="-1.243"><ele>8.87</ele></trkpt><trkpt lat="49.62536" lon="-1.24301"><ele>8.85</ele></trkpt><trkpt lat="49.62543" lon="-1.24301"><ele>8.95</ele></trkpt><trkpt lat="49.62548" lon="-1.24298"><ele>9.21</ele></trkpt><trkpt lat="49.62552" lon="-1.24296"><ele>9.06</ele></trkpt><trkpt lat="49.62563" lon="-1.24289"><ele>9.25</ele></trkpt><trkpt lat="49.62572" lon="-1.24284"><ele>9.17</ele></trkpt><trkpt lat="49.62577" lon="-1.24281"><ele>9.29</ele></trkpt><trkpt lat="49.62582" lon="-1.2428"><ele>9.33</ele></trkpt><trkpt lat="49.62587" lon="-1.24281"><ele>9.43</ele></trkpt><trkpt lat="49.62593" lon="-1.24284"><ele>9.51</ele></trkpt><trkpt lat="49.62596" lon="-1.24287"><ele>9.67</ele></trkpt><trkpt lat="49.62601" lon="-1.2429"><ele>9.74</ele></trkpt><trkpt lat="49.62606" lon="-1.24294"><ele>10.15</ele></trkpt><trkpt lat="49.62612" lon="-1.24297"><ele>10.3</ele></trkpt><trkpt lat="49.62615" lon="-1.24299"><ele>10.52</ele></trkpt><trkpt lat="49.62624" lon="-1.24303"><ele>10.81</ele></trkpt><trkpt lat="49.62637" lon="-1.24309"><ele>10.64</ele></trkpt><trkpt lat="49.62656" lon="-1.2432"><ele>10.54</ele></trkpt><trkpt lat="49.62677" lon="-1.2433"><ele>10.7</ele></trkpt><trkpt lat="49.62696" lon="-1.24339"><ele>10.6</ele></trkpt><trkpt lat="49.62702" lon="-1.24342"><ele>10.36</ele></trkpt><trkpt lat="49.62706" lon="-1.24343"><ele>10.2</ele></trkpt><trkpt lat="49.6271" lon="-1.24344"><ele>10.08</ele></trkpt><trkpt lat="49.62717" lon="-1.24345"><ele>9.98</ele></trkpt><trkpt lat="49.62724" lon="-1.24347"><ele>9.82</ele></trkpt><trkpt lat="49.62732" lon="-1.24349"><ele>9.63</ele></trkpt><trkpt lat="49.62744" lon="-1.24354"><ele>9.57</ele></trkpt><trkpt lat="49.62765" lon="-1.24363"><ele>9.43</ele></trkpt><trkpt lat="49.62781" lon="-1.24368"><ele>9.43</ele></trkpt><trkpt lat="49.62792" lon="-1.24373"><ele>9.69</ele></trkpt><trkpt lat="49.62801" lon="-1.24375"><ele>10.18</ele></trkpt><trkpt lat="49.62813" lon="-1.24376"><ele>10.33</ele></trkpt><trkpt lat="49.6282" lon="-1.24376"><ele>10.21</ele></trkpt><trkpt lat="49.62825" lon="-1.24375"><ele>9.83</ele></trkpt><trkpt lat="49.62832" lon="-1.24375"><ele>9.61</ele></trkpt><trkpt lat="49.62839" lon="-1.24375"><ele>9.22</ele></trkpt><trkpt lat="49.62847" lon="-1.24374"><ele>8.98</ele></trkpt><trkpt lat="49.62855" lon="-1.24372"><ele>8.74</ele></trkpt><trkpt lat="49.62867" lon="-1.24367"><ele>8.45</ele></trkpt><trkpt lat="49.62878" lon="-1.24357"><ele>8.05</ele></trkpt><trkpt lat="49.6288" lon="-1.24354"><ele>8.27</ele></trkpt><trkpt lat="49.62886" lon="-1.24348"><ele>7.96</ele></trkpt><trkpt lat="49.6289" lon="-1.24345"><ele>7.96</ele></trkpt><trkpt lat="49.62895" lon="-1.24342"><ele>8.08</ele></trkpt><trkpt lat="49.62902" lon="-1.24341"><ele>8</ele></trkpt><trkpt lat="49.62904" lon="-1.24341"><ele>7.95</ele></trkpt><trkpt lat="49.62907" lon="-1.24341"><ele>7.92</ele></trkpt><trkpt lat="49.62911" lon="-1.24342"><ele>7.92</ele></trkpt><trkpt lat="49.62918" lon="-1.24344"><ele>7.88</ele></trkpt><trkpt lat="49.62932" lon="-1.24348"><ele>7.74</ele></trkpt><trkpt lat="49.62959" lon="-1.24354"><ele>7.71</ele></trkpt><trkpt lat="49.62984" lon="-1.2436"><ele>7.79</ele></trkpt><trkpt lat="49.63006" lon="-1.24365"><ele>8.01</ele></trkpt><trkpt lat="49.63039" lon="-1.24372"><ele>8.66</ele></trkpt><trkpt lat="49.63055" lon="-1.24377"><ele>9.37</ele></trkpt><trkpt lat="49.63057" lon="-1.24378"><ele>9.62</ele></trkpt><trkpt lat="49.63073" lon="-1.24384"><ele>10.57</ele></trkpt><trkpt lat="49.63085" lon="-1.24387"><ele>11.33</ele></trkpt><trkpt lat="49.63093" lon="-1.24389"><ele>11.35</ele></trkpt><trkpt lat="49.631" lon="-1.2439"><ele>11.3</ele></trkpt><trkpt lat="49.63106" lon="-1.2439"><ele>11.23</ele></trkpt><trkpt lat="49.63112" lon="-1.2439"><ele>11.17</ele></trkpt><trkpt lat="49.63118" lon="-1.24387"><ele>10.91</ele></trkpt><trkpt lat="49.63122" lon="-1.24385"><ele>10.58</ele></trkpt><trkpt lat="49.63126" lon="-1.24381"><ele>10.26</ele></trkpt><trkpt lat="49.63128" lon="-1.24376"><ele>10.12</ele></trkpt><trkpt lat="49.6313" lon="-1.24371"><ele>9.97</ele></trkpt><trkpt lat="49.63132" lon="-1.24366"><ele>9.82</ele></trkpt><trkpt lat="49.63134" lon="-1.24356"><ele>9.66</ele></trkpt><trkpt lat="49.63137" lon="-1.2435"><ele>9.42</ele></trkpt><trkpt lat="49.63142" lon="-1.24346"><ele>9.35</ele></trkpt><trkpt lat="49.63147" lon="-1.24344"><ele>9.16</ele></trkpt><trkpt lat="49.63153" lon="-1.24341"><ele>9.12</ele></trkpt><trkpt lat="49.63159" lon="-1.24339"><ele>9.1</ele></trkpt><trkpt lat="49.63167" lon="-1.24336"><ele>9.05</ele></trkpt><trkpt lat="49.63177" lon="-1.24332"><ele>9.26</ele></trkpt><trkpt lat="49.63193" lon="-1.24325"><ele>9.6</ele></trkpt><trkpt lat="49.63229" lon="-1.24308"><ele>11.71</ele></trkpt><trkpt lat="49.63244" lon="-1.24303"><ele>12.4</ele></trkpt><trkpt lat="49.63252" lon="-1.24301"><ele>12.57</ele></trkpt><trkpt lat="49.63253" lon="-1.24283"><ele>12.39</ele></trkpt><trkpt lat="49.63257" lon="-1.24254"><ele>12.16</ele></trkpt><trkpt lat="49.63262" lon="-1.2422"><ele>12.1</ele></trkpt><trkpt lat="49.63264" lon="-1.24198"><ele>12.24</ele></trkpt><trkpt lat="49.63264" lon="-1.24187"><ele>12.22</ele></trkpt><trkpt lat="49.63264" lon="-1.24167"><ele>12.34</ele></trkpt><trkpt lat="49.63266" lon="-1.24141"><ele>12.76</ele></trkpt><trkpt lat="49.63267" lon="-1.24123"><ele>13.03</ele></trkpt><trkpt lat="49.63269" lon="-1.2411"><ele>12.97</ele></trkpt><trkpt lat="49.63271" lon="-1.24099"><ele>12.95</ele></trkpt><trkpt lat="49.63272" lon="-1.24089"><ele>12.98</ele></trkpt><trkpt lat="49.63272" lon="-1.24087"><ele>12.98</ele></trkpt><trkpt lat="49.63273" lon="-1.24075"><ele>12.89</ele></trkpt><trkpt lat="49.63275" lon="-1.2406"><ele>12.8</ele></trkpt><trkpt lat="49.63275" lon="-1.2405"><ele>12.56</ele></trkpt><trkpt lat="49.63278" lon="-1.24023"><ele>11.94</ele></trkpt><trkpt lat="49.63279" lon="-1.24019"><ele>11.9</ele></trkpt><trkpt lat="49.63285" lon="-1.23998"><ele>11.67</ele></trkpt><trkpt lat="49.63292" lon="-1.23976"><ele>11.39</ele></trkpt><trkpt lat="49.63299" lon="-1.23944"><ele>10.74</ele></trkpt><trkpt lat="49.63303" lon="-1.23931"><ele>10.34</ele></trkpt><trkpt lat="49.63306" lon="-1.2392"><ele>10.23</ele></trkpt><trkpt lat="49.63308" lon="-1.23902"><ele>10.3</ele></trkpt><trkpt lat="49.63309" lon="-1.23892"><ele>10.32</ele></trkpt><trkpt lat="49.6331" lon="-1.23875"><ele>10.24</ele></trkpt><trkpt lat="49.6331" lon="-1.23861"><ele>10.17</ele></trkpt><trkpt lat="49.63311" lon="-1.23847"><ele>9.98</ele></trkpt><trkpt lat="49.63314" lon="-1.23816"><ele>8.91</ele></trkpt><trkpt lat="49.63316" lon="-1.23809"><ele>8.69</ele></trkpt><trkpt lat="49.6332" lon="-1.23789"><ele>8.37</ele></trkpt><trkpt lat="49.63324" lon="-1.23778"><ele>8.38</ele></trkpt><trkpt lat="49.63327" lon="-1.23769"><ele>8.4</ele></trkpt><trkpt lat="49.63341" lon="-1.23731"><ele>8.12</ele></trkpt><trkpt lat="49.63368" lon="-1.23669"><ele>7.15</ele></trkpt><trkpt lat="49.6339" lon="-1.23619"><ele>6.21</ele></trkpt><trkpt lat="49.63399" lon="-1.23604"><ele>6.08</ele></trkpt><trkpt lat="49.63406" lon="-1.23593"><ele>6</ele></trkpt><trkpt lat="49.63423" lon="-1.23596"><ele>6.12</ele></trkpt><trkpt lat="49.63441" lon="-1.23602"><ele>6.6</ele></trkpt><trkpt lat="49.63465" lon="-1.23607"><ele>6.76</ele></trkpt><trkpt lat="49.63478" lon="-1.23608"><ele>6.16</ele></trkpt><trkpt lat="49.63492" lon="-1.23605"><ele>5.92</ele></trkpt><trkpt lat="49.63511" lon="-1.23598"><ele>5.82</ele></trkpt><trkpt lat="49.63529" lon="-1.23594"><ele>5.7</ele></trkpt><trkpt lat="49.63538" lon="-1.23593"><ele>5.67</ele></trkpt><trkpt lat="49.63549" lon="-1.23593"><ele>5.61</ele></trkpt><trkpt lat="49.63564" lon="-1.23594"><ele>5.55</ele></trkpt><trkpt lat="49.63577" lon="-1.23599"><ele>5.57</ele></trkpt><trkpt lat="49.63584" lon="-1.23601"><ele>5.55</ele></trkpt><trkpt lat="49.63592" lon="-1.23604"><ele>5.6</ele></trkpt><trkpt lat="49.63628" lon="-1.23617"><ele>5.23</ele></trkpt><trkpt lat="49.63644" lon="-1.23623"><ele>5.08</ele></trkpt><trkpt lat="49.63683" lon="-1.2364"><ele>5</ele></trkpt><trkpt lat="49.63718" lon="-1.23645"><ele>5.84</ele></trkpt><trkpt lat="49.63737" lon="-1.23646"><ele>6</ele></trkpt><trkpt lat="49.63744" lon="-1.23645"><ele>6.13</ele></trkpt><trkpt lat="49.63749" lon="-1.23645"><ele>6.29</ele></trkpt><trkpt lat="49.63763" lon="-1.23643"><ele>6.41</ele></trkpt><trkpt lat="49.63777" lon="-1.23644"><ele>6.75</ele></trkpt><trkpt lat="49.63786" lon="-1.23646"><ele>6.79</ele></trkpt><trkpt lat="49.63794" lon="-1.2365"><ele>7.01</ele></trkpt><trkpt lat="49.63799" lon="-1.23658"><ele>7.07</ele></trkpt><trkpt lat="49.63809" lon="-1.23676"><ele>6.92</ele></trkpt><trkpt lat="49.63815" lon="-1.23661"><ele>6.37</ele></trkpt><trkpt lat="49.63818" lon="-1.23658"><ele>6.46</ele></trkpt><trkpt lat="49.6382" lon="-1.23656"><ele>6.45</ele></trkpt><trkpt lat="49.63822" lon="-1.23655"><ele>6.36</ele></trkpt><trkpt lat="49.63825" lon="-1.23656"><ele>5.87</ele></trkpt><trkpt lat="49.63829" lon="-1.23659"><ele>6.42</ele></trkpt><trkpt lat="49.63891" lon="-1.23712"><ele>6.17</ele></trkpt><trkpt lat="49.63901" lon="-1.23721"><ele>6.19</ele></trkpt><trkpt lat="49.63909" lon="-1.23727"><ele>6.28</ele></trkpt><trkpt lat="49.6392" lon="-1.23733"><ele>5.64</ele></trkpt><trkpt lat="49.63932" lon="-1.23743"><ele>6.06</ele></trkpt><trkpt lat="49.63943" lon="-1.23749"><ele>5.39</ele></trkpt><trkpt lat="49.63969" lon="-1.2377"><ele>5.13</ele></trkpt><trkpt lat="49.6398" lon="-1.23782"><ele>5.25</ele></trkpt><trkpt lat="49.63989" lon="-1.23787"><ele>5.15</ele></trkpt><trkpt lat="49.64008" lon="-1.23798"><ele>5.28</ele></trkpt><trkpt lat="49.64017" lon="-1.23808"><ele>5.5</ele></trkpt><trkpt lat="49.6402" lon="-1.23816"><ele>5.48</ele></trkpt><trkpt lat="49.64033" lon="-1.23814"><ele>5.71</ele></trkpt><trkpt lat="49.6404" lon="-1.23813"><ele>5.54</ele></trkpt><trkpt lat="49.64048" lon="-1.23801"><ele>6.16</ele></trkpt><trkpt lat="49.6405" lon="-1.238"><ele>6.16</ele></trkpt><trkpt lat="49.64055" lon="-1.23804"><ele>6.1</ele></trkpt><trkpt lat="49.64062" lon="-1.23816"><ele>5.83</ele></trkpt><trkpt lat="49.64079" lon="-1.23833"><ele>5.48</ele></trkpt><trkpt lat="49.64105" lon="-1.23846"><ele>5.13</ele></trkpt><trkpt lat="49.64118" lon="-1.23852"><ele>5.12</ele></trkpt><trkpt lat="49.64139" lon="-1.23868"><ele>4.55</ele></trkpt><trkpt lat="49.64158" lon="-1.23882"><ele>4.53</ele></trkpt><trkpt lat="49.64208" lon="-1.23923"><ele>4.31</ele></trkpt><trkpt lat="49.64226" lon="-1.2394"><ele>4.13</ele></trkpt><trkpt lat="49.64246" lon="-1.23956"><ele>3.85</ele></trkpt><trkpt lat="49.64258" lon="-1.23957"><ele>4.02</ele></trkpt><trkpt lat="49.64267" lon="-1.23963"><ele>4.68</ele></trkpt><trkpt lat="49.64279" lon="-1.23976"><ele>3.99</ele></trkpt><trkpt lat="49.64307" lon="-1.2401"><ele>4.5</ele></trkpt><trkpt lat="49.64317" lon="-1.24021"><ele>5.24</ele></trkpt><trkpt lat="49.64332" lon="-1.2404"><ele>5.94</ele></trkpt><trkpt lat="49.64343" lon="-1.24064"><ele>4.36</ele></trkpt><trkpt lat="49.64367" lon="-1.24097"><ele>4.41</ele></trkpt><trkpt lat="49.64369" lon="-1.241"><ele>3.69</ele></trkpt><trkpt lat="49.6437" lon="-1.24104"><ele>4.59</ele></trkpt><trkpt lat="49.64371" lon="-1.24108"><ele>4.2</ele></trkpt><trkpt lat="49.64371" lon="-1.24112"><ele>4.02</ele></trkpt><trkpt lat="49.64369" lon="-1.24116"><ele>3.6</ele></trkpt><trkpt lat="49.64336" lon="-1.24193"><ele>4.14</ele></trkpt><trkpt lat="49.6437" lon="-1.24185"><ele>4.25</ele></trkpt><trkpt lat="49.64383" lon="-1.24181"><ele>4.25</ele></trkpt><trkpt lat="49.64409" lon="-1.24175"><ele>4.18</ele></trkpt><trkpt lat="49.64439" lon="-1.24174"><ele>4.59</ele></trkpt><trkpt lat="49.64454" lon="-1.24175"><ele>4.19</ele></trkpt><trkpt lat="49.64469" lon="-1.24177"><ele>4.31</ele></trkpt><trkpt lat="49.64482" lon="-1.24181"><ele>4.27</ele></trkpt><trkpt lat="49.64493" lon="-1.24189"><ele>4.57</ele></trkpt><trkpt lat="49.64505" lon="-1.24194"><ele>4.25</ele></trkpt><trkpt lat="49.64512" lon="-1.24197"><ele>4.63</ele></trkpt><trkpt lat="49.64538" lon="-1.24201"><ele>4.59</ele></trkpt><trkpt lat="49.64548" lon="-1.24202"><ele>4.08</ele></trkpt><trkpt lat="49.64557" lon="-1.24202"><ele>4.55</ele></trkpt><trkpt lat="49.64563" lon="-1.24202"><ele>4.82</ele></trkpt><trkpt lat="49.64574" lon="-1.24202"><ele>4.83</ele></trkpt><trkpt lat="49.6458" lon="-1.24201"><ele>5.19</ele></trkpt><trkpt lat="49.64587" lon="-1.242"><ele>4.84</ele></trkpt><trkpt lat="49.64596" lon="-1.24198"><ele>4.61</ele></trkpt><trkpt lat="49.64608" lon="-1.24196"><ele>4.65</ele></trkpt><trkpt lat="49.64615" lon="-1.24196"><ele>4.68</ele></trkpt><trkpt lat="49.64629" lon="-1.242"><ele>4.89</ele></trkpt><trkpt lat="49.64635" lon="-1.24204"><ele>4.95</ele></trkpt><trkpt lat="49.64638" lon="-1.24205"><ele>4.91</ele></trkpt><trkpt lat="49.64653" lon="-1.24223"><ele>5.37</ele></trkpt><trkpt lat="49.64681" lon="-1.24263"><ele>5.2</ele></trkpt><trkpt lat="49.64697" lon="-1.24282"><ele>5.21</ele></trkpt><trkpt lat="49.64716" lon="-1.24305"><ele>5.02</ele></trkpt><trkpt lat="49.64756" lon="-1.24349"><ele>4.68</ele></trkpt><trkpt lat="49.64765" lon="-1.24359"><ele>4.4</ele></trkpt><trkpt lat="49.64773" lon="-1.24367"><ele>4.67</ele></trkpt><trkpt lat="49.6478" lon="-1.24366"><ele>4.63</ele></trkpt><trkpt lat="49.6479" lon="-1.24368"><ele>4.59</ele></trkpt><trkpt lat="49.64796" lon="-1.24372"><ele>4.41</ele></trkpt><trkpt lat="49.64802" lon="-1.24376"><ele>4.31</ele></trkpt><trkpt lat="49.6481" lon="-1.24382"><ele>4.21</ele></trkpt><trkpt lat="49.64818" lon="-1.24388"><ele>4.22</ele></trkpt><trkpt lat="49.64826" lon="-1.24392"><ele>4.42</ele></trkpt><trkpt lat="49.64833" lon="-1.24393"><ele>4.52</ele></trkpt><trkpt lat="49.64839" lon="-1.24393"><ele>4.82</ele></trkpt><trkpt lat="49.6485" lon="-1.24391"><ele>5.18</ele></trkpt><trkpt lat="49.64866" lon="-1.24386"><ele>5.85</ele></trkpt><trkpt lat="49.64887" lon="-1.24384"><ele>7.19</ele></trkpt><trkpt lat="49.6489" lon="-1.24385"><ele>7.48</ele></trkpt><trkpt lat="49.64894" lon="-1.24389"><ele>7.77</ele></trkpt><trkpt lat="49.64899" lon="-1.24393"><ele>8.14</ele></trkpt><trkpt lat="49.64905" lon="-1.24403"><ele>8.73</ele></trkpt><trkpt lat="49.64914" lon="-1.24419"><ele>9.55</ele></trkpt><trkpt lat="49.6492" lon="-1.2443"><ele>10.24</ele></trkpt><trkpt lat="49.64926" lon="-1.24438"><ele>10.62</ele></trkpt><trkpt lat="49.64932" lon="-1.24445"><ele>10.88</ele></trkpt><trkpt lat="49.65001" lon="-1.24304"><ele>6.45</ele></trkpt><trkpt lat="49.6502" lon="-1.24271"><ele>5.78</ele></trkpt><trkpt lat="49.65045" lon="-1.24235"><ele>5.35</ele></trkpt><trkpt lat="49.65061" lon="-1.24214"><ele>5.62</ele></trkpt><trkpt lat="49.65069" lon="-1.24197"><ele>5.48</ele></trkpt><trkpt lat="49.65075" lon="-1.24178"><ele>5.91</ele></trkpt><trkpt lat="49.65077" lon="-1.2417"><ele>5.72</ele></trkpt><trkpt lat="49.65082" lon="-1.24139"><ele>5.99</ele></trkpt><trkpt lat="49.65083" lon="-1.24132"><ele>6.09</ele></trkpt><trkpt lat="49.65085" lon="-1.24105"><ele>6.09</ele></trkpt><trkpt lat="49.6509" lon="-1.24051"><ele>5.97</ele></trkpt><trkpt lat="49.65091" lon="-1.23994"><ele>5.75</ele></trkpt><trkpt lat="49.65094" lon="-1.23981"><ele>5.72</ele></trkpt><trkpt lat="49.6511" lon="-1.23945"><ele>5.73</ele></trkpt><trkpt lat="49.65123" lon="-1.23959"><ele>5.41</ele></trkpt><trkpt lat="49.65146" lon="-1.23976"><ele>5.42</ele></trkpt><trkpt lat="49.65168" lon="-1.23989"><ele>5.38</ele></trkpt><trkpt lat="49.6519" lon="-1.23998"><ele>5.26</ele></trkpt><trkpt lat="49.65213" lon="-1.24004"><ele>5.16</ele></trkpt><trkpt lat="49.65225" lon="-1.24007"><ele>5.43</ele></trkpt><trkpt lat="49.65243" lon="-1.24009"><ele>5.55</ele></trkpt><trkpt lat="49.65256" lon="-1.24008"><ele>5.28</ele></trkpt><trkpt lat="49.65275" lon="-1.24007"><ele>5.53</ele></trkpt><trkpt lat="49.65279" lon="-1.24005"><ele>5.71</ele></trkpt><trkpt lat="49.65287" lon="-1.24002"><ele>5.54</ele></trkpt><trkpt lat="49.65299" lon="-1.2399"><ele>5.69</ele></trkpt><trkpt lat="49.653" lon="-1.23989"><ele>5.69</ele></trkpt><trkpt lat="49.65311" lon="-1.23977"><ele>5.81</ele></trkpt><trkpt lat="49.65322" lon="-1.2397"><ele>5.65</ele></trkpt><trkpt lat="49.65332" lon="-1.23968"><ele>5.36</ele></trkpt><trkpt lat="49.65335" lon="-1.23969"><ele>5.36</ele></trkpt><trkpt lat="49.65349" lon="-1.23971"><ele>5.2</ele></trkpt><trkpt lat="49.65369" lon="-1.23976"><ele>5.62</ele></trkpt><trkpt lat="49.65389" lon="-1.23976"><ele>5.3</ele></trkpt><trkpt lat="49.6539" lon="-1.23976"><ele>5.3</ele></trkpt><trkpt lat="49.65407" lon="-1.23974"><ele>6.02</ele></trkpt><trkpt lat="49.65422" lon="-1.23975"><ele>6.06</ele></trkpt><trkpt lat="49.65433" lon="-1.23978"><ele>6.12</ele></trkpt><trkpt lat="49.65445" lon="-1.23985"><ele>6.18</ele></trkpt><trkpt lat="49.65453" lon="-1.23997"><ele>6.44</ele></trkpt><trkpt lat="49.65459" lon="-1.24006"><ele>6.44</ele></trkpt><trkpt lat="49.65464" lon="-1.24019"><ele>6.46</ele></trkpt><trkpt lat="49.65472" lon="-1.24052"><ele>7.1</ele></trkpt><trkpt lat="49.65479" lon="-1.24091"><ele>7.26</ele></trkpt><trkpt lat="49.65484" lon="-1.24128"><ele>7.41</ele></trkpt><trkpt lat="49.65484" lon="-1.24154"><ele>6.72</ele></trkpt><trkpt lat="49.65486" lon="-1.24184"><ele>6.01</ele></trkpt><trkpt lat="49.65492" lon="-1.24212"><ele>5.89</ele></trkpt><trkpt lat="49.65497" lon="-1.24225"><ele>5.71</ele></trkpt><trkpt lat="49.65503" lon="-1.24239"><ele>5.83</ele></trkpt><trkpt lat="49.65526" lon="-1.24276"><ele>5.82</ele></trkpt><trkpt lat="49.65531" lon="-1.24283"><ele>5.81</ele></trkpt><trkpt lat="49.6556" lon="-1.2432"><ele>5.69</ele></trkpt><trkpt lat="49.65566" lon="-1.24332"><ele>5.61</ele></trkpt><trkpt lat="49.65574" lon="-1.24336"><ele>5.28</ele></trkpt><trkpt lat="49.65581" lon="-1.2434"><ele>5.24</ele></trkpt><trkpt lat="49.65588" lon="-1.24347"><ele>5.31</ele></trkpt><trkpt lat="49.65618" lon="-1.24397"><ele>4.91</ele></trkpt><trkpt lat="49.65646" lon="-1.24424"><ele>5.32</ele></trkpt><trkpt lat="49.65649" lon="-1.24426"><ele>5.27</ele></trkpt><trkpt lat="49.6567" lon="-1.2444"><ele>5.16</ele></trkpt><trkpt lat="49.65685" lon="-1.24444"><ele>5.51</ele></trkpt><trkpt lat="49.65695" lon="-1.24448"><ele>5.52</ele></trkpt><trkpt lat="49.65697" lon="-1.24449"><ele>5.55</ele></trkpt><trkpt lat="49.65704" lon="-1.24452"><ele>5.39</ele></trkpt><trkpt lat="49.65714" lon="-1.24453"><ele>5.41</ele></trkpt><trkpt lat="49.65724" lon="-1.24452"><ele>5.32</ele></trkpt><trkpt lat="49.65732" lon="-1.2445"><ele>5.22</ele></trkpt><trkpt lat="49.65739" lon="-1.2445"><ele>5.43</ele></trkpt><trkpt lat="49.65743" lon="-1.24454"><ele>5.42</ele></trkpt><trkpt lat="49.65747" lon="-1.24461"><ele>5.45</ele></trkpt><trkpt lat="49.65758" lon="-1.24485"><ele>5.71</ele></trkpt><trkpt lat="49.65761" lon="-1.24491"><ele>5.55</ele></trkpt><trkpt lat="49.65764" lon="-1.24498"><ele>5.63</ele></trkpt><trkpt lat="49.65769" lon="-1.24512"><ele>5.51</ele></trkpt><trkpt lat="49.65766" lon="-1.24518"><ele>5.64</ele></trkpt><trkpt lat="49.65763" lon="-1.24524"><ele>5.74</ele></trkpt><trkpt lat="49.65761" lon="-1.2453"><ele>5.75</ele></trkpt><trkpt lat="49.65764" lon="-1.24539"><ele>5.79</ele></trkpt><trkpt lat="49.65774" lon="-1.24555"><ele>6.07</ele></trkpt><trkpt lat="49.65783" lon="-1.2457"><ele>6.3</ele></trkpt><trkpt lat="49.65789" lon="-1.24579"><ele>6.29</ele></trkpt><trkpt lat="49.658" lon="-1.24596"><ele>6.7</ele></trkpt><trkpt lat="49.65808" lon="-1.2461"><ele>6.16</ele></trkpt><trkpt lat="49.65816" lon="-1.24621"><ele>6.15</ele></trkpt><trkpt lat="49.65821" lon="-1.24631"><ele>5.84</ele></trkpt><trkpt lat="49.65825" lon="-1.2465"><ele>5.6</ele></trkpt><trkpt lat="49.65828" lon="-1.24666"><ele>5.7</ele></trkpt><trkpt lat="49.65832" lon="-1.2468"><ele>5.5</ele></trkpt><trkpt lat="49.65836" lon="-1.24692"><ele>5.61</ele></trkpt><trkpt lat="49.65842" lon="-1.24702"><ele>5.75</ele></trkpt><trkpt lat="49.65846" lon="-1.2471"><ele>5.85</ele></trkpt><trkpt lat="49.65848" lon="-1.2472"><ele>5.5</ele></trkpt><trkpt lat="49.65852" lon="-1.24727"><ele>5.61</ele></trkpt><trkpt lat="49.65861" lon="-1.2474"><ele>5.53</ele></trkpt><trkpt lat="49.65864" lon="-1.24746"><ele>5.22</ele></trkpt><trkpt lat="49.65864" lon="-1.24754"><ele>5.87</ele></trkpt><trkpt lat="49.65874" lon="-1.24764"><ele>6.29</ele></trkpt><trkpt lat="49.65884" lon="-1.24774"><ele>5.9</ele></trkpt><trkpt lat="49.65892" lon="-1.24788"><ele>5.4</ele></trkpt><trkpt lat="49.65899" lon="-1.24796"><ele>4.97</ele></trkpt><trkpt lat="49.65912" lon="-1.24805"><ele>4.49</ele></trkpt><trkpt lat="49.65918" lon="-1.24814"><ele>4.47</ele></trkpt><trkpt lat="49.65924" lon="-1.24828"><ele>5.14</ele></trkpt><trkpt lat="49.6593" lon="-1.24836"><ele>5.15</ele></trkpt><trkpt lat="49.65937" lon="-1.24849"><ele>5.37</ele></trkpt><trkpt lat="49.65942" lon="-1.2486"><ele>5.52</ele></trkpt><trkpt lat="49.65946" lon="-1.24865"><ele>5.61</ele></trkpt><trkpt lat="49.65956" lon="-1.24851"><ele>5.28</ele></trkpt><trkpt lat="49.65963" lon="-1.24857"><ele>4.48</ele></trkpt><trkpt lat="49.65972" lon="-1.24862"><ele>4.23</ele></trkpt><trkpt lat="49.65986" lon="-1.24871"><ele>5.34</ele></trkpt><trkpt lat="49.66" lon="-1.24878"><ele>4.67</ele></trkpt><trkpt lat="49.66007" lon="-1.2488"><ele>4.83</ele></trkpt><trkpt lat="49.66014" lon="-1.24882"><ele>4.84</ele></trkpt><trkpt lat="49.66024" lon="-1.24882"><ele>5.11</ele></trkpt><trkpt lat="49.66028" lon="-1.24881"><ele>5.34</ele></trkpt><trkpt lat="49.66034" lon="-1.2488"><ele>5.44</ele></trkpt><trkpt lat="49.66039" lon="-1.24878"><ele>4.73</ele></trkpt><trkpt lat="49.66044" lon="-1.24876"><ele>5.87</ele></trkpt><trkpt lat="49.66048" lon="-1.24874"><ele>6.17</ele></trkpt><trkpt lat="49.6605" lon="-1.24874"><ele>6.17</ele></trkpt><trkpt lat="49.66053" lon="-1.24876"><ele>6.17</ele></trkpt><trkpt lat="49.66054" lon="-1.24877"><ele>6.17</ele></trkpt><trkpt lat="49.66058" lon="-1.2488"><ele>6.26</ele></trkpt><trkpt lat="49.66061" lon="-1.24883"><ele>6.59</ele></trkpt><trkpt lat="49.66065" lon="-1.24887"><ele>7.1</ele></trkpt><trkpt lat="49.66072" lon="-1.24893"><ele>7.45</ele></trkpt><trkpt lat="49.66075" lon="-1.24896"><ele>6.94</ele></trkpt><trkpt lat="49.66077" lon="-1.24898"><ele>7.08</ele></trkpt><trkpt lat="49.66079" lon="-1.24902"><ele>6.68</ele></trkpt><trkpt lat="49.66081" lon="-1.24906"><ele>6.41</ele></trkpt><trkpt lat="49.66082" lon="-1.24912"><ele>6.23</ele></trkpt><trkpt lat="49.66078" lon="-1.24934"><ele>5.59</ele></trkpt><trkpt lat="49.6607" lon="-1.24956"><ele>5.57</ele></trkpt><trkpt lat="49.66063" lon="-1.24976"><ele>5.59</ele></trkpt><trkpt lat="49.66063" lon="-1.24992"><ele>5.45</ele></trkpt><trkpt lat="49.66064" lon="-1.2501"><ele>5.42</ele></trkpt><trkpt lat="49.66068" lon="-1.25031"><ele>5.28</ele></trkpt><trkpt lat="49.66072" lon="-1.2505"><ele>5.14</ele></trkpt><trkpt lat="49.66077" lon="-1.25079"><ele>4.95</ele></trkpt><trkpt lat="49.66081" lon="-1.25087"><ele>5.1</ele></trkpt><trkpt lat="49.66098" lon="-1.25116"><ele>5.07</ele></trkpt><trkpt lat="49.66117" lon="-1.25147"><ele>5.08</ele></trkpt><trkpt lat="49.66149" lon="-1.25194"><ele>5.16</ele></trkpt><trkpt lat="49.66155" lon="-1.25206"><ele>5.12</ele></trkpt><trkpt lat="49.66162" lon="-1.25228"><ele>5.22</ele></trkpt><trkpt lat="49.66171" lon="-1.25241"><ele>4.97</ele></trkpt><trkpt lat="49.6618" lon="-1.25251"><ele>4.57</ele></trkpt><trkpt lat="49.66214" lon="-1.25272"><ele>4.22</ele></trkpt><trkpt lat="49.66218" lon="-1.25256"><ele>4.21</ele></trkpt><trkpt lat="49.66228" lon="-1.25254"><ele>4.3</ele></trkpt><trkpt lat="49.66236" lon="-1.25254"><ele>4.5</ele></trkpt><trkpt lat="49.66243" lon="-1.25253"><ele>4.46</ele></trkpt><trkpt lat="49.6625" lon="-1.25254"><ele>4.4</ele></trkpt><trkpt lat="49.66259" lon="-1.25249"><ele>4.34</ele></trkpt><trkpt lat="49.66267" lon="-1.25241"><ele>4.34</ele></trkpt><trkpt lat="49.66273" lon="-1.25234"><ele>4.43</ele></trkpt><trkpt lat="49.66282" lon="-1.25226"><ele>4.39</ele></trkpt><trkpt lat="49.66286" lon="-1.25223"><ele>4.49</ele></trkpt><trkpt lat="49.66289" lon="-1.25223"><ele>4.57</ele></trkpt><trkpt lat="49.66293" lon="-1.25225"><ele>4.69</ele></trkpt><trkpt lat="49.66297" lon="-1.25229"><ele>3.93</ele></trkpt><trkpt lat="49.66299" lon="-1.25234"><ele>4.25</ele></trkpt><trkpt lat="49.6631" lon="-1.25262"><ele>4.54</ele></trkpt><trkpt lat="49.66318" lon="-1.25272"><ele>4.83</ele></trkpt><trkpt lat="49.6633" lon="-1.25293"><ele>4.82</ele></trkpt><trkpt lat="49.66335" lon="-1.25301"><ele>4.78</ele></trkpt><trkpt lat="49.66337" lon="-1.25312"><ele>4.84</ele></trkpt><trkpt lat="49.6634" lon="-1.25325"><ele>4.98</ele></trkpt><trkpt lat="49.66339" lon="-1.25344"><ele>4.89</ele></trkpt><trkpt lat="49.66342" lon="-1.25356"><ele>5.11</ele></trkpt><trkpt lat="49.66352" lon="-1.25377"><ele>4.94</ele></trkpt><trkpt lat="49.66365" lon="-1.25415"><ele>5.76</ele></trkpt><trkpt lat="49.66372" lon="-1.25423"><ele>5.79</ele></trkpt><trkpt lat="49.66378" lon="-1.25428"><ele>5.71</ele></trkpt><trkpt lat="49.66378" lon="-1.2543"><ele>5.69</ele></trkpt><trkpt lat="49.66385" lon="-1.2544"><ele>6.42</ele></trkpt><trkpt lat="49.66393" lon="-1.25452"><ele>6.16</ele></trkpt><trkpt lat="49.66399" lon="-1.2546"><ele>6.09</ele></trkpt><trkpt lat="49.66406" lon="-1.25473"><ele>5.88</ele></trkpt><trkpt lat="49.66413" lon="-1.25483"><ele>5.99</ele></trkpt><trkpt lat="49.66425" lon="-1.25495"><ele>6.37</ele></trkpt><trkpt lat="49.66434" lon="-1.25504"><ele>6.34</ele></trkpt><trkpt lat="49.66441" lon="-1.25512"><ele>6.36</ele></trkpt><trkpt lat="49.6645" lon="-1.25517"><ele>6.26</ele></trkpt><trkpt lat="49.6646" lon="-1.25522"><ele>6.42</ele></trkpt><trkpt lat="49.66467" lon="-1.25525"><ele>6.09</ele></trkpt><trkpt lat="49.66477" lon="-1.2553"><ele>6.09</ele></trkpt><trkpt lat="49.66485" lon="-1.25535"><ele>6.34</ele></trkpt><trkpt lat="49.66491" lon="-1.25541"><ele>6.05</ele></trkpt><trkpt lat="49.66512" lon="-1.25559"><ele>6.18</ele></trkpt><trkpt lat="49.66535" lon="-1.2557"><ele>5.81</ele></trkpt><trkpt lat="49.66555" lon="-1.25578"><ele>5.61</ele></trkpt><trkpt lat="49.66574" lon="-1.25584"><ele>4.51</ele></trkpt><trkpt lat="49.66585" lon="-1.2559"><ele>4.79</ele></trkpt><trkpt lat="49.66593" lon="-1.25597"><ele>4.64</ele></trkpt><trkpt lat="49.66603" lon="-1.25606"><ele>4.07</ele></trkpt><trkpt lat="49.6661" lon="-1.25615"><ele>3.82</ele></trkpt><trkpt lat="49.6661" lon="-1.25626"><ele>4.65</ele></trkpt><trkpt lat="49.6661" lon="-1.25636"><ele>4.43</ele></trkpt><trkpt lat="49.66619" lon="-1.25644"><ele>4.26</ele></trkpt><trkpt lat="49.66637" lon="-1.25656"><ele>4.28</ele></trkpt><trkpt lat="49.66648" lon="-1.25665"><ele>5.04</ele></trkpt><trkpt lat="49.66672" lon="-1.25681"><ele>4.64</ele></trkpt><trkpt lat="49.66681" lon="-1.25687"><ele>4.83</ele></trkpt><trkpt lat="49.66685" lon="-1.25686"><ele>4.83</ele></trkpt><trkpt lat="49.6669" lon="-1.25686"><ele>4.64</ele></trkpt><trkpt lat="49.66696" lon="-1.2569"><ele>4.39</ele></trkpt><trkpt lat="49.66712" lon="-1.25704"><ele>4.4</ele></trkpt><trkpt lat="49.66721" lon="-1.25711"><ele>4.59</ele></trkpt><trkpt lat="49.66725" lon="-1.25718"><ele>5.25</ele></trkpt><trkpt lat="49.66735" lon="-1.25725"><ele>5.37</ele></trkpt><trkpt lat="49.66742" lon="-1.2573"><ele>5.67</ele></trkpt><trkpt lat="49.66753" lon="-1.25735"><ele>5.75</ele></trkpt><trkpt lat="49.66763" lon="-1.2574"><ele>5.75</ele></trkpt><trkpt lat="49.66787" lon="-1.25745"><ele>5.41</ele></trkpt><trkpt lat="49.66813" lon="-1.25747"><ele>5.45</ele></trkpt><trkpt lat="49.66821" lon="-1.25744"><ele>5.36</ele></trkpt><trkpt lat="49.6683" lon="-1.25737"><ele>5.13</ele></trkpt><trkpt lat="49.66837" lon="-1.2573"><ele>5.16</ele></trkpt><trkpt lat="49.66843" lon="-1.25723"><ele>5.47</ele></trkpt><trkpt lat="49.66849" lon="-1.25716"><ele>5.81</ele></trkpt><trkpt lat="49.66859" lon="-1.25715"><ele>6.06</ele></trkpt><trkpt lat="49.6687" lon="-1.25721"><ele>6.02</ele></trkpt><trkpt lat="49.6688" lon="-1.25727"><ele>6.02</ele></trkpt><trkpt lat="49.66892" lon="-1.25735"><ele>6.26</ele></trkpt><trkpt lat="49.66903" lon="-1.25739"><ele>6.47</ele></trkpt><trkpt lat="49.6691" lon="-1.25741"><ele>6.62</ele></trkpt><trkpt lat="49.66917" lon="-1.25734"><ele>6.48</ele></trkpt><trkpt lat="49.6693" lon="-1.2573"><ele>6.37</ele></trkpt><trkpt lat="49.66939" lon="-1.25729"><ele>6.37</ele></trkpt><trkpt lat="49.66948" lon="-1.2573"><ele>6.41</ele></trkpt><trkpt lat="49.66954" lon="-1.25734"><ele>6.3</ele></trkpt><trkpt lat="49.66957" lon="-1.2574"><ele>6.18</ele></trkpt><trkpt lat="49.6698" lon="-1.2586"><ele>6.15</ele></trkpt><trkpt lat="49.66982" lon="-1.25873"><ele>5.53</ele></trkpt><trkpt lat="49.66982" lon="-1.25898"><ele>4.35</ele></trkpt><trkpt lat="49.66981" lon="-1.25937"><ele>4.32</ele></trkpt><trkpt lat="49.66979" lon="-1.25964"><ele>4.28</ele></trkpt><trkpt lat="49.66974" lon="-1.25994"><ele>4.5</ele></trkpt><trkpt lat="49.66974" lon="-1.26004"><ele>4.57</ele></trkpt><trkpt lat="49.66972" lon="-1.26011"><ele>4.26</ele></trkpt><trkpt lat="49.66965" lon="-1.26027"><ele>4.34</ele></trkpt><trkpt lat="49.66952" lon="-1.26039"><ele>4.67</ele></trkpt><trkpt lat="49.66944" lon="-1.26036"><ele>5.12</ele></trkpt><trkpt lat="49.66923" lon="-1.26043"><ele>4.75</ele></trkpt><trkpt lat="49.66891" lon="-1.26053"><ele>4.87</ele></trkpt><trkpt lat="49.66871" lon="-1.26053"><ele>4.91</ele></trkpt><trkpt lat="49.66856" lon="-1.26053"><ele>5</ele></trkpt><trkpt lat="49.66837" lon="-1.26053"><ele>5.1</ele></trkpt><trkpt lat="49.66829" lon="-1.26053"><ele>5.15</ele></trkpt><trkpt lat="49.66769" lon="-1.26053"><ele>5.18</ele></trkpt><trkpt lat="49.66772" lon="-1.26054"><ele>5.18</ele></trkpt><trkpt lat="49.66777" lon="-1.26061"><ele>5.1</ele></trkpt><trkpt lat="49.66781" lon="-1.26068"><ele>5.16</ele></trkpt><trkpt lat="49.66782" lon="-1.26077"><ele>5.09</ele></trkpt><trkpt lat="49.66783" lon="-1.26099"><ele>4.89</ele></trkpt><trkpt lat="49.66785" lon="-1.26155"><ele>4.46</ele></trkpt><trkpt lat="49.66786" lon="-1.26202"><ele>3.9</ele></trkpt><trkpt lat="49.66793" lon="-1.26255"><ele>4.06</ele></trkpt><trkpt lat="49.66795" lon="-1.26262"><ele>4.01</ele></trkpt><trkpt lat="49.66812" lon="-1.26275"><ele>3.61</ele></trkpt><trkpt lat="49.66834" lon="-1.263"><ele>4.05</ele></trkpt><trkpt lat="49.66837" lon="-1.26297"><ele>3.77</ele></trkpt><trkpt lat="49.6684" lon="-1.26291"><ele>2.18</ele></trkpt><trkpt lat="49.66847" lon="-1.26285"><ele>2.81</ele></trkpt><trkpt lat="49.66864" lon="-1.26284"><ele>2.76</ele></trkpt><trkpt lat="49.6687" lon="-1.26285"><ele>2.85</ele></trkpt><trkpt lat="49.66881" lon="-1.26286"><ele>2.21</ele></trkpt><trkpt lat="49.66885" lon="-1.26287"><ele>3.01</ele></trkpt><trkpt lat="49.66908" lon="-1.26313"><ele>3.77</ele></trkpt><trkpt lat="49.66926" lon="-1.26332"><ele>3.54</ele></trkpt><trkpt lat="49.66936" lon="-1.26335"><ele>3.71</ele></trkpt><trkpt lat="49.66947" lon="-1.26337"><ele>3.29</ele></trkpt><trkpt lat="49.66961" lon="-1.26336"><ele>3.43</ele></trkpt><trkpt lat="49.66992" lon="-1.26334"><ele>3.39</ele></trkpt><trkpt lat="49.66997" lon="-1.26332"><ele>3.53</ele></trkpt><trkpt lat="49.66998" lon="-1.26325"><ele>0.61</ele></trkpt><trkpt lat="49.67013" lon="-1.2633"><ele>3.64</ele></trkpt><trkpt lat="49.67033" lon="-1.26335"><ele>3.91</ele></trkpt><trkpt lat="49.67044" lon="-1.26337"><ele>3.05</ele></trkpt><trkpt lat="49.67111" lon="-1.26327"><ele>0</ele></trkpt><trkpt lat="49.67232" lon="-1.26066"><ele>0</ele></trkpt><trkpt lat="49.67246" lon="-1.26029"><ele>4.9</ele></trkpt><trkpt lat="49.67246" lon="-1.2602"><ele>4.9</ele></trkpt><trkpt lat="49.67247" lon="-1.25999"><ele>5.12</ele></trkpt><trkpt lat="49.67249" lon="-1.25971"><ele>5.12</ele></trkpt><trkpt lat="49.6725" lon="-1.25939"><ele>5.17</ele></trkpt><trkpt lat="49.67261" lon="-1.25941"><ele>5.42</ele></trkpt><trkpt lat="49.67267" lon="-1.25943"><ele>6.06</ele></trkpt><trkpt lat="49.67277" lon="-1.25946"><ele>6.64</ele></trkpt><trkpt lat="49.67285" lon="-1.25953"><ele>7.13</ele></trkpt><trkpt lat="49.67306" lon="-1.25968"><ele>6.14</ele></trkpt><trkpt lat="49.67313" lon="-1.25974"><ele>6.16</ele></trkpt><trkpt lat="49.67313" lon="-1.25986"><ele>6.21</ele></trkpt><trkpt lat="49.67313" lon="-1.25989"><ele>6.07</ele></trkpt><trkpt lat="49.67313" lon="-1.25996"><ele>5.98</ele></trkpt><trkpt lat="49.67312" lon="-1.26006"><ele>5.88</ele></trkpt><trkpt lat="49.67312" lon="-1.26015"><ele>5.81</ele></trkpt><trkpt lat="49.67312" lon="-1.2602"><ele>5.77</ele></trkpt><trkpt lat="49.67311" lon="-1.26024"><ele>5.72</ele></trkpt><trkpt lat="49.67317" lon="-1.26027"><ele>4.68</ele></trkpt><trkpt lat="49.67319" lon="-1.26068"><ele>2.5</ele></trkpt><trkpt lat="49.67321" lon="-1.26113"><ele>4.19</ele></trkpt><trkpt lat="49.67322" lon="-1.26132"><ele>4.13</ele></trkpt><trkpt lat="49.67324" lon="-1.26151"><ele>3.73</ele></trkpt><trkpt lat="49.67324" lon="-1.26159"><ele>3.9</ele></trkpt><trkpt lat="49.67324" lon="-1.26161"><ele>3.9</ele></trkpt><trkpt lat="49.67324" lon="-1.26177"><ele>4.8</ele></trkpt><trkpt lat="49.67321" lon="-1.26217"><ele>4.7</ele></trkpt><trkpt lat="49.67323" lon="-1.26222"><ele>4.97</ele></trkpt><trkpt lat="49.67324" lon="-1.26229"><ele>4.64</ele></trkpt><trkpt lat="49.67327" lon="-1.26246"><ele>4.74</ele></trkpt><trkpt lat="49.67335" lon="-1.26305"><ele>3.72</ele></trkpt><trkpt lat="49.67336" lon="-1.26308"><ele>4.01</ele></trkpt><trkpt lat="49.67339" lon="-1.26324"><ele>3.59</ele></trkpt><trkpt lat="49.67344" lon="-1.26339"><ele>3.97</ele></trkpt><trkpt lat="49.67351" lon="-1.26355"><ele>3.82</ele></trkpt><trkpt lat="49.67369" lon="-1.264"><ele>3.48</ele></trkpt><trkpt lat="49.67385" lon="-1.26442"><ele>3.68</ele></trkpt><trkpt lat="49.67391" lon="-1.26457"><ele>3.73</ele></trkpt><trkpt lat="49.67405" lon="-1.26482"><ele>3.84</ele></trkpt><trkpt lat="49.67464" lon="-1.26558"><ele>4.05</ele></trkpt><trkpt lat="49.67477" lon="-1.26573"><ele>4.36</ele></trkpt><trkpt lat="49.67497" lon="-1.26591"><ele>4.16</ele></trkpt><trkpt lat="49.67527" lon="-1.26614"><ele>4.08</ele></trkpt><trkpt lat="49.67564" lon="-1.26641"><ele>4.48</ele></trkpt><trkpt lat="49.67573" lon="-1.26646"><ele>4.63</ele></trkpt><trkpt lat="49.67601" lon="-1.26662"><ele>5.23</ele></trkpt><trkpt lat="49.67618" lon="-1.26666"><ele>5.6</ele></trkpt><trkpt lat="49.67623" lon="-1.26665"><ele>5.84</ele></trkpt><trkpt lat="49.67634" lon="-1.26665"><ele>6.16</ele></trkpt><trkpt lat="49.6764" lon="-1.26662"><ele>6.11</ele></trkpt><trkpt lat="49.67645" lon="-1.26661"><ele>6.06</ele></trkpt><trkpt lat="49.67654" lon="-1.26661"><ele>6.25</ele></trkpt><trkpt lat="49.67663" lon="-1.26662"><ele>6.33</ele></trkpt><trkpt lat="49.67674" lon="-1.26664"><ele>6.45</ele></trkpt><trkpt lat="49.67678" lon="-1.26666"><ele>6.45</ele></trkpt><trkpt lat="49.67681" lon="-1.26667"><ele>6.33</ele></trkpt><trkpt lat="49.67684" lon="-1.26671"><ele>6.19</ele></trkpt><trkpt lat="49.67686" lon="-1.26674"><ele>6.52</ele></trkpt><trkpt lat="49.67688" lon="-1.26677"><ele>6.49</ele></trkpt><trkpt lat="49.6769" lon="-1.26679"><ele>6.28</ele></trkpt><trkpt lat="49.67692" lon="-1.2668"><ele>6.1</ele></trkpt><trkpt lat="49.67697" lon="-1.2668"><ele>6.04</ele></trkpt><trkpt lat="49.67707" lon="-1.26681"><ele>5.69</ele></trkpt><trkpt lat="49.67713" lon="-1.26683"><ele>5.82</ele></trkpt><trkpt lat="49.67718" lon="-1.26684"><ele>5.8</ele></trkpt><trkpt lat="49.67719" lon="-1.26684"><ele>5.8</ele></trkpt><trkpt lat="49.6772" lon="-1.26686"><ele>5.8</ele></trkpt><trkpt lat="49.67722" lon="-1.26691"><ele>5.14</ele></trkpt><trkpt lat="49.67723" lon="-1.26694"><ele>5.14</ele></trkpt><trkpt lat="49.67724" lon="-1.26695"><ele>4.77</ele></trkpt><trkpt lat="49.6773" lon="-1.26695"><ele>4.37</ele></trkpt><trkpt lat="49.67733" lon="-1.26695"><ele>4.92</ele></trkpt><trkpt lat="49.67736" lon="-1.26697"><ele>4.7</ele></trkpt><trkpt lat="49.67741" lon="-1.26702"><ele>4.57</ele></trkpt><trkpt lat="49.67746" lon="-1.26707"><ele>4.71</ele></trkpt><trkpt lat="49.67749" lon="-1.26708"><ele>5.14</ele></trkpt><trkpt lat="49.67754" lon="-1.2671"><ele>4.67</ele></trkpt><trkpt lat="49.67759" lon="-1.26712"><ele>5.18</ele></trkpt><trkpt lat="49.67764" lon="-1.26715"><ele>4.93</ele></trkpt><trkpt lat="49.67772" lon="-1.26718"><ele>4.21</ele></trkpt><trkpt lat="49.67778" lon="-1.26715"><ele>4.23</ele></trkpt><trkpt lat="49.67786" lon="-1.2671"><ele>4.16</ele></trkpt><trkpt lat="49.67797" lon="-1.26704"><ele>4.42</ele></trkpt><trkpt lat="49.67809" lon="-1.26693"><ele>4.64</ele></trkpt><trkpt lat="49.67813" lon="-1.26692"><ele>4.74</ele></trkpt><trkpt lat="49.67817" lon="-1.26696"><ele>4.77</ele></trkpt><trkpt lat="49.67823" lon="-1.267"><ele>4.71</ele></trkpt><trkpt lat="49.67822" lon="-1.26708"><ele>4.25</ele></trkpt><trkpt lat="49.67821" lon="-1.26713"><ele>4.07</ele></trkpt><trkpt lat="49.67819" lon="-1.26717"><ele>4.73</ele></trkpt><trkpt lat="49.67819" lon="-1.26724"><ele>4.45</ele></trkpt><trkpt lat="49.67816" lon="-1.26739"><ele>3.83</ele></trkpt><trkpt lat="49.67815" lon="-1.26754"><ele>4.78</ele></trkpt><trkpt lat="49.67814" lon="-1.26781"><ele>5.11</ele></trkpt><trkpt lat="49.67811" lon="-1.26794"><ele>4.93</ele></trkpt><trkpt lat="49.67824" lon="-1.2683"><ele>4.48</ele></trkpt><trkpt lat="49.67827" lon="-1.26844"><ele>4.51</ele></trkpt><trkpt lat="49.67827" lon="-1.2685"><ele>4.39</ele></trkpt><trkpt lat="49.67828" lon="-1.26869"><ele>4.19</ele></trkpt><trkpt lat="49.67831" lon="-1.26878"><ele>4.1</ele></trkpt><trkpt lat="49.67834" lon="-1.26891"><ele>4.02</ele></trkpt><trkpt lat="49.67841" lon="-1.26917"><ele>3.78</ele></trkpt><trkpt lat="49.67843" lon="-1.26926"><ele>4.06</ele></trkpt><trkpt lat="49.67845" lon="-1.26946"><ele>3.66</ele></trkpt><trkpt lat="49.67848" lon="-1.26967"><ele>3.92</ele></trkpt><trkpt lat="49.67849" lon="-1.26974"><ele>3.94</ele></trkpt><trkpt lat="49.67855" lon="-1.27002"><ele>4.38</ele></trkpt><trkpt lat="49.67865" lon="-1.27045"><ele>5.51</ele></trkpt><trkpt lat="49.67868" lon="-1.27062"><ele>5.9</ele></trkpt><trkpt lat="49.67873" lon="-1.27079"><ele>6.22</ele></trkpt><trkpt lat="49.67876" lon="-1.27094"><ele>6.47</ele></trkpt><trkpt lat="49.67879" lon="-1.27111"><ele>6.4</ele></trkpt><trkpt lat="49.67884" lon="-1.27143"><ele>6.7</ele></trkpt><trkpt lat="49.67885" lon="-1.27148"><ele>6.78</ele></trkpt><trkpt lat="49.67892" lon="-1.27183"><ele>6.8</ele></trkpt><trkpt lat="49.67898" lon="-1.2721"><ele>6.72</ele></trkpt><trkpt lat="49.67902" lon="-1.27223"><ele>6.17</ele></trkpt><trkpt lat="49.67904" lon="-1.27229"><ele>6.21</ele></trkpt><trkpt lat="49.67906" lon="-1.27234"><ele>5.39</ele></trkpt><trkpt lat="49.67909" lon="-1.27241"><ele>5.97</ele></trkpt><trkpt lat="49.67911" lon="-1.27252"><ele>5.38</ele></trkpt><trkpt lat="49.67912" lon="-1.27261"><ele>5.23</ele></trkpt><trkpt lat="49.67916" lon="-1.27266"><ele>3.35</ele></trkpt><trkpt lat="49.67921" lon="-1.27271"><ele>2.37</ele></trkpt><trkpt lat="49.67925" lon="-1.27277"><ele>3.6</ele></trkpt><trkpt lat="49.67928" lon="-1.27277"><ele>3.97</ele></trkpt><trkpt lat="49.6796" lon="-1.27294"><ele>3.97</ele></trkpt><trkpt lat="49.67989" lon="-1.27307"><ele>4</ele></trkpt><trkpt lat="49.67997" lon="-1.27308"><ele>3.68</ele></trkpt><trkpt lat="49.68014" lon="-1.27308"><ele>3.7</ele></trkpt><trkpt lat="49.68032" lon="-1.27313"><ele>4.21</ele></trkpt><trkpt lat="49.68054" lon="-1.27304"><ele>4.1</ele></trkpt><trkpt lat="49.68068" lon="-1.27296"><ele>4.03</ele></trkpt><trkpt lat="49.68084" lon="-1.27285"><ele>4.02</ele></trkpt><trkpt lat="49.68098" lon="-1.27271"><ele>4.05</ele></trkpt><trkpt lat="49.68112" lon="-1.27253"><ele>4</ele></trkpt><trkpt lat="49.68124" lon="-1.2723"><ele>4.15</ele></trkpt><trkpt lat="49.68135" lon="-1.27207"><ele>4.37</ele></trkpt><trkpt lat="49.68141" lon="-1.27195"><ele>4.28</ele></trkpt><trkpt lat="49.68147" lon="-1.27187"><ele>4.26</ele></trkpt><trkpt lat="49.68154" lon="-1.27181"><ele>4.15</ele></trkpt><trkpt lat="49.68162" lon="-1.27178"><ele>4</ele></trkpt><trkpt lat="49.68169" lon="-1.27178"><ele>3.94</ele></trkpt><trkpt lat="49.68185" lon="-1.27183"><ele>3.77</ele></trkpt><trkpt lat="49.682" lon="-1.27188"><ele>3.67</ele></trkpt><trkpt lat="49.68215" lon="-1.27194"><ele>3.74</ele></trkpt><trkpt lat="49.6825" lon="-1.27205"><ele>3.81</ele></trkpt><trkpt lat="49.68283" lon="-1.27217"><ele>3.69</ele></trkpt><trkpt lat="49.68301" lon="-1.27224"><ele>3.59</ele></trkpt><trkpt lat="49.68322" lon="-1.27232"><ele>3.47</ele></trkpt><trkpt lat="49.6834" lon="-1.27236"><ele>3.39</ele></trkpt><trkpt lat="49.68352" lon="-1.27239"><ele>3.46</ele></trkpt><trkpt lat="49.68381" lon="-1.27243"><ele>3.6</ele></trkpt><trkpt lat="49.68404" lon="-1.27247"><ele>3.74</ele></trkpt><trkpt lat="49.68425" lon="-1.27248"><ele>3.79</ele></trkpt><trkpt lat="49.68441" lon="-1.27246"><ele>3.6</ele></trkpt><trkpt lat="49.68456" lon="-1.27241"><ele>3.55</ele></trkpt><trkpt lat="49.68466" lon="-1.27236"><ele>3.63</ele></trkpt><trkpt lat="49.68477" lon="-1.27231"><ele>3.77</ele></trkpt><trkpt lat="49.68485" lon="-1.27221"><ele>3.92</ele></trkpt><trkpt lat="49.68492" lon="-1.2721"><ele>4.19</ele></trkpt><trkpt lat="49.68499" lon="-1.272"><ele>4.09</ele></trkpt><trkpt lat="49.68504" lon="-1.27193"><ele>4.14</ele></trkpt><trkpt lat="49.68508" lon="-1.27187"><ele>4.15</ele></trkpt><trkpt lat="49.68518" lon="-1.27169"><ele>3.69</ele></trkpt><trkpt lat="49.68534" lon="-1.27145"><ele>3.93</ele></trkpt><trkpt lat="49.68538" lon="-1.27135"><ele>3.97</ele></trkpt><trkpt lat="49.68542" lon="-1.27126"><ele>4.1</ele></trkpt><trkpt lat="49.68545" lon="-1.27117"><ele>3.65</ele></trkpt><trkpt lat="49.68551" lon="-1.2711"><ele>3.84</ele></trkpt><trkpt lat="49.68558" lon="-1.27108"><ele>3.83</ele></trkpt><trkpt lat="49.68567" lon="-1.27108"><ele>3.7</ele></trkpt><trkpt lat="49.68574" lon="-1.27108"><ele>3.73</ele></trkpt><trkpt lat="49.68583" lon="-1.27108"><ele>3.61</ele></trkpt><trkpt lat="49.6859" lon="-1.27113"><ele>3.36</ele></trkpt><trkpt lat="49.68599" lon="-1.27122"><ele>3.2</ele></trkpt><trkpt lat="49.68626" lon="-1.27146"><ele>3.02</ele></trkpt><trkpt lat="49.68638" lon="-1.27152"><ele>2.94</ele></trkpt><trkpt lat="49.68644" lon="-1.27153"><ele>2.94</ele></trkpt><trkpt lat="49.68646" lon="-1.27154"><ele>3.06</ele></trkpt><trkpt lat="49.68654" lon="-1.27153"><ele>3.06</ele></trkpt><trkpt lat="49.68665" lon="-1.2715"><ele>3.21</ele></trkpt><trkpt lat="49.68683" lon="-1.27144"><ele>3.33</ele></trkpt><trkpt lat="49.68709" lon="-1.27128"><ele>3.16</ele></trkpt><trkpt lat="49.68717" lon="-1.27124"><ele>3.12</ele></trkpt><trkpt lat="49.68722" lon="-1.2712"><ele>3.21</ele></trkpt><trkpt lat="49.68729" lon="-1.27114"><ele>3.1</ele></trkpt><trkpt lat="49.68735" lon="-1.27107"><ele>3.22</ele></trkpt><trkpt lat="49.68738" lon="-1.27102"><ele>3.15</ele></trkpt><trkpt lat="49.6874" lon="-1.271"><ele>3.21</ele></trkpt><trkpt lat="49.68743" lon="-1.27093"><ele>3.21</ele></trkpt><trkpt lat="49.68749" lon="-1.27075"><ele>3.23</ele></trkpt><trkpt lat="49.68763" lon="-1.27037"><ele>3.14</ele></trkpt><trkpt lat="49.68793" lon="-1.26973"><ele>3.11</ele></trkpt><trkpt lat="49.68825" lon="-1.26905"><ele>2.77</ele></trkpt><trkpt lat="49.68839" lon="-1.26875"><ele>2.96</ele></trkpt><trkpt lat="49.68849" lon="-1.26854"><ele>2.91</ele></trkpt><trkpt lat="49.68855" lon="-1.2684"><ele>2.87</ele></trkpt><trkpt lat="49.68856" lon="-1.26837"><ele>2.87</ele></trkpt><trkpt lat="49.68857" lon="-1.26834"><ele>2.78</ele></trkpt><trkpt lat="49.68859" lon="-1.26829"><ele>2.91</ele></trkpt><trkpt lat="49.68859" lon="-1.26823"><ele>2.98</ele></trkpt><trkpt lat="49.68867" lon="-1.26813"><ele>2.99</ele></trkpt><trkpt lat="49.6888" lon="-1.26788"><ele>3.59</ele></trkpt><trkpt lat="49.68883" lon="-1.26779"><ele>3.57</ele></trkpt><trkpt lat="49.68887" lon="-1.26771"><ele>3.54</ele></trkpt><trkpt lat="49.6889" lon="-1.26764"><ele>3.45</ele></trkpt><trkpt lat="49.68893" lon="-1.26761"><ele>3.51</ele></trkpt><trkpt lat="49.689" lon="-1.26754"><ele>3.23</ele></trkpt><trkpt lat="49.6891" lon="-1.26745"><ele>3.22</ele></trkpt><trkpt lat="49.68914" lon="-1.26741"><ele>3.34</ele></trkpt><trkpt lat="49.68921" lon="-1.26737"><ele>3.4</ele></trkpt><trkpt lat="49.68934" lon="-1.26727"><ele>3.61</ele></trkpt><trkpt lat="49.68948" lon="-1.26719"><ele>3.83</ele></trkpt><trkpt lat="49.68963" lon="-1.26712"><ele>4.16</ele></trkpt><trkpt lat="49.68974" lon="-1.26705"><ele>4.38</ele></trkpt><trkpt lat="49.68986" lon="-1.26698"><ele>4.37</ele></trkpt><trkpt lat="49.69" lon="-1.26691"><ele>4.04</ele></trkpt><trkpt lat="49.69006" lon="-1.26687"><ele>3.87</ele></trkpt><trkpt lat="49.69012" lon="-1.26683"><ele>3.74</ele></trkpt><trkpt lat="49.69018" lon="-1.26678"><ele>3.74</ele></trkpt><trkpt lat="49.69031" lon="-1.2667"><ele>3.58</ele></trkpt><trkpt lat="49.69035" lon="-1.26666"><ele>3.49</ele></trkpt><trkpt lat="49.69042" lon="-1.2666"><ele>3.24</ele></trkpt><trkpt lat="49.69049" lon="-1.26655"><ele>4.04</ele></trkpt><trkpt lat="49.69052" lon="-1.26651"><ele>4.44</ele></trkpt><trkpt lat="49.69061" lon="-1.26642"><ele>4.74</ele></trkpt><trkpt lat="49.69067" lon="-1.26634"><ele>4.75</ele></trkpt><trkpt lat="49.69071" lon="-1.2663"><ele>4.57</ele></trkpt><trkpt lat="49.69074" lon="-1.26627"><ele>4.46</ele></trkpt><trkpt lat="49.69079" lon="-1.26624"><ele>4.31</ele></trkpt><trkpt lat="49.69087" lon="-1.2662"><ele>4.15</ele></trkpt><trkpt lat="49.69093" lon="-1.26617"><ele>4.2</ele></trkpt><trkpt lat="49.69098" lon="-1.26612"><ele>4.29</ele></trkpt><trkpt lat="49.69106" lon="-1.26608"><ele>4.33</ele></trkpt><trkpt lat="49.69115" lon="-1.26605"><ele>4.13</ele></trkpt><trkpt lat="49.69122" lon="-1.26604"><ele>4.15</ele></trkpt><trkpt lat="49.69128" lon="-1.26603"><ele>4.18</ele></trkpt><trkpt lat="49.69132" lon="-1.26602"><ele>4.2</ele></trkpt><trkpt lat="49.69139" lon="-1.26599"><ele>4.32</ele></trkpt><trkpt lat="49.69144" lon="-1.26597"><ele>4.3</ele></trkpt><trkpt lat="49.69155" lon="-1.26597"><ele>4.16</ele></trkpt><trkpt lat="49.69167" lon="-1.26597"><ele>3.96</ele></trkpt><trkpt lat="49.69176" lon="-1.26597"><ele>3.68</ele></trkpt><trkpt lat="49.69184" lon="-1.26598"><ele>3.76</ele></trkpt><trkpt lat="49.69189" lon="-1.26599"><ele>3.91</ele></trkpt><trkpt lat="49.69194" lon="-1.26602"><ele>4.35</ele></trkpt><trkpt lat="49.69197" lon="-1.26605"><ele>4.3</ele></trkpt><trkpt lat="49.692" lon="-1.26611"><ele>4.18</ele></trkpt><trkpt lat="49.69202" lon="-1.26615"><ele>4.04</ele></trkpt><trkpt lat="49.69208" lon="-1.26625"><ele>3.97</ele></trkpt><trkpt lat="49.69219" lon="-1.26637"><ele>3.95</ele></trkpt><trkpt lat="49.69242" lon="-1.26662"><ele>4.15</ele></trkpt><trkpt lat="49.69268" lon="-1.26682"><ele>4.33</ele></trkpt><trkpt lat="49.69281" lon="-1.26691"><ele>4.28</ele></trkpt><trkpt lat="49.69291" lon="-1.26697"><ele>4.21</ele></trkpt><trkpt lat="49.693" lon="-1.26699"><ele>4.18</ele></trkpt><trkpt lat="49.69316" lon="-1.267"><ele>4.24</ele></trkpt><trkpt lat="49.6933" lon="-1.26699"><ele>4.11</ele></trkpt><trkpt lat="49.69338" lon="-1.26698"><ele>4.06</ele></trkpt><trkpt lat="49.69343" lon="-1.26697"><ele>3.93</ele></trkpt><trkpt lat="49.69349" lon="-1.26694"><ele>3.84</ele></trkpt><trkpt lat="49.69352" lon="-1.26692"><ele>3.84</ele></trkpt><trkpt lat="49.69355" lon="-1.26691"><ele>3.78</ele></trkpt><trkpt lat="49.69363" lon="-1.26688"><ele>3.75</ele></trkpt><trkpt lat="49.6937" lon="-1.26686"><ele>3.8</ele></trkpt><trkpt lat="49.69375" lon="-1.26685"><ele>3.83</ele></trkpt><trkpt lat="49.69383" lon="-1.26685"><ele>3.91</ele></trkpt><trkpt lat="49.69388" lon="-1.26686"><ele>3.95</ele></trkpt><trkpt lat="49.69398" lon="-1.26689"><ele>4</ele></trkpt><trkpt lat="49.69404" lon="-1.26692"><ele>4.05</ele></trkpt><trkpt lat="49.69409" lon="-1.26697"><ele>4.1</ele></trkpt><trkpt lat="49.69421" lon="-1.26713"><ele>4.46</ele></trkpt><trkpt lat="49.69424" lon="-1.26717"><ele>4.51</ele></trkpt><trkpt lat="49.69429" lon="-1.2672"><ele>4.45</ele></trkpt><trkpt lat="49.69436" lon="-1.2672"><ele>4.46</ele></trkpt></trkseg></trk></gpx>
