<?xml version="1.0" encoding="UTF-8" standalone="no"?>
<gpx xmlns="http://www.topografix.com/GPX/1/1" version="1.1" xmlns:xsi="http://www.w3.org/2001/XMLSchema-instance" xsi:schemaLocation="http://www.topografix.com/GPX/1/1 http://www.topografix.com/GPX/1/1/gpx.xsd" creator="Cirkwi"><metadata><name><![CDATA[Vallée du Trottebec]]></name><desc><![CDATA[Entre bois et petits hameaux, venez découvrir cet itinéraire champêtre, partez pour une balade détente le long des chemins boisés et chasses du Cotentin. Départ du parking du village de la Verrerie, La Glacerie. Prenez à droite à la sortie de la manufacture puis tournez à la première à gauche, direction "Golf des Roches". (La Glacerie, Cherbourg-en-Cotentin). Coordonnées GPS : 49°60’73.50’’ N, 1°57’18.93’’ W Suivez le parcours selon le sens inverse des aiguilles d'une montre. Le balisage est de couleur jaune. Vous retrouverez ce circuit dans les topoguides "Cherbourg-en-cotentin" et "Hors des sentiers battus" de l'Office de tourisme du Cotentin.   Départ accessible avec le réseau de bus Cap Cotentin à l'arrêt "Cables" desservie par la ligne 7 (plus d'infos sur capcotentin.fr)]]></desc><author><name><![CDATA[Cotentin unique]]></name></author><link href="http://fichier0.cirkwi.com/image/photo/circuit/1300x1300/172703/fr/0.jpg"><text><![CDATA[|The picture of living]]></text></link><link href="http://fichier0.cirkwi.com/image/photo/circuit/1300x1300/172703/fr/1.jpg"><text><![CDATA[|Aymeric Picot]]></text></link><time>2026-07-09T13:57:10Z</time></metadata><trk><trkseg><trkpt lat="49.6074" lon="-1.57232"><ele>58.06</ele></trkpt><trkpt lat="49.60723" lon="-1.57264"><ele>57.45</ele></trkpt><trkpt lat="49.60682" lon="-1.57193"><ele>58.66</ele></trkpt><trkpt lat="49.60644" lon="-1.57106"><ele>61.01</ele></trkpt><trkpt lat="49.60611" lon="-1.57039"><ele>63.39</ele></trkpt><trkpt lat="49.60555" lon="-1.57017"><ele>63.96</ele></trkpt><trkpt lat="49.60498" lon="-1.5701"><ele>66.15</ele></trkpt><trkpt lat="49.60441" lon="-1.57014"><ele>67.94</ele></trkpt><trkpt lat="49.60403" lon="-1.57029"><ele>68.24</ele></trkpt><trkpt lat="49.60375" lon="-1.57056"><ele>67.77</ele></trkpt><trkpt lat="49.60346" lon="-1.57074"><ele>66.87</ele></trkpt><trkpt lat="49.60323" lon="-1.57068"><ele>67.89</ele></trkpt><trkpt lat="49.60301" lon="-1.57055"><ele>69.18</ele></trkpt><trkpt lat="49.60278" lon="-1.5702"><ele>72.23</ele></trkpt><trkpt lat="49.60262" lon="-1.56974"><ele>75.54</ele></trkpt><trkpt lat="49.6024" lon="-1.56938"><ele>75.9</ele></trkpt><trkpt lat="49.60229" lon="-1.56891"><ele>81.43</ele></trkpt><trkpt lat="49.60217" lon="-1.56839"><ele>84.37</ele></trkpt><trkpt lat="49.6021" lon="-1.56752"><ele>92.16</ele></trkpt><trkpt lat="49.60196" lon="-1.56692"><ele>96.52</ele></trkpt><trkpt lat="49.60181" lon="-1.56597"><ele>101.33</ele></trkpt><trkpt lat="49.60171" lon="-1.56495"><ele>107.38</ele></trkpt><trkpt lat="49.60172" lon="-1.56442"><ele>111.67</ele></trkpt><trkpt lat="49.6018" lon="-1.56381"><ele>115.09</ele></trkpt><trkpt lat="49.60184" lon="-1.56332"><ele>115.89</ele></trkpt><trkpt lat="49.60174" lon="-1.56215"><ele>116.23</ele></trkpt><trkpt lat="49.60181" lon="-1.56123"><ele>119.6</ele></trkpt><trkpt lat="49.60194" lon="-1.56093"><ele>122</ele></trkpt><trkpt lat="49.60198" lon="-1.56065"><ele>123.31</ele></trkpt><trkpt lat="49.60194" lon="-1.56036"><ele>124.22</ele></trkpt><trkpt lat="49.60183" lon="-1.55961"><ele>126.91</ele></trkpt><trkpt lat="49.60176" lon="-1.5588"><ele>129.43</ele></trkpt><trkpt lat="49.60171" lon="-1.55814"><ele>130.32</ele></trkpt><trkpt lat="49.60177" lon="-1.55737"><ele>132.29</ele></trkpt><trkpt lat="49.60235" lon="-1.55827"><ele>140.2</ele></trkpt><trkpt lat="49.60263" lon="-1.55855"><ele>143.47</ele></trkpt><trkpt lat="49.60309" lon="-1.55859"><ele>147.29</ele></trkpt><trkpt lat="49.60362" lon="-1.55868"><ele>152.41</ele></trkpt><trkpt lat="49.60407" lon="-1.55884"><ele>154.41</ele></trkpt><trkpt lat="49.60441" lon="-1.55922"><ele>153.55</ele></trkpt><trkpt lat="49.60526" lon="-1.55987"><ele>151.36</ele></trkpt><trkpt lat="49.60571" lon="-1.56011"><ele>150.26</ele></trkpt><trkpt lat="49.60616" lon="-1.56022"><ele>149.22</ele></trkpt><trkpt lat="49.60672" lon="-1.5602"><ele>148.11</ele></trkpt><trkpt lat="49.60732" lon="-1.56016"><ele>146.01</ele></trkpt><trkpt lat="49.60785" lon="-1.55999"><ele>143.32</ele></trkpt><trkpt lat="49.60823" lon="-1.55995"><ele>143.06</ele></trkpt><trkpt lat="49.60879" lon="-1.55989"><ele>141.77</ele></trkpt><trkpt lat="49.61058" lon="-1.55882"><ele>131.96</ele></trkpt><trkpt lat="49.61079" lon="-1.5586"><ele>130.28</ele></trkpt><trkpt lat="49.6118" lon="-1.55909"><ele>119.07</ele></trkpt><trkpt lat="49.61234" lon="-1.55696"><ele>115.65</ele></trkpt><trkpt lat="49.61299" lon="-1.55447"><ele>105.44</ele></trkpt><trkpt lat="49.61313" lon="-1.55307"><ele>105.99</ele></trkpt><trkpt lat="49.6144" lon="-1.55337"><ele>94.02</ele></trkpt><trkpt lat="49.61476" lon="-1.55331"><ele>91.1</ele></trkpt><trkpt lat="49.61645" lon="-1.55379"><ele>71.89</ele></trkpt><trkpt lat="49.61672" lon="-1.55344"><ele>71.82</ele></trkpt><trkpt lat="49.61688" lon="-1.55339"><ele>72.12</ele></trkpt><trkpt lat="49.6171" lon="-1.55372"><ele>73.08</ele></trkpt><trkpt lat="49.61752" lon="-1.55449"><ele>75.9</ele></trkpt><trkpt lat="49.61769" lon="-1.55469"><ele>77.21</ele></trkpt><trkpt lat="49.61795" lon="-1.5548"><ele>79.65</ele></trkpt><trkpt lat="49.61811" lon="-1.55503"><ele>82.11</ele></trkpt><trkpt lat="49.61833" lon="-1.55522"><ele>85.22</ele></trkpt><trkpt lat="49.61869" lon="-1.55545"><ele>88.95</ele></trkpt><trkpt lat="49.61952" lon="-1.55575"><ele>88.82</ele></trkpt><trkpt lat="49.62066" lon="-1.55601"><ele>85.89</ele></trkpt><trkpt lat="49.62102" lon="-1.55617"><ele>83.41</ele></trkpt><trkpt lat="49.62122" lon="-1.55614"><ele>82.22</ele></trkpt><trkpt lat="49.62284" lon="-1.55714"><ele>76.89</ele></trkpt><trkpt lat="49.62344" lon="-1.5573"><ele>78.51</ele></trkpt><trkpt lat="49.62364" lon="-1.55806"><ele>75.75</ele></trkpt><trkpt lat="49.62389" lon="-1.55848"><ele>74.19</ele></trkpt><trkpt lat="49.62407" lon="-1.5589"><ele>72.08</ele></trkpt><trkpt lat="49.62459" lon="-1.55939"><ele>71.27</ele></trkpt><trkpt lat="49.62487" lon="-1.5598"><ele>71.03</ele></trkpt><trkpt lat="49.62524" lon="-1.56038"><ele>70.48</ele></trkpt><trkpt lat="49.6255" lon="-1.56044"><ele>70.8</ele></trkpt><trkpt lat="49.62686" lon="-1.55995"><ele>74.48</ele></trkpt><trkpt lat="49.62857" lon="-1.56554"><ele>41.34</ele></trkpt><trkpt lat="49.62852" lon="-1.56633"><ele>35.65</ele></trkpt><trkpt lat="49.62857" lon="-1.56661"><ele>34</ele></trkpt><trkpt lat="49.62855" lon="-1.56718"><ele>32.15</ele></trkpt><trkpt lat="49.62832" lon="-1.56722"><ele>30.34</ele></trkpt><trkpt lat="49.62802" lon="-1.56737"><ele>29.63</ele></trkpt><trkpt lat="49.62746" lon="-1.56752"><ele>29.27</ele></trkpt><trkpt lat="49.62681" lon="-1.56777"><ele>28.7</ele></trkpt><trkpt lat="49.62642" lon="-1.5678"><ele>27.93</ele></trkpt><trkpt lat="49.62614" lon="-1.56752"><ele>28.49</ele></trkpt><trkpt lat="49.62598" lon="-1.56745"><ele>28.71</ele></trkpt><trkpt lat="49.62571" lon="-1.56744"><ele>30.25</ele></trkpt><trkpt lat="49.62579" lon="-1.56802"><ele>30.3</ele></trkpt><trkpt lat="49.62579" lon="-1.56846"><ele>29.93</ele></trkpt><trkpt lat="49.62574" lon="-1.5687"><ele>28.96</ele></trkpt><trkpt lat="49.62554" lon="-1.56898"><ele>28.28</ele></trkpt><trkpt lat="49.62502" lon="-1.56943"><ele>29.38</ele></trkpt><trkpt lat="49.62444" lon="-1.5697"><ele>31.2</ele></trkpt><trkpt lat="49.6244" lon="-1.57056"><ele>31.49</ele></trkpt><trkpt lat="49.62434" lon="-1.57073"><ele>31.35</ele></trkpt><trkpt lat="49.62434" lon="-1.57098"><ele>31.34</ele></trkpt><trkpt lat="49.62416" lon="-1.57133"><ele>34.23</ele></trkpt><trkpt lat="49.62375" lon="-1.57106"><ele>39.76</ele></trkpt><trkpt lat="49.62348" lon="-1.57094"><ele>42.97</ele></trkpt><trkpt lat="49.62314" lon="-1.57108"><ele>46.96</ele></trkpt><trkpt lat="49.62278" lon="-1.57114"><ele>52.35</ele></trkpt><trkpt lat="49.62244" lon="-1.57115"><ele>53.15</ele></trkpt><trkpt lat="49.62191" lon="-1.57106"><ele>54.25</ele></trkpt><trkpt lat="49.62091" lon="-1.57067"><ele>56.87</ele></trkpt><trkpt lat="49.62049" lon="-1.57031"><ele>54.8</ele></trkpt><trkpt lat="49.61921" lon="-1.56998"><ele>53.9</ele></trkpt><trkpt lat="49.619" lon="-1.5695"><ele>53.28</ele></trkpt><trkpt lat="49.61848" lon="-1.5692"><ele>54.65</ele></trkpt><trkpt lat="49.61784" lon="-1.56919"><ele>54.53</ele></trkpt><trkpt lat="49.61694" lon="-1.56926"><ele>53.79</ele></trkpt><trkpt lat="49.61625" lon="-1.56935"><ele>58.93</ele></trkpt><trkpt lat="49.61544" lon="-1.56961"><ele>63.97</ele></trkpt><trkpt lat="49.61444" lon="-1.57022"><ele>71.64</ele></trkpt><trkpt lat="49.61418" lon="-1.57015"><ele>70.96</ele></trkpt><trkpt lat="49.61374" lon="-1.57004"><ele>69.98</ele></trkpt><trkpt lat="49.61306" lon="-1.56941"><ele>63.21</ele></trkpt><trkpt lat="49.61253" lon="-1.56926"><ele>57.19</ele></trkpt><trkpt lat="49.61223" lon="-1.56968"><ele>53.96</ele></trkpt><trkpt lat="49.61169" lon="-1.57044"><ele>51.76</ele></trkpt><trkpt lat="49.61117" lon="-1.57102"><ele>53.36</ele></trkpt><trkpt lat="49.61076" lon="-1.57149"><ele>52.86</ele></trkpt><trkpt lat="49.61007" lon="-1.57255"><ele>62.22</ele></trkpt><trkpt lat="49.60954" lon="-1.57275"><ele>57.33</ele></trkpt><trkpt lat="49.6089" lon="-1.57314"><ele>56.24</ele></trkpt><trkpt lat="49.6086" lon="-1.5734"><ele>57.78</ele></trkpt><trkpt lat="49.6083" lon="-1.57386"><ele>58.92</ele></trkpt><trkpt lat="49.60792" lon="-1.57415"><ele>57.62</ele></trkpt><trkpt lat="49.60784" lon="-1.57406"><ele>57.27</ele></trkpt><trkpt lat="49.60784" lon="-1.57379"><ele>55.84</ele></trkpt><trkpt lat="49.60787" lon="-1.57365"><ele>54.78</ele></trkpt><trkpt lat="49.60805" lon="-1.57356"><ele>54.17</ele></trkpt><trkpt lat="49.60867" lon="-1.57277"><ele>53.24</ele></trkpt><trkpt lat="49.60858" lon="-1.57252"><ele>54.14</ele></trkpt><trkpt lat="49.60852" lon="-1.5724"><ele>55.05</ele></trkpt><trkpt lat="49.60817" lon="-1.57256"><ele>55.81</ele></trkpt><trkpt lat="49.60787" lon="-1.57256"><ele>56.53</ele></trkpt><trkpt lat="49.60766" lon="-1.57246"><ele>57.49</ele></trkpt><trkpt lat="49.6075" lon="-1.57233"><ele>57.99</ele></trkpt><trkpt lat="49.60741" lon="-1.57228"><ele>58.22</ele></trkpt></trkseg></trk></gpx>
