<?xml version="1.0" encoding="UTF-8" standalone="no"?>
<gpx xmlns="http://www.topografix.com/GPX/1/1" version="1.1" xmlns:xsi="http://www.w3.org/2001/XMLSchema-instance" xsi:schemaLocation="http://www.topografix.com/GPX/1/1 http://www.topografix.com/GPX/1/1/gpx.xsd" creator="Cirkwi"><metadata><name><![CDATA[Cap à l'est]]></name><desc><![CDATA[Au départ de la zone de loisirs de Collignon, ce parcours s’élève sur les hauteurs et offre de magnifiques panoramas. Il mène ensuite le randonneur jusqu’au château des Ravalet pour une visite incontournable de son parc avant un retour en douceur offrant différents points de vue au fil du parcours sur la ville de Cherbourg-en-Cotentin, son port, avec le va-et-vient des bateaux croisant vers l’Angleterre ou l’Irlande, ou encore les paquebots en escale au terminal croisières. Partez de la Maison de l'Éducation à l'Environnement et au Développement durable, dans la zone de loisirs de Collignon à Cherbourg-en-Cotentin. Prendre la route à droite, puis vers le premier chemin à gauche après la piscine (Tourlaville, Cherbourg-en-Cotentin). Coordonnées GPS : 49°39'14.0"N, 1°33'51.8"W Suivez le circuit selon le sens des aiguilles d'une montre. Le balisage est de couleur bleu. Vous retrouverez ce circuit dans le topoguide "Cherbourg-en-cotentin" de l'Office de tourisme du Cotentin.   Départ accessible avec le réseau de bus Cap Cotentin à l'arrêt "Collignon" avec la ligne 8 (plus d'infos sur capcotentin.fr)]]></desc><author><name><![CDATA[Cotentin unique]]></name></author><link href="http://fichier0.cirkwi.com/image/photo/circuit/1300x1300/826565/fr/0.jpg"><text><![CDATA[|©JM Enault]]></text></link><time>2026-07-09T14:00:04Z</time></metadata><trk><trkseg><trkpt lat="49.6539" lon="-1.56393"><ele>4.77</ele></trkpt><trkpt lat="49.65396" lon="-1.56334"><ele>5.1</ele></trkpt><trkpt lat="49.65422" lon="-1.56299"><ele>6.12</ele></trkpt><trkpt lat="49.6545" lon="-1.56258"><ele>6.61</ele></trkpt><trkpt lat="49.65482" lon="-1.56221"><ele>6.55</ele></trkpt><trkpt lat="49.65513" lon="-1.56183"><ele>6.62</ele></trkpt><trkpt lat="49.65522" lon="-1.5613"><ele>5.09</ele></trkpt><trkpt lat="49.65506" lon="-1.56076"><ele>5.4</ele></trkpt><trkpt lat="49.6549" lon="-1.56023"><ele>5.09</ele></trkpt><trkpt lat="49.6546" lon="-1.55996"><ele>5.7</ele></trkpt><trkpt lat="49.65428" lon="-1.55974"><ele>4.92</ele></trkpt><trkpt lat="49.65429" lon="-1.55916"><ele>5.08</ele></trkpt><trkpt lat="49.65421" lon="-1.55861"><ele>5.25</ele></trkpt><trkpt lat="49.65416" lon="-1.55803"><ele>5.42</ele></trkpt><trkpt lat="49.65403" lon="-1.55746"><ele>5.52</ele></trkpt><trkpt lat="49.65391" lon="-1.55687"><ele>5.28</ele></trkpt><trkpt lat="49.65387" lon="-1.55626"><ele>4.55</ele></trkpt><trkpt lat="49.65379" lon="-1.55565"><ele>4.69</ele></trkpt><trkpt lat="49.65381" lon="-1.5551"><ele>4.53</ele></trkpt><trkpt lat="49.65398" lon="-1.55466"><ele>2.28</ele></trkpt><trkpt lat="49.65406" lon="-1.55408"><ele>4.64</ele></trkpt><trkpt lat="49.65423" lon="-1.55356"><ele>5.31</ele></trkpt><trkpt lat="49.6544" lon="-1.55302"><ele>5.54</ele></trkpt><trkpt lat="49.65454" lon="-1.55245"><ele>5.73</ele></trkpt><trkpt lat="49.65456" lon="-1.55188"><ele>5.65</ele></trkpt><trkpt lat="49.65454" lon="-1.55132"><ele>5.04</ele></trkpt><trkpt lat="49.65447" lon="-1.55074"><ele>4.39</ele></trkpt><trkpt lat="49.65444" lon="-1.55016"><ele>4.57</ele></trkpt><trkpt lat="49.65441" lon="-1.54957"><ele>4.68</ele></trkpt><trkpt lat="49.65435" lon="-1.54897"><ele>4.94</ele></trkpt><trkpt lat="49.65401" lon="-1.54882"><ele>5.4</ele></trkpt><trkpt lat="49.65362" lon="-1.54881"><ele>6.45</ele></trkpt><trkpt lat="49.65324" lon="-1.54886"><ele>7.56</ele></trkpt><trkpt lat="49.65285" lon="-1.54888"><ele>9.79</ele></trkpt><trkpt lat="49.65247" lon="-1.54884"><ele>11.82</ele></trkpt><trkpt lat="49.65207" lon="-1.5488"><ele>14.73</ele></trkpt><trkpt lat="49.65169" lon="-1.5488"><ele>18.08</ele></trkpt><trkpt lat="49.65128" lon="-1.54879"><ele>21.58</ele></trkpt><trkpt lat="49.65089" lon="-1.54875"><ele>25.45</ele></trkpt><trkpt lat="49.65052" lon="-1.54873"><ele>29.33</ele></trkpt><trkpt lat="49.6501" lon="-1.54873"><ele>34.02</ele></trkpt><trkpt lat="49.64974" lon="-1.54859"><ele>40.32</ele></trkpt><trkpt lat="49.64967" lon="-1.54802"><ele>42.58</ele></trkpt><trkpt lat="49.64963" lon="-1.54743"><ele>43.48</ele></trkpt><trkpt lat="49.64971" lon="-1.54685"><ele>43.54</ele></trkpt><trkpt lat="49.64979" lon="-1.54627"><ele>42.62</ele></trkpt><trkpt lat="49.64991" lon="-1.54565"><ele>45.94</ele></trkpt><trkpt lat="49.65" lon="-1.5451"><ele>43.14</ele></trkpt><trkpt lat="49.64964" lon="-1.54487"><ele>53.58</ele></trkpt><trkpt lat="49.64938" lon="-1.5447"><ele>61.21</ele></trkpt><trkpt lat="49.64918" lon="-1.54414"><ele>65.31</ele></trkpt><trkpt lat="49.64905" lon="-1.5435"><ele>67.5</ele></trkpt><trkpt lat="49.64889" lon="-1.54302"><ele>69.67</ele></trkpt><trkpt lat="49.6485" lon="-1.54292"><ele>73.61</ele></trkpt><trkpt lat="49.6481" lon="-1.54285"><ele>77.64</ele></trkpt><trkpt lat="49.64771" lon="-1.54274"><ele>78.81</ele></trkpt><trkpt lat="49.64731" lon="-1.54279"><ele>82.47</ele></trkpt><trkpt lat="49.64689" lon="-1.54291"><ele>85.35</ele></trkpt><trkpt lat="49.64652" lon="-1.54287"><ele>88.33</ele></trkpt><trkpt lat="49.64612" lon="-1.54296"><ele>92.03</ele></trkpt><trkpt lat="49.6457" lon="-1.54305"><ele>94.19</ele></trkpt><trkpt lat="49.64531" lon="-1.54317"><ele>96.12</ele></trkpt><trkpt lat="49.64495" lon="-1.54325"><ele>98.3</ele></trkpt><trkpt lat="49.64462" lon="-1.54355"><ele>99.64</ele></trkpt><trkpt lat="49.64435" lon="-1.544"><ele>100.35</ele></trkpt><trkpt lat="49.64428" lon="-1.54458"><ele>101.85</ele></trkpt><trkpt lat="49.6443" lon="-1.54518"><ele>102.83</ele></trkpt><trkpt lat="49.64433" lon="-1.5458"><ele>103.88</ele></trkpt><trkpt lat="49.64425" lon="-1.54637"><ele>103.93</ele></trkpt><trkpt lat="49.64415" lon="-1.54696"><ele>103.34</ele></trkpt><trkpt lat="49.64405" lon="-1.54752"><ele>103.28</ele></trkpt><trkpt lat="49.64379" lon="-1.54776"><ele>103.63</ele></trkpt><trkpt lat="49.64341" lon="-1.54771"><ele>104.4</ele></trkpt><trkpt lat="49.64304" lon="-1.54765"><ele>104.44</ele></trkpt><trkpt lat="49.64266" lon="-1.54759"><ele>104.99</ele></trkpt><trkpt lat="49.64229" lon="-1.54754"><ele>105.23</ele></trkpt><trkpt lat="49.64191" lon="-1.54748"><ele>105.56</ele></trkpt><trkpt lat="49.64154" lon="-1.54743"><ele>106.1</ele></trkpt><trkpt lat="49.64116" lon="-1.54737"><ele>106.06</ele></trkpt><trkpt lat="49.64078" lon="-1.54731"><ele>106.14</ele></trkpt><trkpt lat="49.64041" lon="-1.54726"><ele>106.83</ele></trkpt><trkpt lat="49.64003" lon="-1.5472"><ele>107.94</ele></trkpt><trkpt lat="49.63967" lon="-1.54739"><ele>108.5</ele></trkpt><trkpt lat="49.63929" lon="-1.54738"><ele>108.62</ele></trkpt><trkpt lat="49.63891" lon="-1.54735"><ele>108.16</ele></trkpt><trkpt lat="49.63854" lon="-1.54731"><ele>105</ele></trkpt><trkpt lat="49.63826" lon="-1.54708"><ele>102.69</ele></trkpt><trkpt lat="49.63821" lon="-1.54651"><ele>104.42</ele></trkpt><trkpt lat="49.63815" lon="-1.54593"><ele>106.6</ele></trkpt><trkpt lat="49.63787" lon="-1.54555"><ele>106.57</ele></trkpt><trkpt lat="49.6375" lon="-1.54535"><ele>106.87</ele></trkpt><trkpt lat="49.63709" lon="-1.54518"><ele>108.58</ele></trkpt><trkpt lat="49.63668" lon="-1.54503"><ele>114.87</ele></trkpt><trkpt lat="49.63633" lon="-1.54492"><ele>118.54</ele></trkpt><trkpt lat="49.63588" lon="-1.54496"><ele>121.49</ele></trkpt><trkpt lat="49.6355" lon="-1.54512"><ele>123.71</ele></trkpt><trkpt lat="49.63514" lon="-1.54534"><ele>125.33</ele></trkpt><trkpt lat="49.6348" lon="-1.54558"><ele>126.3</ele></trkpt><trkpt lat="49.63445" lon="-1.54585"><ele>127.16</ele></trkpt><trkpt lat="49.63433" lon="-1.54635"><ele>127.65</ele></trkpt><trkpt lat="49.63449" lon="-1.54685"><ele>126.38</ele></trkpt><trkpt lat="49.63483" lon="-1.54714"><ele>125.48</ele></trkpt><trkpt lat="49.63499" lon="-1.54767"><ele>123.71</ele></trkpt><trkpt lat="49.63512" lon="-1.54822"><ele>121.94</ele></trkpt><trkpt lat="49.63515" lon="-1.54885"><ele>121.06</ele></trkpt><trkpt lat="49.63511" lon="-1.54943"><ele>118.21</ele></trkpt><trkpt lat="49.63484" lon="-1.54989"><ele>116.96</ele></trkpt><trkpt lat="49.63457" lon="-1.55037"><ele>116</ele></trkpt><trkpt lat="49.63429" lon="-1.55082"><ele>114.96</ele></trkpt><trkpt lat="49.63408" lon="-1.55132"><ele>111.37</ele></trkpt><trkpt lat="49.63389" lon="-1.55184"><ele>110</ele></trkpt><trkpt lat="49.63368" lon="-1.55241"><ele>108</ele></trkpt><trkpt lat="49.63346" lon="-1.55292"><ele>105.88</ele></trkpt><trkpt lat="49.63326" lon="-1.55344"><ele>104.86</ele></trkpt><trkpt lat="49.6331" lon="-1.55396"><ele>102.52</ele></trkpt><trkpt lat="49.63313" lon="-1.55458"><ele>96.67</ele></trkpt><trkpt lat="49.6332" lon="-1.55527"><ele>91.68</ele></trkpt><trkpt lat="49.63337" lon="-1.55585"><ele>87.79</ele></trkpt><trkpt lat="49.63315" lon="-1.55603"><ele>87.88</ele></trkpt><trkpt lat="49.63289" lon="-1.5556"><ele>91.69</ele></trkpt><trkpt lat="49.63254" lon="-1.55536"><ele>95.1</ele></trkpt><trkpt lat="49.63213" lon="-1.55516"><ele>100.42</ele></trkpt><trkpt lat="49.63172" lon="-1.55508"><ele>102.89</ele></trkpt><trkpt lat="49.63132" lon="-1.55499"><ele>104.05</ele></trkpt><trkpt lat="49.63092" lon="-1.55501"><ele>101.85</ele></trkpt><trkpt lat="49.63055" lon="-1.55499"><ele>100.44</ele></trkpt><trkpt lat="49.63017" lon="-1.55501"><ele>96.8</ele></trkpt><trkpt lat="49.62979" lon="-1.55501"><ele>93.26</ele></trkpt><trkpt lat="49.62945" lon="-1.55492"><ele>91.56</ele></trkpt><trkpt lat="49.62905" lon="-1.55484"><ele>87.13</ele></trkpt><trkpt lat="49.62866" lon="-1.55465"><ele>85.56</ele></trkpt><trkpt lat="49.62831" lon="-1.55432"><ele>83.55</ele></trkpt><trkpt lat="49.62793" lon="-1.55404"><ele>83.12</ele></trkpt><trkpt lat="49.62758" lon="-1.5541"><ele>81.52</ele></trkpt><trkpt lat="49.62729" lon="-1.55446"><ele>83</ele></trkpt><trkpt lat="49.62708" lon="-1.55501"><ele>85.6</ele></trkpt><trkpt lat="49.62682" lon="-1.5555"><ele>90.47</ele></trkpt><trkpt lat="49.62642" lon="-1.55559"><ele>91.43</ele></trkpt><trkpt lat="49.62634" lon="-1.55607"><ele>89.96</ele></trkpt><trkpt lat="49.62636" lon="-1.55666"><ele>87.57</ele></trkpt><trkpt lat="49.62632" lon="-1.55731"><ele>86.1</ele></trkpt><trkpt lat="49.62629" lon="-1.55792"><ele>82.7</ele></trkpt><trkpt lat="49.62635" lon="-1.55856"><ele>80.07</ele></trkpt><trkpt lat="49.62652" lon="-1.5591"><ele>77.52</ele></trkpt><trkpt lat="49.62679" lon="-1.55959"><ele>75.97</ele></trkpt><trkpt lat="49.62698" lon="-1.56015"><ele>73.11</ele></trkpt><trkpt lat="49.62714" lon="-1.56068"><ele>70.94</ele></trkpt><trkpt lat="49.62726" lon="-1.56127"><ele>68.55</ele></trkpt><trkpt lat="49.62744" lon="-1.56183"><ele>64.92</ele></trkpt><trkpt lat="49.62762" lon="-1.56237"><ele>62.87</ele></trkpt><trkpt lat="49.6278" lon="-1.56292"><ele>58.53</ele></trkpt><trkpt lat="49.62798" lon="-1.56347"><ele>53.93</ele></trkpt><trkpt lat="49.62813" lon="-1.564"><ele>51.1</ele></trkpt><trkpt lat="49.6283" lon="-1.5646"><ele>47.08</ele></trkpt><trkpt lat="49.62845" lon="-1.56514"><ele>43.44</ele></trkpt><trkpt lat="49.62853" lon="-1.56574"><ele>40.14</ele></trkpt><trkpt lat="49.62856" lon="-1.56636"><ele>35.73</ele></trkpt><trkpt lat="49.62858" lon="-1.56694"><ele>32.47</ele></trkpt><trkpt lat="49.62888" lon="-1.56722"><ele>31.6</ele></trkpt><trkpt lat="49.62926" lon="-1.56725"><ele>31.19</ele></trkpt><trkpt lat="49.62966" lon="-1.56727"><ele>30.49</ele></trkpt><trkpt lat="49.63008" lon="-1.56727"><ele>28.93</ele></trkpt><trkpt lat="49.63045" lon="-1.56732"><ele>27.64</ele></trkpt><trkpt lat="49.6308" lon="-1.56754"><ele>25.77</ele></trkpt><trkpt lat="49.63115" lon="-1.56777"><ele>24.76</ele></trkpt><trkpt lat="49.6315" lon="-1.56799"><ele>23.91</ele></trkpt><trkpt lat="49.63185" lon="-1.56821"><ele>23.22</ele></trkpt><trkpt lat="49.63221" lon="-1.56839"><ele>22.91</ele></trkpt><trkpt lat="49.63257" lon="-1.56857"><ele>22.88</ele></trkpt><trkpt lat="49.63293" lon="-1.56875"><ele>22.58</ele></trkpt><trkpt lat="49.63329" lon="-1.56892"><ele>22.49</ele></trkpt><trkpt lat="49.63365" lon="-1.5691"><ele>22.81</ele></trkpt><trkpt lat="49.63401" lon="-1.56928"><ele>23.1</ele></trkpt><trkpt lat="49.63437" lon="-1.56946"><ele>23.55</ele></trkpt><trkpt lat="49.63461" lon="-1.56917"><ele>25.67</ele></trkpt><trkpt lat="49.63483" lon="-1.56881"><ele>27.15</ele></trkpt><trkpt lat="49.63497" lon="-1.56827"><ele>28.46</ele></trkpt><trkpt lat="49.63512" lon="-1.56773"><ele>29.39</ele></trkpt><trkpt lat="49.63527" lon="-1.56718"><ele>31.48</ele></trkpt><trkpt lat="49.63549" lon="-1.56671"><ele>32.42</ele></trkpt><trkpt lat="49.63572" lon="-1.56625"><ele>34.3</ele></trkpt><trkpt lat="49.63585" lon="-1.56653"><ele>33.84</ele></trkpt><trkpt lat="49.63622" lon="-1.56652"><ele>32.01</ele></trkpt><trkpt lat="49.6366" lon="-1.5666"><ele>29.53</ele></trkpt><trkpt lat="49.63668" lon="-1.56608"><ele>33.43</ele></trkpt><trkpt lat="49.63703" lon="-1.56612"><ele>32.51</ele></trkpt><trkpt lat="49.63726" lon="-1.56653"><ele>30.33</ele></trkpt><trkpt lat="49.63751" lon="-1.56678"><ele>28.65</ele></trkpt><trkpt lat="49.63788" lon="-1.56661"><ele>27.78</ele></trkpt><trkpt lat="49.63826" lon="-1.56674"><ele>26.05</ele></trkpt><trkpt lat="49.63861" lon="-1.56695"><ele>25.18</ele></trkpt><trkpt lat="49.63891" lon="-1.56694"><ele>26.58</ele></trkpt><trkpt lat="49.63909" lon="-1.56639"><ele>26.96</ele></trkpt><trkpt lat="49.63938" lon="-1.56607"><ele>27.34</ele></trkpt><trkpt lat="49.6397" lon="-1.56606"><ele>29.17</ele></trkpt><trkpt lat="49.63989" lon="-1.56556"><ele>31.22</ele></trkpt><trkpt lat="49.64011" lon="-1.56508"><ele>32.26</ele></trkpt><trkpt lat="49.64043" lon="-1.56477"><ele>35.24</ele></trkpt><trkpt lat="49.64081" lon="-1.56482"><ele>39.86</ele></trkpt><trkpt lat="49.6412" lon="-1.56494"><ele>40.91</ele></trkpt><trkpt lat="49.64126" lon="-1.56472"><ele>44.73</ele></trkpt><trkpt lat="49.64121" lon="-1.56421"><ele>50.25</ele></trkpt><trkpt lat="49.64159" lon="-1.56418"><ele>54.36</ele></trkpt><trkpt lat="49.64198" lon="-1.56421"><ele>59.99</ele></trkpt><trkpt lat="49.64236" lon="-1.56425"><ele>64.75</ele></trkpt><trkpt lat="49.64274" lon="-1.56427"><ele>70.17</ele></trkpt><trkpt lat="49.64302" lon="-1.56461"><ele>72.28</ele></trkpt><trkpt lat="49.64335" lon="-1.56488"><ele>72.99</ele></trkpt><trkpt lat="49.64369" lon="-1.56515"><ele>69.8</ele></trkpt><trkpt lat="49.64403" lon="-1.5653"><ele>74.42</ele></trkpt><trkpt lat="49.64439" lon="-1.5651"><ele>77.73</ele></trkpt><trkpt lat="49.64473" lon="-1.56479"><ele>79.64</ele></trkpt><trkpt lat="49.64512" lon="-1.56475"><ele>80.21</ele></trkpt><trkpt lat="49.64548" lon="-1.56499"><ele>79.06</ele></trkpt><trkpt lat="49.64586" lon="-1.56517"><ele>75.45</ele></trkpt><trkpt lat="49.64622" lon="-1.56533"><ele>72.21</ele></trkpt><trkpt lat="49.6466" lon="-1.56551"><ele>68.89</ele></trkpt><trkpt lat="49.64682" lon="-1.56602"><ele>64.84</ele></trkpt><trkpt lat="49.64703" lon="-1.56652"><ele>60.61</ele></trkpt><trkpt lat="49.64733" lon="-1.56689"><ele>52.35</ele></trkpt><trkpt lat="49.64765" lon="-1.56724"><ele>46.58</ele></trkpt><trkpt lat="49.64801" lon="-1.56723"><ele>41.98</ele></trkpt><trkpt lat="49.64827" lon="-1.56718"><ele>37.74</ele></trkpt><trkpt lat="49.64829" lon="-1.56775"><ele>32.12</ele></trkpt><trkpt lat="49.64813" lon="-1.56823"><ele>27.29</ele></trkpt><trkpt lat="49.64851" lon="-1.56833"><ele>23.22</ele></trkpt><trkpt lat="49.6489" lon="-1.56832"><ele>19.27</ele></trkpt><trkpt lat="49.64912" lon="-1.56792"><ele>17.54</ele></trkpt><trkpt lat="49.64924" lon="-1.56736"><ele>17.4</ele></trkpt><trkpt lat="49.64943" lon="-1.56684"><ele>17</ele></trkpt><trkpt lat="49.64962" lon="-1.56634"><ele>16.72</ele></trkpt><trkpt lat="49.64995" lon="-1.5665"><ele>14.82</ele></trkpt><trkpt lat="49.65033" lon="-1.56659"><ele>13.27</ele></trkpt><trkpt lat="49.65072" lon="-1.56653"><ele>10.79</ele></trkpt><trkpt lat="49.65108" lon="-1.56639"><ele>9.29</ele></trkpt><trkpt lat="49.65147" lon="-1.56636"><ele>8.92</ele></trkpt><trkpt lat="49.6518" lon="-1.56666"><ele>7.92</ele></trkpt><trkpt lat="49.65208" lon="-1.56708"><ele>7.34</ele></trkpt><trkpt lat="49.65231" lon="-1.56754"><ele>6.67</ele></trkpt><trkpt lat="49.65253" lon="-1.56803"><ele>6.31</ele></trkpt><trkpt lat="49.6525" lon="-1.56806"><ele>5.94</ele></trkpt><trkpt lat="49.65278" lon="-1.56873"><ele>5.16</ele></trkpt><trkpt lat="49.65304" lon="-1.56937"><ele>4.85</ele></trkpt><trkpt lat="49.65308" lon="-1.56945"><ele>4.97</ele></trkpt><trkpt lat="49.65312" lon="-1.56964"><ele>4.68</ele></trkpt><trkpt lat="49.65321" lon="-1.56996"><ele>4.5</ele></trkpt><trkpt lat="49.65326" lon="-1.57009"><ele>4.17</ele></trkpt><trkpt lat="49.65327" lon="-1.57002"><ele>4.48</ele></trkpt><trkpt lat="49.65333" lon="-1.56966"><ele>8.08</ele></trkpt><trkpt lat="49.65336" lon="-1.56952"><ele>8.21</ele></trkpt><trkpt lat="49.65337" lon="-1.56948"><ele>8.21</ele></trkpt><trkpt lat="49.6534" lon="-1.5693"><ele>8.23</ele></trkpt><trkpt lat="49.65341" lon="-1.56927"><ele>8.19</ele></trkpt><trkpt lat="49.65346" lon="-1.56902"><ele>4.69</ele></trkpt><trkpt lat="49.65344" lon="-1.56891"><ele>4.77</ele></trkpt><trkpt lat="49.65344" lon="-1.56884"><ele>4.87</ele></trkpt><trkpt lat="49.65345" lon="-1.56879"><ele>4.89</ele></trkpt><trkpt lat="49.65347" lon="-1.56872"><ele>4.79</ele></trkpt><trkpt lat="49.65356" lon="-1.56853"><ele>4.9</ele></trkpt><trkpt lat="49.65356" lon="-1.56852"><ele>4.9</ele></trkpt><trkpt lat="49.6537" lon="-1.56782"><ele>4.67</ele></trkpt><trkpt lat="49.65371" lon="-1.56779"><ele>4.67</ele></trkpt><trkpt lat="49.65373" lon="-1.56769"><ele>4.71</ele></trkpt><trkpt lat="49.65379" lon="-1.56737"><ele>4.88</ele></trkpt><trkpt lat="49.6538" lon="-1.56727"><ele>4.93</ele></trkpt><trkpt lat="49.65385" lon="-1.56701"><ele>4.9</ele></trkpt><trkpt lat="49.65388" lon="-1.56685"><ele>4.79</ele></trkpt><trkpt lat="49.65395" lon="-1.56647"><ele>4.5</ele></trkpt><trkpt lat="49.65399" lon="-1.56621"><ele>4.47</ele></trkpt><trkpt lat="49.65401" lon="-1.56594"><ele>4.41</ele></trkpt><trkpt lat="49.65403" lon="-1.5658"><ele>4.47</ele></trkpt><trkpt lat="49.65403" lon="-1.56564"><ele>4.5</ele></trkpt><trkpt lat="49.65403" lon="-1.56555"><ele>4.5</ele></trkpt><trkpt lat="49.65402" lon="-1.56531"><ele>4.46</ele></trkpt><trkpt lat="49.65398" lon="-1.56471"><ele>4.35</ele></trkpt><trkpt lat="49.65396" lon="-1.56437"><ele>4.56</ele></trkpt><trkpt lat="49.65395" lon="-1.56419"><ele>4.66</ele></trkpt><trkpt lat="49.65396" lon="-1.56435"><ele>4.58</ele></trkpt><trkpt lat="49.65395" lon="-1.56434"><ele>4.57</ele></trkpt></trkseg></trk></gpx>
