<?xml version="1.0" encoding="UTF-8" standalone="no"?>
<gpx xmlns="http://www.topografix.com/GPX/1/1" version="1.1" xmlns:xsi="http://www.w3.org/2001/XMLSchema-instance" xsi:schemaLocation="http://www.topografix.com/GPX/1/1 http://www.topografix.com/GPX/1/1/gpx.xsd" creator="Cirkwi"><metadata><name><![CDATA[La Pointe des Mares]]></name><desc><![CDATA[Vous traverserez les marais arrière-littoraux du nord-est Cotentin. La plus grande mare s'étend sur 14 ha et comprend un petit plan d'eau bordé de roselière. Ces formations abritent nids et couvées de nombreux oiseaux. Veillez à la préservation des nids de gravelots sur les hauts de plage pendant la randonnée. Non loin du circuit, ne manquez pas le moulin à eau de Marie Ravenel (circuit n°10 "Marie ravenel"). Partez du parking de la place Casimir Noel juste au nord de l'église de Réthoville. Contournez l'église par la gauche et prenez à droite vers le hameau Les Blonds (Réthoville, Vicq-sur-Mer). Coordonnées GPS : 49°41'47.717"N, 1°21'28.879"W Suivez le circuit selon le sens des aiguilles d'une montre. Le balisage est de couleur jaune. Le long du littoral, suivez le balisage du GR223 (rouge et blanc). Vous retrouverez ce circuit dans les topoguides "Val-de-Saire - de Bretteville à Gatteville-Phare" et " Hors des Sentiers Battus " de l'Office de tourisme du Cotentin.   Le long du littoral, le passage dans les galets et le sable rend la marche difficile. Départ accessible avec le réseau de bus Cap Cotentin à l'arrêt "Réthoville Carrefour Saint-Martin - La Vierge" (à 300 m du départ) - (plus d'infos sur capcotentin.fr)]]></desc><author><name><![CDATA[Cotentin unique]]></name></author><link href="http://fichier0.cirkwi.com/image/photo/circuit/1300x1300/142187/fr/0.jpg"><text><![CDATA[|]]></text></link><time>2026-08-17T08:49:17Z</time></metadata><trk><trkseg><trkpt lat="49.69651" lon="-1.35779"><ele>22.35</ele></trkpt><trkpt lat="49.69653" lon="-1.35781"><ele>22.03</ele></trkpt><trkpt lat="49.69657" lon="-1.35789"><ele>21.71</ele></trkpt><trkpt lat="49.69662" lon="-1.35796"><ele>21.51</ele></trkpt><trkpt lat="49.69659" lon="-1.35802"><ele>21.76</ele></trkpt><trkpt lat="49.69655" lon="-1.35809"><ele>21.97</ele></trkpt><trkpt lat="49.6965" lon="-1.35817"><ele>22.22</ele></trkpt><trkpt lat="49.69646" lon="-1.35822"><ele>22.12</ele></trkpt><trkpt lat="49.69641" lon="-1.35825"><ele>21.79</ele></trkpt><trkpt lat="49.69635" lon="-1.35826"><ele>21.76</ele></trkpt><trkpt lat="49.69638" lon="-1.35851"><ele>20.86</ele></trkpt><trkpt lat="49.69639" lon="-1.35855"><ele>20.74</ele></trkpt><trkpt lat="49.69642" lon="-1.35905"><ele>18.53</ele></trkpt><trkpt lat="49.69645" lon="-1.35974"><ele>16.11</ele></trkpt><trkpt lat="49.69647" lon="-1.36007"><ele>15.86</ele></trkpt><trkpt lat="49.69648" lon="-1.36029"><ele>15.72</ele></trkpt><trkpt lat="49.69651" lon="-1.36084"><ele>14.47</ele></trkpt><trkpt lat="49.69652" lon="-1.36109"><ele>14.41</ele></trkpt><trkpt lat="49.69652" lon="-1.36135"><ele>14.54</ele></trkpt><trkpt lat="49.69654" lon="-1.36162"><ele>14.93</ele></trkpt><trkpt lat="49.69654" lon="-1.36193"><ele>15.33</ele></trkpt><trkpt lat="49.69654" lon="-1.36233"><ele>16.43</ele></trkpt><trkpt lat="49.69653" lon="-1.36288"><ele>17.64</ele></trkpt><trkpt lat="49.69653" lon="-1.36307"><ele>17.74</ele></trkpt><trkpt lat="49.69652" lon="-1.36316"><ele>17.69</ele></trkpt><trkpt lat="49.69651" lon="-1.36335"><ele>17.95</ele></trkpt><trkpt lat="49.69651" lon="-1.36347"><ele>17.86</ele></trkpt><trkpt lat="49.69647" lon="-1.36377"><ele>17.05</ele></trkpt><trkpt lat="49.69644" lon="-1.3639"><ele>17.55</ele></trkpt><trkpt lat="49.69639" lon="-1.36416"><ele>16.65</ele></trkpt><trkpt lat="49.69639" lon="-1.36421"><ele>16.43</ele></trkpt><trkpt lat="49.69636" lon="-1.36436"><ele>16.19</ele></trkpt><trkpt lat="49.69634" lon="-1.36471"><ele>15.98</ele></trkpt><trkpt lat="49.69618" lon="-1.36475"><ele>16.6</ele></trkpt><trkpt lat="49.69612" lon="-1.36477"><ele>16.6</ele></trkpt><trkpt lat="49.69604" lon="-1.3648"><ele>16.65</ele></trkpt><trkpt lat="49.69582" lon="-1.36491"><ele>17.18</ele></trkpt><trkpt lat="49.69578" lon="-1.36493"><ele>17.19</ele></trkpt><trkpt lat="49.69559" lon="-1.36504"><ele>18</ele></trkpt><trkpt lat="49.69548" lon="-1.36511"><ele>18.6</ele></trkpt><trkpt lat="49.69532" lon="-1.36521"><ele>19.41</ele></trkpt><trkpt lat="49.69506" lon="-1.36532"><ele>20.9</ele></trkpt><trkpt lat="49.69481" lon="-1.36545"><ele>22.04</ele></trkpt><trkpt lat="49.69473" lon="-1.36548"><ele>22.53</ele></trkpt><trkpt lat="49.6946" lon="-1.3655"><ele>23.1</ele></trkpt><trkpt lat="49.69459" lon="-1.3656"><ele>23.16</ele></trkpt><trkpt lat="49.69462" lon="-1.3657"><ele>22.91</ele></trkpt><trkpt lat="49.69465" lon="-1.36581"><ele>22.59</ele></trkpt><trkpt lat="49.69467" lon="-1.36585"><ele>22.53</ele></trkpt><trkpt lat="49.69472" lon="-1.36601"><ele>21.88</ele></trkpt><trkpt lat="49.69477" lon="-1.36614"><ele>20.62</ele></trkpt><trkpt lat="49.69478" lon="-1.36623"><ele>20.4</ele></trkpt><trkpt lat="49.69478" lon="-1.36637"><ele>19.5</ele></trkpt><trkpt lat="49.69478" lon="-1.36644"><ele>19.12</ele></trkpt><trkpt lat="49.69473" lon="-1.36663"><ele>18.7</ele></trkpt><trkpt lat="49.69471" lon="-1.36669"><ele>18.79</ele></trkpt><trkpt lat="49.6947" lon="-1.367"><ele>18.51</ele></trkpt><trkpt lat="49.69471" lon="-1.36718"><ele>17.97</ele></trkpt><trkpt lat="49.69471" lon="-1.36728"><ele>17.67</ele></trkpt><trkpt lat="49.69472" lon="-1.36749"><ele>16.54</ele></trkpt><trkpt lat="49.69474" lon="-1.36756"><ele>15.89</ele></trkpt><trkpt lat="49.69478" lon="-1.36772"><ele>14.99</ele></trkpt><trkpt lat="49.69479" lon="-1.36776"><ele>14.82</ele></trkpt><trkpt lat="49.69481" lon="-1.36787"><ele>14.24</ele></trkpt><trkpt lat="49.69481" lon="-1.36795"><ele>13.94</ele></trkpt><trkpt lat="49.69474" lon="-1.36825"><ele>12.96</ele></trkpt><trkpt lat="49.6947" lon="-1.36844"><ele>11.95</ele></trkpt><trkpt lat="49.69469" lon="-1.3686"><ele>10.18</ele></trkpt><trkpt lat="49.6947" lon="-1.36872"><ele>9.23</ele></trkpt><trkpt lat="49.69472" lon="-1.36879"><ele>8.77</ele></trkpt><trkpt lat="49.69476" lon="-1.3689"><ele>8.22</ele></trkpt><trkpt lat="49.6948" lon="-1.36903"><ele>7.84</ele></trkpt><trkpt lat="49.69482" lon="-1.36908"><ele>7.81</ele></trkpt><trkpt lat="49.69487" lon="-1.36929"><ele>7.26</ele></trkpt><trkpt lat="49.6949" lon="-1.36936"><ele>7.13</ele></trkpt><trkpt lat="49.69494" lon="-1.36955"><ele>6.99</ele></trkpt><trkpt lat="49.69495" lon="-1.36959"><ele>6.96</ele></trkpt><trkpt lat="49.69498" lon="-1.36976"><ele>6.67</ele></trkpt><trkpt lat="49.695" lon="-1.37006"><ele>6.57</ele></trkpt><trkpt lat="49.695" lon="-1.37009"><ele>6.51</ele></trkpt><trkpt lat="49.69501" lon="-1.37021"><ele>6.36</ele></trkpt><trkpt lat="49.69501" lon="-1.37037"><ele>6.31</ele></trkpt><trkpt lat="49.69501" lon="-1.37047"><ele>6.25</ele></trkpt><trkpt lat="49.69501" lon="-1.37058"><ele>6.32</ele></trkpt><trkpt lat="49.69501" lon="-1.37064"><ele>6.19</ele></trkpt><trkpt lat="49.69501" lon="-1.37069"><ele>6.23</ele></trkpt><trkpt lat="49.695" lon="-1.37076"><ele>6.23</ele></trkpt><trkpt lat="49.69498" lon="-1.37092"><ele>6.2</ele></trkpt><trkpt lat="49.69498" lon="-1.37097"><ele>6.22</ele></trkpt><trkpt lat="49.69491" lon="-1.37132"><ele>6.44</ele></trkpt><trkpt lat="49.69485" lon="-1.37173"><ele>7.32</ele></trkpt><trkpt lat="49.69482" lon="-1.372"><ele>7.63</ele></trkpt><trkpt lat="49.69481" lon="-1.37212"><ele>8.39</ele></trkpt><trkpt lat="49.6948" lon="-1.37228"><ele>8.92</ele></trkpt><trkpt lat="49.69478" lon="-1.37255"><ele>9.41</ele></trkpt><trkpt lat="49.69488" lon="-1.37259"><ele>9.44</ele></trkpt><trkpt lat="49.69496" lon="-1.37261"><ele>9.27</ele></trkpt><trkpt lat="49.69498" lon="-1.37262"><ele>9.27</ele></trkpt><trkpt lat="49.69507" lon="-1.37267"><ele>8.69</ele></trkpt><trkpt lat="49.69513" lon="-1.37271"><ele>8.44</ele></trkpt><trkpt lat="49.69517" lon="-1.37273"><ele>8.16</ele></trkpt><trkpt lat="49.69518" lon="-1.37273"><ele>8.16</ele></trkpt><trkpt lat="49.69539" lon="-1.37283"><ele>7.42</ele></trkpt><trkpt lat="49.69541" lon="-1.37284"><ele>7.42</ele></trkpt><trkpt lat="49.69547" lon="-1.37288"><ele>7.17</ele></trkpt><trkpt lat="49.69554" lon="-1.37291"><ele>7.1</ele></trkpt><trkpt lat="49.69564" lon="-1.37298"><ele>6.98</ele></trkpt><trkpt lat="49.6958" lon="-1.3731"><ele>6.89</ele></trkpt><trkpt lat="49.69596" lon="-1.37321"><ele>7.19</ele></trkpt><trkpt lat="49.69597" lon="-1.37321"><ele>6.83</ele></trkpt><trkpt lat="49.69608" lon="-1.37326"><ele>6.93</ele></trkpt><trkpt lat="49.69625" lon="-1.37329"><ele>6.95</ele></trkpt><trkpt lat="49.69644" lon="-1.37332"><ele>7.15</ele></trkpt><trkpt lat="49.6965" lon="-1.37333"><ele>7</ele></trkpt><trkpt lat="49.69656" lon="-1.37334"><ele>7.15</ele></trkpt><trkpt lat="49.6968" lon="-1.37337"><ele>6.49</ele></trkpt><trkpt lat="49.69697" lon="-1.37337"><ele>6.07</ele></trkpt><trkpt lat="49.69721" lon="-1.37332"><ele>5.71</ele></trkpt><trkpt lat="49.69751" lon="-1.3733"><ele>5.6</ele></trkpt><trkpt lat="49.69767" lon="-1.37329"><ele>5.68</ele></trkpt><trkpt lat="49.69769" lon="-1.37329"><ele>5.66</ele></trkpt><trkpt lat="49.69777" lon="-1.37329"><ele>5.65</ele></trkpt><trkpt lat="49.69806" lon="-1.3733"><ele>6.24</ele></trkpt><trkpt lat="49.69831" lon="-1.37329"><ele>6.21</ele></trkpt><trkpt lat="49.69849" lon="-1.37329"><ele>6.57</ele></trkpt><trkpt lat="49.69854" lon="-1.37329"><ele>6.68</ele></trkpt><trkpt lat="49.69864" lon="-1.37326"><ele>8.12</ele></trkpt><trkpt lat="49.69883" lon="-1.37323"><ele>7.78</ele></trkpt><trkpt lat="49.69884" lon="-1.37323"><ele>7.78</ele></trkpt><trkpt lat="49.69908" lon="-1.37321"><ele>7.94</ele></trkpt><trkpt lat="49.6992" lon="-1.37323"><ele>7.33</ele></trkpt><trkpt lat="49.69925" lon="-1.37339"><ele>8.08</ele></trkpt><trkpt lat="49.69928" lon="-1.37352"><ele>8.62</ele></trkpt><trkpt lat="49.69929" lon="-1.37359"><ele>8.96</ele></trkpt><trkpt lat="49.6993" lon="-1.37361"><ele>9.36</ele></trkpt><trkpt lat="49.69932" lon="-1.37373"><ele>9.1</ele></trkpt><trkpt lat="49.69933" lon="-1.37385"><ele>9.27</ele></trkpt><trkpt lat="49.69933" lon="-1.37386"><ele>9.27</ele></trkpt><trkpt lat="49.69933" lon="-1.37397"><ele>9.35</ele></trkpt><trkpt lat="49.69935" lon="-1.37425"><ele>9.81</ele></trkpt><trkpt lat="49.69936" lon="-1.37442"><ele>9.86</ele></trkpt><trkpt lat="49.69937" lon="-1.37463"><ele>10.08</ele></trkpt><trkpt lat="49.69937" lon="-1.3747"><ele>10.13</ele></trkpt><trkpt lat="49.69938" lon="-1.37484"><ele>10.34</ele></trkpt><trkpt lat="49.69938" lon="-1.37497"><ele>10.32</ele></trkpt><trkpt lat="49.69938" lon="-1.37504"><ele>10.39</ele></trkpt><trkpt lat="49.69938" lon="-1.37509"><ele>10.5</ele></trkpt><trkpt lat="49.6994" lon="-1.37517"><ele>10.97</ele></trkpt><trkpt lat="49.69941" lon="-1.3752"><ele>11.02</ele></trkpt><trkpt lat="49.69942" lon="-1.37524"><ele>11.2</ele></trkpt><trkpt lat="49.69943" lon="-1.37528"><ele>11.31</ele></trkpt><trkpt lat="49.6995" lon="-1.37549"><ele>10.79</ele></trkpt><trkpt lat="49.69954" lon="-1.37559"><ele>10.59</ele></trkpt><trkpt lat="49.69959" lon="-1.37572"><ele>10.47</ele></trkpt><trkpt lat="49.69965" lon="-1.37587"><ele>10.66</ele></trkpt><trkpt lat="49.69969" lon="-1.37596"><ele>10.59</ele></trkpt><trkpt lat="49.69978" lon="-1.3762"><ele>10.71</ele></trkpt><trkpt lat="49.69979" lon="-1.3762"><ele>10.34</ele></trkpt><trkpt lat="49.6998" lon="-1.37624"><ele>10.47</ele></trkpt><trkpt lat="49.69981" lon="-1.37629"><ele>10.62</ele></trkpt><trkpt lat="49.69982" lon="-1.37634"><ele>10.8</ele></trkpt><trkpt lat="49.69982" lon="-1.37637"><ele>10.8</ele></trkpt><trkpt lat="49.69981" lon="-1.37643"><ele>10.84</ele></trkpt><trkpt lat="49.69981" lon="-1.37647"><ele>10.91</ele></trkpt><trkpt lat="49.69981" lon="-1.37653"><ele>10.97</ele></trkpt><trkpt lat="49.69979" lon="-1.37684"><ele>11.78</ele></trkpt><trkpt lat="49.69975" lon="-1.37728"><ele>13.5</ele></trkpt><trkpt lat="49.69975" lon="-1.37729"><ele>13.62</ele></trkpt><trkpt lat="49.69975" lon="-1.3774"><ele>13.77</ele></trkpt><trkpt lat="49.69976" lon="-1.37757"><ele>13.85</ele></trkpt><trkpt lat="49.69991" lon="-1.37764"><ele>13.95</ele></trkpt><trkpt lat="49.70008" lon="-1.37771"><ele>14.24</ele></trkpt><trkpt lat="49.70024" lon="-1.3778"><ele>13.82</ele></trkpt><trkpt lat="49.70036" lon="-1.37788"><ele>13.98</ele></trkpt><trkpt lat="49.70047" lon="-1.37795"><ele>13.83</ele></trkpt><trkpt lat="49.70066" lon="-1.37807"><ele>13.85</ele></trkpt><trkpt lat="49.70088" lon="-1.37825"><ele>13.44</ele></trkpt><trkpt lat="49.70082" lon="-1.37844"><ele>13.9</ele></trkpt><trkpt lat="49.70081" lon="-1.37851"><ele>14.23</ele></trkpt><trkpt lat="49.70079" lon="-1.37871"><ele>14.51</ele></trkpt><trkpt lat="49.70079" lon="-1.37878"><ele>14.57</ele></trkpt><trkpt lat="49.7008" lon="-1.37898"><ele>14.43</ele></trkpt><trkpt lat="49.70085" lon="-1.37921"><ele>13.99</ele></trkpt><trkpt lat="49.70086" lon="-1.37926"><ele>13.67</ele></trkpt><trkpt lat="49.70087" lon="-1.3793"><ele>13.34</ele></trkpt><trkpt lat="49.70087" lon="-1.37933"><ele>13.34</ele></trkpt><trkpt lat="49.70091" lon="-1.3794"><ele>12.84</ele></trkpt><trkpt lat="49.701" lon="-1.37964"><ele>12.17</ele></trkpt><trkpt lat="49.70105" lon="-1.37978"><ele>11.42</ele></trkpt><trkpt lat="49.70118" lon="-1.37995"><ele>10.07</ele></trkpt><trkpt lat="49.70123" lon="-1.38007"><ele>9.34</ele></trkpt><trkpt lat="49.7013" lon="-1.38026"><ele>8.33</ele></trkpt><trkpt lat="49.70132" lon="-1.38031"><ele>8.4</ele></trkpt><trkpt lat="49.70136" lon="-1.38043"><ele>8.1</ele></trkpt><trkpt lat="49.70139" lon="-1.38056"><ele>7.72</ele></trkpt><trkpt lat="49.70141" lon="-1.38063"><ele>7.75</ele></trkpt><trkpt lat="49.70148" lon="-1.3808"><ele>7.2</ele></trkpt><trkpt lat="49.70159" lon="-1.38108"><ele>7.01</ele></trkpt><trkpt lat="49.70168" lon="-1.38127"><ele>6.54</ele></trkpt><trkpt lat="49.70168" lon="-1.38129"><ele>6.55</ele></trkpt><trkpt lat="49.7017" lon="-1.38132"><ele>6.57</ele></trkpt><trkpt lat="49.70177" lon="-1.38143"><ele>6.44</ele></trkpt><trkpt lat="49.70209" lon="-1.38176"><ele>6.22</ele></trkpt><trkpt lat="49.70232" lon="-1.38197"><ele>5.99</ele></trkpt><trkpt lat="49.70245" lon="-1.38216"><ele>5.57</ele></trkpt><trkpt lat="49.70251" lon="-1.3823"><ele>5.34</ele></trkpt><trkpt lat="49.70265" lon="-1.38242"><ele>5.27</ele></trkpt><trkpt lat="49.70278" lon="-1.38251"><ele>5.31</ele></trkpt><trkpt lat="49.70306" lon="-1.38264"><ele>5.42</ele></trkpt><trkpt lat="49.7032" lon="-1.38271"><ele>5.59</ele></trkpt><trkpt lat="49.70321" lon="-1.38272"><ele>5.59</ele></trkpt><trkpt lat="49.70333" lon="-1.38276"><ele>5.71</ele></trkpt><trkpt lat="49.70334" lon="-1.38276"><ele>5.71</ele></trkpt><trkpt lat="49.70366" lon="-1.38276"><ele>6.05</ele></trkpt><trkpt lat="49.70368" lon="-1.38276"><ele>6.05</ele></trkpt><trkpt lat="49.70386" lon="-1.38273"><ele>6.19</ele></trkpt><trkpt lat="49.70392" lon="-1.38272"><ele>6.21</ele></trkpt><trkpt lat="49.70403" lon="-1.38271"><ele>6.35</ele></trkpt><trkpt lat="49.70435" lon="-1.38261"><ele>6.37</ele></trkpt><trkpt lat="49.70453" lon="-1.38256"><ele>6.55</ele></trkpt><trkpt lat="49.70468" lon="-1.38249"><ele>6.55</ele></trkpt><trkpt lat="49.70474" lon="-1.38246"><ele>6.53</ele></trkpt><trkpt lat="49.70492" lon="-1.3824"><ele>6.51</ele></trkpt><trkpt lat="49.70496" lon="-1.38239"><ele>6.58</ele></trkpt><trkpt lat="49.7051" lon="-1.38236"><ele>6.5</ele></trkpt><trkpt lat="49.70531" lon="-1.38232"><ele>6.91</ele></trkpt><trkpt lat="49.70533" lon="-1.38231"><ele>6.54</ele></trkpt><trkpt lat="49.70562" lon="-1.38222"><ele>6.11</ele></trkpt><trkpt lat="49.70581" lon="-1.38218"><ele>5.97</ele></trkpt><trkpt lat="49.706" lon="-1.38213"><ele>5.1</ele></trkpt><trkpt lat="49.70616" lon="-1.38209"><ele>5.71</ele></trkpt><trkpt lat="49.70616" lon="-1.38187"><ele>5.4</ele></trkpt><trkpt lat="49.70614" lon="-1.38169"><ele>3.99</ele></trkpt><trkpt lat="49.70609" lon="-1.38154"><ele>4.82</ele></trkpt><trkpt lat="49.70605" lon="-1.38141"><ele>5.41</ele></trkpt><trkpt lat="49.70601" lon="-1.38113"><ele>5.04</ele></trkpt><trkpt lat="49.70601" lon="-1.38109"><ele>4.83</ele></trkpt><trkpt lat="49.70594" lon="-1.38075"><ele>4.49</ele></trkpt><trkpt lat="49.70591" lon="-1.38055"><ele>4.59</ele></trkpt><trkpt lat="49.70588" lon="-1.3804"><ele>4.91</ele></trkpt><trkpt lat="49.70588" lon="-1.38028"><ele>4.88</ele></trkpt><trkpt lat="49.70586" lon="-1.38004"><ele>4.81</ele></trkpt><trkpt lat="49.70586" lon="-1.38"><ele>4.78</ele></trkpt><trkpt lat="49.70587" lon="-1.37949"><ele>5.12</ele></trkpt><trkpt lat="49.70588" lon="-1.37919"><ele>4.58</ele></trkpt><trkpt lat="49.70589" lon="-1.37902"><ele>4.48</ele></trkpt><trkpt lat="49.70589" lon="-1.37894"><ele>4.53</ele></trkpt><trkpt lat="49.70594" lon="-1.37837"><ele>4.52</ele></trkpt><trkpt lat="49.70607" lon="-1.37741"><ele>4.47</ele></trkpt><trkpt lat="49.70615" lon="-1.37682"><ele>4.58</ele></trkpt><trkpt lat="49.70627" lon="-1.37604"><ele>4.19</ele></trkpt><trkpt lat="49.70633" lon="-1.37564"><ele>4.13</ele></trkpt><trkpt lat="49.7064" lon="-1.37521"><ele>4.15</ele></trkpt><trkpt lat="49.70647" lon="-1.37459"><ele>4.46</ele></trkpt><trkpt lat="49.70652" lon="-1.37398"><ele>4.64</ele></trkpt><trkpt lat="49.70654" lon="-1.37368"><ele>4.63</ele></trkpt><trkpt lat="49.70656" lon="-1.37363"><ele>4.71</ele></trkpt><trkpt lat="49.7066" lon="-1.37356"><ele>4.22</ele></trkpt><trkpt lat="49.70663" lon="-1.37347"><ele>3.81</ele></trkpt><trkpt lat="49.70666" lon="-1.37297"><ele>3.92</ele></trkpt><trkpt lat="49.70668" lon="-1.37227"><ele>5.21</ele></trkpt><trkpt lat="49.70668" lon="-1.37216"><ele>5.29</ele></trkpt><trkpt lat="49.70661" lon="-1.37188"><ele>5.21</ele></trkpt><trkpt lat="49.70653" lon="-1.37158"><ele>4.66</ele></trkpt><trkpt lat="49.70649" lon="-1.37145"><ele>4.14</ele></trkpt><trkpt lat="49.70626" lon="-1.37078"><ele>3.02</ele></trkpt><trkpt lat="49.70621" lon="-1.3706"><ele>2.91</ele></trkpt><trkpt lat="49.70605" lon="-1.37005"><ele>2.64</ele></trkpt><trkpt lat="49.70598" lon="-1.36982"><ele>2.79</ele></trkpt><trkpt lat="49.70595" lon="-1.36973"><ele>2.73</ele></trkpt><trkpt lat="49.70545" lon="-1.36811"><ele>3.03</ele></trkpt><trkpt lat="49.70543" lon="-1.36807"><ele>3.1</ele></trkpt><trkpt lat="49.70534" lon="-1.36787"><ele>2.87</ele></trkpt><trkpt lat="49.70527" lon="-1.36758"><ele>2.86</ele></trkpt><trkpt lat="49.70514" lon="-1.36617"><ele>3.02</ele></trkpt><trkpt lat="49.70513" lon="-1.36612"><ele>3.04</ele></trkpt><trkpt lat="49.70503" lon="-1.36506"><ele>3.44</ele></trkpt><trkpt lat="49.70501" lon="-1.36483"><ele>3.55</ele></trkpt><trkpt lat="49.70494" lon="-1.36402"><ele>3.32</ele></trkpt><trkpt lat="49.70491" lon="-1.36339"><ele>3.29</ele></trkpt><trkpt lat="49.7048" lon="-1.36226"><ele>3.24</ele></trkpt><trkpt lat="49.70477" lon="-1.36175"><ele>3.18</ele></trkpt><trkpt lat="49.70472" lon="-1.36142"><ele>3.5</ele></trkpt><trkpt lat="49.70471" lon="-1.36124"><ele>3.47</ele></trkpt><trkpt lat="49.70469" lon="-1.36073"><ele>3.48</ele></trkpt><trkpt lat="49.70466" lon="-1.36013"><ele>3.27</ele></trkpt><trkpt lat="49.70464" lon="-1.35913"><ele>3.75</ele></trkpt><trkpt lat="49.70464" lon="-1.35909"><ele>3.74</ele></trkpt><trkpt lat="49.70461" lon="-1.35867"><ele>3.48</ele></trkpt><trkpt lat="49.70461" lon="-1.35844"><ele>3.46</ele></trkpt><trkpt lat="49.70463" lon="-1.35823"><ele>3.49</ele></trkpt><trkpt lat="49.70463" lon="-1.35813"><ele>3.69</ele></trkpt><trkpt lat="49.70462" lon="-1.35806"><ele>3.56</ele></trkpt><trkpt lat="49.70457" lon="-1.35764"><ele>3.14</ele></trkpt><trkpt lat="49.70448" lon="-1.35725"><ele>3.21</ele></trkpt><trkpt lat="49.70437" lon="-1.35693"><ele>3.34</ele></trkpt><trkpt lat="49.7041" lon="-1.35611"><ele>3.69</ele></trkpt><trkpt lat="49.70402" lon="-1.35578"><ele>3.83</ele></trkpt><trkpt lat="49.70385" lon="-1.35537"><ele>3.61</ele></trkpt><trkpt lat="49.70374" lon="-1.3551"><ele>3.63</ele></trkpt><trkpt lat="49.70355" lon="-1.35462"><ele>3.69</ele></trkpt><trkpt lat="49.70348" lon="-1.35447"><ele>3.76</ele></trkpt><trkpt lat="49.70326" lon="-1.35405"><ele>3.23</ele></trkpt><trkpt lat="49.70321" lon="-1.35396"><ele>3.45</ele></trkpt><trkpt lat="49.70313" lon="-1.35383"><ele>3.49</ele></trkpt><trkpt lat="49.7031" lon="-1.35378"><ele>3.36</ele></trkpt><trkpt lat="49.70304" lon="-1.35368"><ele>3.25</ele></trkpt><trkpt lat="49.70295" lon="-1.35359"><ele>3.18</ele></trkpt><trkpt lat="49.70288" lon="-1.35355"><ele>3.22</ele></trkpt><trkpt lat="49.70279" lon="-1.35352"><ele>3.11</ele></trkpt><trkpt lat="49.70266" lon="-1.35351"><ele>3.03</ele></trkpt><trkpt lat="49.70233" lon="-1.3535"><ele>3.13</ele></trkpt><trkpt lat="49.70212" lon="-1.3535"><ele>3.29</ele></trkpt><trkpt lat="49.70196" lon="-1.3535"><ele>3.59</ele></trkpt><trkpt lat="49.70194" lon="-1.3535"><ele>3.59</ele></trkpt><trkpt lat="49.70183" lon="-1.35351"><ele>4.02</ele></trkpt><trkpt lat="49.70178" lon="-1.35352"><ele>4.07</ele></trkpt><trkpt lat="49.70176" lon="-1.35352"><ele>4.04</ele></trkpt><trkpt lat="49.7017" lon="-1.35356"><ele>4.2</ele></trkpt><trkpt lat="49.70144" lon="-1.35376"><ele>4.82</ele></trkpt><trkpt lat="49.70128" lon="-1.35389"><ele>5.26</ele></trkpt><trkpt lat="49.70116" lon="-1.35394"><ele>5.7</ele></trkpt><trkpt lat="49.7009" lon="-1.35408"><ele>6.77</ele></trkpt><trkpt lat="49.70077" lon="-1.35416"><ele>7.4</ele></trkpt><trkpt lat="49.70043" lon="-1.35436"><ele>8.85</ele></trkpt><trkpt lat="49.70042" lon="-1.35437"><ele>8.71</ele></trkpt><trkpt lat="49.70024" lon="-1.35448"><ele>9.45</ele></trkpt><trkpt lat="49.69999" lon="-1.35467"><ele>10.9</ele></trkpt><trkpt lat="49.69977" lon="-1.3548"><ele>12.29</ele></trkpt><trkpt lat="49.69968" lon="-1.35487"><ele>12.22</ele></trkpt><trkpt lat="49.69961" lon="-1.35491"><ele>12.57</ele></trkpt><trkpt lat="49.69954" lon="-1.35495"><ele>12.91</ele></trkpt><trkpt lat="49.69944" lon="-1.35503"><ele>13.65</ele></trkpt><trkpt lat="49.69918" lon="-1.35523"><ele>15.08</ele></trkpt><trkpt lat="49.69912" lon="-1.35529"><ele>15.25</ele></trkpt><trkpt lat="49.69888" lon="-1.35546"><ele>16.14</ele></trkpt><trkpt lat="49.69862" lon="-1.35566"><ele>17.05</ele></trkpt><trkpt lat="49.69851" lon="-1.35575"><ele>17.23</ele></trkpt><trkpt lat="49.69848" lon="-1.35579"><ele>17.3</ele></trkpt><trkpt lat="49.6984" lon="-1.35587"><ele>17.41</ele></trkpt><trkpt lat="49.69824" lon="-1.3561"><ele>17.78</ele></trkpt><trkpt lat="49.69816" lon="-1.35621"><ele>17.76</ele></trkpt><trkpt lat="49.69796" lon="-1.35651"><ele>18.11</ele></trkpt><trkpt lat="49.69781" lon="-1.35671"><ele>18.37</ele></trkpt><trkpt lat="49.69775" lon="-1.35676"><ele>18.38</ele></trkpt><trkpt lat="49.69771" lon="-1.35679"><ele>18.37</ele></trkpt><trkpt lat="49.69763" lon="-1.35685"><ele>18.59</ele></trkpt><trkpt lat="49.69742" lon="-1.35706"><ele>18.69</ele></trkpt><trkpt lat="49.69738" lon="-1.35711"><ele>18.72</ele></trkpt><trkpt lat="49.6973" lon="-1.35721"><ele>19.04</ele></trkpt><trkpt lat="49.69719" lon="-1.35741"><ele>19.07</ele></trkpt><trkpt lat="49.69692" lon="-1.35782"><ele>20.55</ele></trkpt><trkpt lat="49.69676" lon="-1.3579"><ele>21.07</ele></trkpt><trkpt lat="49.69662" lon="-1.35796"><ele>21.51</ele></trkpt><trkpt lat="49.69657" lon="-1.35789"><ele>21.71</ele></trkpt><trkpt lat="49.69653" lon="-1.35781"><ele>22.03</ele></trkpt><trkpt lat="49.69651" lon="-1.35779"><ele>22.35</ele></trkpt></trkseg></trk></gpx>
