<?xml version="1.0" encoding="UTF-8" standalone="no"?>
<gpx xmlns="http://www.topografix.com/GPX/1/1" version="1.1" xmlns:xsi="http://www.w3.org/2001/XMLSchema-instance" xsi:schemaLocation="http://www.topografix.com/GPX/1/1 http://www.topografix.com/GPX/1/1/gpx.xsd" creator="Cirkwi"><metadata><name><![CDATA[Les hauteurs du Becquet]]></name><desc><![CDATA[Ce circuit vous emmènera sur les hauteurs de Cherbourg jusqu'au fort de Digosville, le long des petits chemins bordés de champs offrant un paysage vallonné avec la mer en arrière-plan. Le parcours longe en partie les itinéraires du GR223 et des Balcons de Cherbourg, d'autres idées de parcours ! Partez du parking en face de la Ferme du Four. Prenez à droite du parking vers le bourg, puis tournez après le commerce (Disgoville). Coordonnées GPS : 49°37’46.101’’N, 1°31’52.342’’ W Suivez le circuit selon le sens des aiguilles d'une montre. Le balisage est de couleur bleu. Vous retrouverez ce circuit dans le topoguide "Cherbourg-en-cotentin" de l'Office de tourisme du Cotentin.   Prudence lors des traversées de la RD901.  Départ accessible avec le réseau de bus Cap Cotentin à l'arrêt "Becquet" desservie par les lignes C et S6. L'arrêt se trouve à 800 mètres du parcours (plus d'infos sur capcotentin.fr)]]></desc><author><name><![CDATA[Cotentin unique]]></name></author><link href="http://fichier0.cirkwi.com/image/photo/circuit/1300x1300/384178/fr/0.jpg"><text><![CDATA[|Aymeric Picot]]></text></link><link href="http://fichier0.cirkwi.com/image/photo/circuit/1300x1300/384178/fr/1.jpg"><text><![CDATA[|Aymeric Picot]]></text></link><link href="http://fichier0.cirkwi.com/image/photo/circuit/1300x1300/384178/fr/2.jpg"><text><![CDATA[|Aymeric Picot]]></text></link><link href="http://fichier0.cirkwi.com/image/photo/circuit/1300x1300/384178/fr/3.jpg"><text><![CDATA[|Aymeric Picot]]></text></link><time>2026-08-12T12:19:49Z</time></metadata><trk><trkseg><trkpt lat="49.6293" lon="-1.53119"><ele>119.47</ele></trkpt><trkpt lat="49.62936" lon="-1.53111"><ele>119.49</ele></trkpt><trkpt lat="49.62984" lon="-1.53041"><ele>120.39</ele></trkpt><trkpt lat="49.63012" lon="-1.52995"><ele>119.95</ele></trkpt><trkpt lat="49.63046" lon="-1.52941"><ele>119.43</ele></trkpt><trkpt lat="49.63056" lon="-1.52925"><ele>119.35</ele></trkpt><trkpt lat="49.63068" lon="-1.52905"><ele>119.14</ele></trkpt><trkpt lat="49.63072" lon="-1.52891"><ele>119</ele></trkpt><trkpt lat="49.63076" lon="-1.52874"><ele>118.84</ele></trkpt><trkpt lat="49.63079" lon="-1.52862"><ele>118.63</ele></trkpt><trkpt lat="49.6308" lon="-1.52858"><ele>118.56</ele></trkpt><trkpt lat="49.63083" lon="-1.52846"><ele>118.36</ele></trkpt><trkpt lat="49.63087" lon="-1.52832"><ele>118.2</ele></trkpt><trkpt lat="49.63094" lon="-1.52816"><ele>117.88</ele></trkpt><trkpt lat="49.63099" lon="-1.52808"><ele>117.68</ele></trkpt><trkpt lat="49.63105" lon="-1.528"><ele>117.35</ele></trkpt><trkpt lat="49.63118" lon="-1.5279"><ele>117</ele></trkpt><trkpt lat="49.63128" lon="-1.52783"><ele>116.87</ele></trkpt><trkpt lat="49.63137" lon="-1.52777"><ele>116.54</ele></trkpt><trkpt lat="49.63147" lon="-1.52776"><ele>116.24</ele></trkpt><trkpt lat="49.63158" lon="-1.52779"><ele>116.28</ele></trkpt><trkpt lat="49.63161" lon="-1.52799"><ele>116.62</ele></trkpt><trkpt lat="49.63171" lon="-1.52835"><ele>117.86</ele></trkpt><trkpt lat="49.63181" lon="-1.52858"><ele>117.93</ele></trkpt><trkpt lat="49.63188" lon="-1.52874"><ele>118.45</ele></trkpt><trkpt lat="49.63202" lon="-1.52901"><ele>119.2</ele></trkpt><trkpt lat="49.63208" lon="-1.52911"><ele>118.82</ele></trkpt><trkpt lat="49.63211" lon="-1.52917"><ele>119.48</ele></trkpt><trkpt lat="49.63218" lon="-1.5293"><ele>118.72</ele></trkpt><trkpt lat="49.63235" lon="-1.52966"><ele>119.06</ele></trkpt><trkpt lat="49.63238" lon="-1.52973"><ele>119.18</ele></trkpt><trkpt lat="49.63249" lon="-1.53003"><ele>119.48</ele></trkpt><trkpt lat="49.63261" lon="-1.53035"><ele>119.84</ele></trkpt><trkpt lat="49.63271" lon="-1.53057"><ele>120.23</ele></trkpt><trkpt lat="49.63284" lon="-1.5308"><ele>120.58</ele></trkpt><trkpt lat="49.63295" lon="-1.53106"><ele>120.79</ele></trkpt><trkpt lat="49.63296" lon="-1.5311"><ele>120.84</ele></trkpt><trkpt lat="49.63311" lon="-1.53152"><ele>120.76</ele></trkpt><trkpt lat="49.63317" lon="-1.53173"><ele>120.69</ele></trkpt><trkpt lat="49.63321" lon="-1.53189"><ele>120.5</ele></trkpt><trkpt lat="49.6333" lon="-1.53224"><ele>120.17</ele></trkpt><trkpt lat="49.63348" lon="-1.53304"><ele>119</ele></trkpt><trkpt lat="49.63349" lon="-1.53307"><ele>118.85</ele></trkpt><trkpt lat="49.6335" lon="-1.53318"><ele>118.84</ele></trkpt><trkpt lat="49.6335" lon="-1.53325"><ele>118.83</ele></trkpt><trkpt lat="49.63349" lon="-1.53336"><ele>118.88</ele></trkpt><trkpt lat="49.63347" lon="-1.53348"><ele>118.92</ele></trkpt><trkpt lat="49.63365" lon="-1.53356"><ele>118.68</ele></trkpt><trkpt lat="49.63399" lon="-1.53367"><ele>118.22</ele></trkpt><trkpt lat="49.63434" lon="-1.53387"><ele>117.48</ele></trkpt><trkpt lat="49.63445" lon="-1.53399"><ele>116.89</ele></trkpt><trkpt lat="49.63451" lon="-1.53405"><ele>116.79</ele></trkpt><trkpt lat="49.63462" lon="-1.5342"><ele>116.38</ele></trkpt><trkpt lat="49.63471" lon="-1.53437"><ele>116.22</ele></trkpt><trkpt lat="49.63473" lon="-1.5344"><ele>115.83</ele></trkpt><trkpt lat="49.63487" lon="-1.53473"><ele>114.45</ele></trkpt><trkpt lat="49.63488" lon="-1.53475"><ele>114.36</ele></trkpt><trkpt lat="49.63492" lon="-1.5348"><ele>114.02</ele></trkpt><trkpt lat="49.63498" lon="-1.53488"><ele>113.49</ele></trkpt><trkpt lat="49.63515" lon="-1.5351"><ele>111.99</ele></trkpt><trkpt lat="49.63523" lon="-1.53521"><ele>111.66</ele></trkpt><trkpt lat="49.63536" lon="-1.5354"><ele>110.71</ele></trkpt><trkpt lat="49.63545" lon="-1.5355"><ele>110.41</ele></trkpt><trkpt lat="49.63553" lon="-1.53553"><ele>110.22</ele></trkpt><trkpt lat="49.63586" lon="-1.5354"><ele>109.69</ele></trkpt><trkpt lat="49.63589" lon="-1.53539"><ele>109.48</ele></trkpt><trkpt lat="49.63598" lon="-1.53537"><ele>109.4</ele></trkpt><trkpt lat="49.63603" lon="-1.53536"><ele>109.29</ele></trkpt><trkpt lat="49.63621" lon="-1.53535"><ele>108.75</ele></trkpt><trkpt lat="49.63633" lon="-1.53531"><ele>108.48</ele></trkpt><trkpt lat="49.63645" lon="-1.53524"><ele>108.17</ele></trkpt><trkpt lat="49.63676" lon="-1.53502"><ele>107.44</ele></trkpt><trkpt lat="49.63682" lon="-1.53497"><ele>107.44</ele></trkpt><trkpt lat="49.63696" lon="-1.53492"><ele>107.21</ele></trkpt><trkpt lat="49.63698" lon="-1.53492"><ele>106.96</ele></trkpt><trkpt lat="49.63721" lon="-1.5349"><ele>106.49</ele></trkpt><trkpt lat="49.6376" lon="-1.53488"><ele>105.78</ele></trkpt><trkpt lat="49.63764" lon="-1.5349"><ele>105.64</ele></trkpt><trkpt lat="49.63767" lon="-1.53495"><ele>105.68</ele></trkpt><trkpt lat="49.63771" lon="-1.53551"><ele>104.15</ele></trkpt><trkpt lat="49.63771" lon="-1.53574"><ele>103.65</ele></trkpt><trkpt lat="49.63765" lon="-1.53615"><ele>103.71</ele></trkpt><trkpt lat="49.63765" lon="-1.53617"><ele>103.47</ele></trkpt><trkpt lat="49.63764" lon="-1.53625"><ele>103.23</ele></trkpt><trkpt lat="49.63766" lon="-1.53632"><ele>103.24</ele></trkpt><trkpt lat="49.63769" lon="-1.53638"><ele>103.08</ele></trkpt><trkpt lat="49.63793" lon="-1.53646"><ele>102.58</ele></trkpt><trkpt lat="49.63805" lon="-1.53647"><ele>102.61</ele></trkpt><trkpt lat="49.6383" lon="-1.53652"><ele>102.33</ele></trkpt><trkpt lat="49.63848" lon="-1.53654"><ele>102.25</ele></trkpt><trkpt lat="49.63857" lon="-1.53653"><ele>102.18</ele></trkpt><trkpt lat="49.63864" lon="-1.5365"><ele>101.97</ele></trkpt><trkpt lat="49.63869" lon="-1.53645"><ele>101.69</ele></trkpt><trkpt lat="49.63875" lon="-1.5364"><ele>101.63</ele></trkpt><trkpt lat="49.63889" lon="-1.5363"><ele>101.57</ele></trkpt><trkpt lat="49.63912" lon="-1.53621"><ele>101.38</ele></trkpt><trkpt lat="49.63923" lon="-1.53616"><ele>101.25</ele></trkpt><trkpt lat="49.63961" lon="-1.53603"><ele>101.08</ele></trkpt><trkpt lat="49.63962" lon="-1.53594"><ele>101.3</ele></trkpt><trkpt lat="49.63962" lon="-1.5359"><ele>101.3</ele></trkpt><trkpt lat="49.63963" lon="-1.53561"><ele>101.51</ele></trkpt><trkpt lat="49.63959" lon="-1.53496"><ele>102.53</ele></trkpt><trkpt lat="49.63958" lon="-1.53475"><ele>103.18</ele></trkpt><trkpt lat="49.63955" lon="-1.53391"><ele>104.81</ele></trkpt><trkpt lat="49.63957" lon="-1.53336"><ele>105.8</ele></trkpt><trkpt lat="49.63956" lon="-1.53268"><ele>106.71</ele></trkpt><trkpt lat="49.63984" lon="-1.53289"><ele>105.91</ele></trkpt><trkpt lat="49.63999" lon="-1.533"><ele>105.26</ele></trkpt><trkpt lat="49.64024" lon="-1.53319"><ele>104.37</ele></trkpt><trkpt lat="49.64068" lon="-1.53353"><ele>103.13</ele></trkpt><trkpt lat="49.64087" lon="-1.53366"><ele>103.08</ele></trkpt><trkpt lat="49.64129" lon="-1.53397"><ele>101.73</ele></trkpt><trkpt lat="49.64137" lon="-1.53402"><ele>101.47</ele></trkpt><trkpt lat="49.64167" lon="-1.53421"><ele>101</ele></trkpt><trkpt lat="49.64188" lon="-1.53439"><ele>101.67</ele></trkpt><trkpt lat="49.64195" lon="-1.5344"><ele>101.18</ele></trkpt><trkpt lat="49.64224" lon="-1.53458"><ele>98.38</ele></trkpt><trkpt lat="49.64228" lon="-1.53461"><ele>98.21</ele></trkpt><trkpt lat="49.64242" lon="-1.53466"><ele>97.73</ele></trkpt><trkpt lat="49.64258" lon="-1.53468"><ele>97.56</ele></trkpt><trkpt lat="49.64303" lon="-1.53464"><ele>96.67</ele></trkpt><trkpt lat="49.64312" lon="-1.53464"><ele>96.56</ele></trkpt><trkpt lat="49.64318" lon="-1.53465"><ele>96.53</ele></trkpt><trkpt lat="49.64328" lon="-1.53473"><ele>96.46</ele></trkpt><trkpt lat="49.64341" lon="-1.53492"><ele>96.65</ele></trkpt><trkpt lat="49.64346" lon="-1.53495"><ele>96.63</ele></trkpt><trkpt lat="49.64371" lon="-1.53507"><ele>96.82</ele></trkpt><trkpt lat="49.64412" lon="-1.53527"><ele>97.69</ele></trkpt><trkpt lat="49.64453" lon="-1.53545"><ele>97.02</ele></trkpt><trkpt lat="49.64463" lon="-1.53552"><ele>97.04</ele></trkpt><trkpt lat="49.64477" lon="-1.53567"><ele>96.79</ele></trkpt><trkpt lat="49.64486" lon="-1.53576"><ele>96.82</ele></trkpt><trkpt lat="49.645" lon="-1.53586"><ele>96.81</ele></trkpt><trkpt lat="49.64505" lon="-1.53589"><ele>96.77</ele></trkpt><trkpt lat="49.64511" lon="-1.53592"><ele>96.77</ele></trkpt><trkpt lat="49.6454" lon="-1.53607"><ele>96.57</ele></trkpt><trkpt lat="49.64552" lon="-1.53613"><ele>96.31</ele></trkpt><trkpt lat="49.64565" lon="-1.5362"><ele>96.16</ele></trkpt><trkpt lat="49.64585" lon="-1.53631"><ele>95.99</ele></trkpt><trkpt lat="49.64588" lon="-1.53634"><ele>96.01</ele></trkpt><trkpt lat="49.64595" lon="-1.5364"><ele>95.8</ele></trkpt><trkpt lat="49.64603" lon="-1.53648"><ele>95.63</ele></trkpt><trkpt lat="49.64629" lon="-1.53667"><ele>94.79</ele></trkpt><trkpt lat="49.64664" lon="-1.53693"><ele>93.22</ele></trkpt><trkpt lat="49.64679" lon="-1.53703"><ele>92.34</ele></trkpt><trkpt lat="49.64687" lon="-1.53708"><ele>92.14</ele></trkpt><trkpt lat="49.64718" lon="-1.53727"><ele>90.23</ele></trkpt><trkpt lat="49.64749" lon="-1.53747"><ele>88.37</ele></trkpt><trkpt lat="49.64764" lon="-1.53758"><ele>87.58</ele></trkpt><trkpt lat="49.64773" lon="-1.53765"><ele>87</ele></trkpt><trkpt lat="49.64778" lon="-1.5377"><ele>86.31</ele></trkpt><trkpt lat="49.64781" lon="-1.53777"><ele>86.11</ele></trkpt><trkpt lat="49.64785" lon="-1.53784"><ele>85.56</ele></trkpt><trkpt lat="49.64781" lon="-1.53777"><ele>86.11</ele></trkpt><trkpt lat="49.64778" lon="-1.5377"><ele>86.31</ele></trkpt><trkpt lat="49.64801" lon="-1.53775"><ele>85.93</ele></trkpt><trkpt lat="49.64821" lon="-1.53778"><ele>85.27</ele></trkpt><trkpt lat="49.64845" lon="-1.53783"><ele>84.72</ele></trkpt><trkpt lat="49.64897" lon="-1.5379"><ele>83.26</ele></trkpt><trkpt lat="49.64908" lon="-1.53791"><ele>83.14</ele></trkpt><trkpt lat="49.64918" lon="-1.5379"><ele>83.16</ele></trkpt><trkpt lat="49.64936" lon="-1.53793"><ele>83.17</ele></trkpt><trkpt lat="49.64975" lon="-1.53788"><ele>82.04</ele></trkpt><trkpt lat="49.64987" lon="-1.53785"><ele>82.72</ele></trkpt><trkpt lat="49.65006" lon="-1.5378"><ele>82.77</ele></trkpt><trkpt lat="49.65048" lon="-1.53771"><ele>82.53</ele></trkpt><trkpt lat="49.65062" lon="-1.53767"><ele>82.54</ele></trkpt><trkpt lat="49.65093" lon="-1.53742"><ele>82.05</ele></trkpt><trkpt lat="49.65095" lon="-1.53741"><ele>82.05</ele></trkpt><trkpt lat="49.65108" lon="-1.53728"><ele>81.37</ele></trkpt><trkpt lat="49.6512" lon="-1.53715"><ele>80.8</ele></trkpt><trkpt lat="49.65123" lon="-1.53709"><ele>80.45</ele></trkpt><trkpt lat="49.65144" lon="-1.53672"><ele>79.05</ele></trkpt><trkpt lat="49.65158" lon="-1.53649"><ele>77.97</ele></trkpt><trkpt lat="49.65162" lon="-1.5364"><ele>77.5</ele></trkpt><trkpt lat="49.65162" lon="-1.53621"><ele>77.04</ele></trkpt><trkpt lat="49.65158" lon="-1.53589"><ele>77.26</ele></trkpt><trkpt lat="49.65152" lon="-1.53571"><ele>77.66</ele></trkpt><trkpt lat="49.6515" lon="-1.53554"><ele>78.69</ele></trkpt><trkpt lat="49.6515" lon="-1.53543"><ele>78.68</ele></trkpt><trkpt lat="49.65151" lon="-1.53509"><ele>78.28</ele></trkpt><trkpt lat="49.65152" lon="-1.53497"><ele>78.48</ele></trkpt><trkpt lat="49.65153" lon="-1.53472"><ele>78.84</ele></trkpt><trkpt lat="49.65153" lon="-1.53465"><ele>79.09</ele></trkpt><trkpt lat="49.65152" lon="-1.53451"><ele>79.32</ele></trkpt><trkpt lat="49.65126" lon="-1.5342"><ele>80.78</ele></trkpt><trkpt lat="49.65108" lon="-1.53411"><ele>80.83</ele></trkpt><trkpt lat="49.65123" lon="-1.53387"><ele>80.43</ele></trkpt><trkpt lat="49.65141" lon="-1.53336"><ele>79.11</ele></trkpt><trkpt lat="49.65131" lon="-1.53328"><ele>80.44</ele></trkpt><trkpt lat="49.65136" lon="-1.53311"><ele>79.16</ele></trkpt><trkpt lat="49.6514" lon="-1.53292"><ele>77.08</ele></trkpt><trkpt lat="49.65141" lon="-1.53277"><ele>75.53</ele></trkpt><trkpt lat="49.65141" lon="-1.53259"><ele>70.28</ele></trkpt><trkpt lat="49.6514" lon="-1.53254"><ele>69.7</ele></trkpt><trkpt lat="49.65151" lon="-1.53218"><ele>62.67</ele></trkpt><trkpt lat="49.65166" lon="-1.53203"><ele>61.17</ele></trkpt><trkpt lat="49.65168" lon="-1.532"><ele>64.83</ele></trkpt><trkpt lat="49.65179" lon="-1.53182"><ele>58.18</ele></trkpt><trkpt lat="49.65184" lon="-1.53168"><ele>54.09</ele></trkpt><trkpt lat="49.65189" lon="-1.5315"><ele>48.94</ele></trkpt><trkpt lat="49.65192" lon="-1.53133"><ele>44.71</ele></trkpt><trkpt lat="49.65193" lon="-1.53128"><ele>43.01</ele></trkpt><trkpt lat="49.65187" lon="-1.5313"><ele>42.27</ele></trkpt><trkpt lat="49.6518" lon="-1.53135"><ele>41.46</ele></trkpt><trkpt lat="49.65175" lon="-1.5314"><ele>40.89</ele></trkpt><trkpt lat="49.65172" lon="-1.53143"><ele>39.72</ele></trkpt><trkpt lat="49.65159" lon="-1.53151"><ele>39.21</ele></trkpt><trkpt lat="49.65151" lon="-1.53153"><ele>40.14</ele></trkpt><trkpt lat="49.65146" lon="-1.53154"><ele>39.42</ele></trkpt><trkpt lat="49.65153" lon="-1.53147"><ele>38.03</ele></trkpt><trkpt lat="49.65169" lon="-1.5313"><ele>36</ele></trkpt><trkpt lat="49.65184" lon="-1.53101"><ele>31.69</ele></trkpt><trkpt lat="49.65191" lon="-1.53082"><ele>27.52</ele></trkpt><trkpt lat="49.65194" lon="-1.5307"><ele>26.39</ele></trkpt><trkpt lat="49.65188" lon="-1.53062"><ele>27.09</ele></trkpt><trkpt lat="49.65179" lon="-1.53051"><ele>27.56</ele></trkpt><trkpt lat="49.65172" lon="-1.53047"><ele>27.33</ele></trkpt><trkpt lat="49.65159" lon="-1.53039"><ele>27.43</ele></trkpt><trkpt lat="49.65147" lon="-1.53031"><ele>27.9</ele></trkpt><trkpt lat="49.65141" lon="-1.53026"><ele>28.58</ele></trkpt><trkpt lat="49.65124" lon="-1.53011"><ele>29.61</ele></trkpt><trkpt lat="49.65118" lon="-1.53007"><ele>29.37</ele></trkpt><trkpt lat="49.65113" lon="-1.53006"><ele>29.11</ele></trkpt><trkpt lat="49.65109" lon="-1.53006"><ele>29.63</ele></trkpt><trkpt lat="49.65104" lon="-1.53007"><ele>31.83</ele></trkpt><trkpt lat="49.65099" lon="-1.53008"><ele>32.59</ele></trkpt><trkpt lat="49.65083" lon="-1.53013"><ele>35.83</ele></trkpt><trkpt lat="49.65081" lon="-1.53012"><ele>36.43</ele></trkpt><trkpt lat="49.6508" lon="-1.53011"><ele>36.43</ele></trkpt><trkpt lat="49.65076" lon="-1.53009"><ele>36.31</ele></trkpt><trkpt lat="49.65074" lon="-1.53005"><ele>35.7</ele></trkpt><trkpt lat="49.65073" lon="-1.52999"><ele>35.88</ele></trkpt><trkpt lat="49.65071" lon="-1.52992"><ele>35.06</ele></trkpt><trkpt lat="49.65069" lon="-1.52984"><ele>34.97</ele></trkpt><trkpt lat="49.65067" lon="-1.52978"><ele>34.7</ele></trkpt><trkpt lat="49.65064" lon="-1.52973"><ele>35.33</ele></trkpt><trkpt lat="49.6506" lon="-1.52966"><ele>35.53</ele></trkpt><trkpt lat="49.65058" lon="-1.52959"><ele>35.28</ele></trkpt><trkpt lat="49.65052" lon="-1.52944"><ele>35.05</ele></trkpt><trkpt lat="49.65043" lon="-1.52955"><ele>37.22</ele></trkpt><trkpt lat="49.65033" lon="-1.52966"><ele>38.94</ele></trkpt><trkpt lat="49.65026" lon="-1.52965"><ele>39.65</ele></trkpt><trkpt lat="49.65015" lon="-1.52961"><ele>40.24</ele></trkpt><trkpt lat="49.65015" lon="-1.52962"><ele>40.24</ele></trkpt><trkpt lat="49.65014" lon="-1.52961"><ele>40.24</ele></trkpt><trkpt lat="49.65007" lon="-1.52956"><ele>41.45</ele></trkpt><trkpt lat="49.64995" lon="-1.5294"><ele>42.47</ele></trkpt><trkpt lat="49.64989" lon="-1.5293"><ele>42.74</ele></trkpt><trkpt lat="49.64983" lon="-1.52918"><ele>43.82</ele></trkpt><trkpt lat="49.6497" lon="-1.52891"><ele>46.02</ele></trkpt><trkpt lat="49.64959" lon="-1.52858"><ele>46.99</ele></trkpt><trkpt lat="49.64954" lon="-1.52842"><ele>47.83</ele></trkpt><trkpt lat="49.64946" lon="-1.52817"><ele>51.54</ele></trkpt><trkpt lat="49.64945" lon="-1.52815"><ele>51.54</ele></trkpt><trkpt lat="49.64935" lon="-1.52792"><ele>56.38</ele></trkpt><trkpt lat="49.64934" lon="-1.52789"><ele>56.25</ele></trkpt><trkpt lat="49.64921" lon="-1.52768"><ele>60.13</ele></trkpt><trkpt lat="49.64916" lon="-1.52764"><ele>61.25</ele></trkpt><trkpt lat="49.64902" lon="-1.52752"><ele>63.87</ele></trkpt><trkpt lat="49.64887" lon="-1.52733"><ele>67.22</ele></trkpt><trkpt lat="49.64875" lon="-1.52727"><ele>69.34</ele></trkpt><trkpt lat="49.64863" lon="-1.52727"><ele>71.53</ele></trkpt><trkpt lat="49.64843" lon="-1.52727"><ele>73.5</ele></trkpt><trkpt lat="49.64836" lon="-1.52725"><ele>75.19</ele></trkpt><trkpt lat="49.64812" lon="-1.52717"><ele>78.43</ele></trkpt><trkpt lat="49.64794" lon="-1.52709"><ele>80.88</ele></trkpt><trkpt lat="49.64792" lon="-1.52708"><ele>80.88</ele></trkpt><trkpt lat="49.64753" lon="-1.52701"><ele>84.48</ele></trkpt><trkpt lat="49.64743" lon="-1.52697"><ele>85.6</ele></trkpt><trkpt lat="49.64723" lon="-1.52693"><ele>88.41</ele></trkpt><trkpt lat="49.64709" lon="-1.52693"><ele>89.96</ele></trkpt><trkpt lat="49.64703" lon="-1.52698"><ele>90.54</ele></trkpt><trkpt lat="49.64696" lon="-1.52694"><ele>90.67</ele></trkpt><trkpt lat="49.64687" lon="-1.52688"><ele>91.04</ele></trkpt><trkpt lat="49.64671" lon="-1.52685"><ele>91.77</ele></trkpt><trkpt lat="49.64664" lon="-1.52681"><ele>92.25</ele></trkpt><trkpt lat="49.64653" lon="-1.52675"><ele>92.93</ele></trkpt><trkpt lat="49.64647" lon="-1.52668"><ele>92.99</ele></trkpt><trkpt lat="49.64641" lon="-1.52654"><ele>92.36</ele></trkpt><trkpt lat="49.64633" lon="-1.52638"><ele>92.13</ele></trkpt><trkpt lat="49.6463" lon="-1.52631"><ele>91.98</ele></trkpt><trkpt lat="49.64624" lon="-1.52622"><ele>91.78</ele></trkpt><trkpt lat="49.64618" lon="-1.52616"><ele>92.24</ele></trkpt><trkpt lat="49.64587" lon="-1.52596"><ele>93.08</ele></trkpt><trkpt lat="49.64584" lon="-1.52594"><ele>93.31</ele></trkpt><trkpt lat="49.64577" lon="-1.5259"><ele>93.74</ele></trkpt><trkpt lat="49.6456" lon="-1.52578"><ele>95.45</ele></trkpt><trkpt lat="49.6452" lon="-1.52557"><ele>96.61</ele></trkpt><trkpt lat="49.64512" lon="-1.52556"><ele>96.85</ele></trkpt><trkpt lat="49.64507" lon="-1.52558"><ele>96.94</ele></trkpt><trkpt lat="49.64504" lon="-1.5256"><ele>96.96</ele></trkpt><trkpt lat="49.6449" lon="-1.52565"><ele>97.32</ele></trkpt><trkpt lat="49.64491" lon="-1.5257"><ele>97.43</ele></trkpt><trkpt lat="49.6449" lon="-1.52565"><ele>97.32</ele></trkpt><trkpt lat="49.64477" lon="-1.52571"><ele>97.84</ele></trkpt><trkpt lat="49.64468" lon="-1.52575"><ele>98.14</ele></trkpt><trkpt lat="49.64434" lon="-1.52591"><ele>99.62</ele></trkpt><trkpt lat="49.64419" lon="-1.526"><ele>100.14</ele></trkpt><trkpt lat="49.64409" lon="-1.52561"><ele>100.21</ele></trkpt><trkpt lat="49.64403" lon="-1.52538"><ele>99.79</ele></trkpt><trkpt lat="49.64401" lon="-1.52532"><ele>99.75</ele></trkpt><trkpt lat="49.64389" lon="-1.52503"><ele>98.91</ele></trkpt><trkpt lat="49.6436" lon="-1.52435"><ele>96.9</ele></trkpt><trkpt lat="49.64356" lon="-1.52426"><ele>96.54</ele></trkpt><trkpt lat="49.64351" lon="-1.52416"><ele>96.18</ele></trkpt><trkpt lat="49.64337" lon="-1.52379"><ele>94.47</ele></trkpt><trkpt lat="49.64336" lon="-1.52378"><ele>94.47</ele></trkpt><trkpt lat="49.64332" lon="-1.52375"><ele>94.32</ele></trkpt><trkpt lat="49.64306" lon="-1.52379"><ele>94.4</ele></trkpt><trkpt lat="49.64292" lon="-1.52385"><ele>95.04</ele></trkpt><trkpt lat="49.64283" lon="-1.52392"><ele>95.39</ele></trkpt><trkpt lat="49.64276" lon="-1.52398"><ele>96.3</ele></trkpt><trkpt lat="49.64252" lon="-1.52428"><ele>96.67</ele></trkpt><trkpt lat="49.64231" lon="-1.52468"><ele>96.09</ele></trkpt><trkpt lat="49.64223" lon="-1.52481"><ele>96.52</ele></trkpt><trkpt lat="49.64223" lon="-1.52473"><ele>96.18</ele></trkpt><trkpt lat="49.64223" lon="-1.52481"><ele>96.52</ele></trkpt><trkpt lat="49.64222" lon="-1.52502"><ele>97.29</ele></trkpt><trkpt lat="49.6422" lon="-1.5253"><ele>98.46</ele></trkpt><trkpt lat="49.6422" lon="-1.52536"><ele>98.64</ele></trkpt><trkpt lat="49.64185" lon="-1.52557"><ele>101.52</ele></trkpt><trkpt lat="49.64168" lon="-1.52568"><ele>101.57</ele></trkpt><trkpt lat="49.64154" lon="-1.52581"><ele>101.75</ele></trkpt><trkpt lat="49.64113" lon="-1.52621"><ele>102.94</ele></trkpt><trkpt lat="49.64111" lon="-1.52623"><ele>102.88</ele></trkpt><trkpt lat="49.64102" lon="-1.52625"><ele>102.98</ele></trkpt><trkpt lat="49.64087" lon="-1.52624"><ele>101.85</ele></trkpt><trkpt lat="49.64085" lon="-1.52623"><ele>101.59</ele></trkpt><trkpt lat="49.64066" lon="-1.52617"><ele>100.1</ele></trkpt><trkpt lat="49.64065" lon="-1.52617"><ele>99.9</ele></trkpt><trkpt lat="49.64048" lon="-1.52606"><ele>98.36</ele></trkpt><trkpt lat="49.64035" lon="-1.52591"><ele>97.97</ele></trkpt><trkpt lat="49.64026" lon="-1.52575"><ele>96.62</ele></trkpt><trkpt lat="49.64022" lon="-1.5256"><ele>95.88</ele></trkpt><trkpt lat="49.64013" lon="-1.52558"><ele>96.04</ele></trkpt><trkpt lat="49.64002" lon="-1.52551"><ele>96.18</ele></trkpt><trkpt lat="49.63996" lon="-1.52542"><ele>96.41</ele></trkpt><trkpt lat="49.63991" lon="-1.52558"><ele>97.19</ele></trkpt><trkpt lat="49.63987" lon="-1.52572"><ele>98.63</ele></trkpt><trkpt lat="49.63983" lon="-1.52596"><ele>100.88</ele></trkpt><trkpt lat="49.63979" lon="-1.52627"><ele>102.84</ele></trkpt><trkpt lat="49.63976" lon="-1.5265"><ele>104.66</ele></trkpt><trkpt lat="49.63975" lon="-1.52664"><ele>105.51</ele></trkpt><trkpt lat="49.6397" lon="-1.52727"><ele>105.89</ele></trkpt><trkpt lat="49.63965" lon="-1.52756"><ele>106.76</ele></trkpt><trkpt lat="49.63962" lon="-1.52771"><ele>107.2</ele></trkpt><trkpt lat="49.63954" lon="-1.52802"><ele>107.21</ele></trkpt><trkpt lat="49.63953" lon="-1.52815"><ele>107.44</ele></trkpt><trkpt lat="49.63952" lon="-1.52818"><ele>107.46</ele></trkpt><trkpt lat="49.63952" lon="-1.52822"><ele>107.52</ele></trkpt><trkpt lat="49.63953" lon="-1.5287"><ele>108.2</ele></trkpt><trkpt lat="49.63954" lon="-1.52881"><ele>108.5</ele></trkpt><trkpt lat="49.63954" lon="-1.52895"><ele>108.69</ele></trkpt><trkpt lat="49.63957" lon="-1.52966"><ele>109.06</ele></trkpt><trkpt lat="49.63957" lon="-1.52988"><ele>109.18</ele></trkpt><trkpt lat="49.63958" lon="-1.53006"><ele>109.38</ele></trkpt><trkpt lat="49.63957" lon="-1.53022"><ele>109.54</ele></trkpt><trkpt lat="49.63957" lon="-1.53031"><ele>109.57</ele></trkpt><trkpt lat="49.63956" lon="-1.53068"><ele>109.19</ele></trkpt><trkpt lat="49.63952" lon="-1.53106"><ele>108.87</ele></trkpt><trkpt lat="49.63949" lon="-1.53131"><ele>108.81</ele></trkpt><trkpt lat="49.63949" lon="-1.53147"><ele>108.62</ele></trkpt><trkpt lat="49.63951" lon="-1.53174"><ele>107.97</ele></trkpt><trkpt lat="49.63951" lon="-1.5318"><ele>107.86</ele></trkpt><trkpt lat="49.63953" lon="-1.53203"><ele>107.28</ele></trkpt><trkpt lat="49.63956" lon="-1.53268"><ele>106.71</ele></trkpt><trkpt lat="49.63957" lon="-1.53336"><ele>105.8</ele></trkpt><trkpt lat="49.63955" lon="-1.53391"><ele>104.81</ele></trkpt><trkpt lat="49.63958" lon="-1.53475"><ele>103.18</ele></trkpt><trkpt lat="49.63959" lon="-1.53503"><ele>102.43</ele></trkpt><trkpt lat="49.63963" lon="-1.53561"><ele>101.51</ele></trkpt><trkpt lat="49.63962" lon="-1.5359"><ele>101.3</ele></trkpt><trkpt lat="49.63961" lon="-1.53603"><ele>101.08</ele></trkpt><trkpt lat="49.63923" lon="-1.53616"><ele>101.25</ele></trkpt><trkpt lat="49.63912" lon="-1.53621"><ele>101.38</ele></trkpt><trkpt lat="49.63889" lon="-1.5363"><ele>101.57</ele></trkpt><trkpt lat="49.63875" lon="-1.5364"><ele>101.63</ele></trkpt><trkpt lat="49.6387" lon="-1.53644"><ele>101.69</ele></trkpt><trkpt lat="49.63869" lon="-1.53645"><ele>101.69</ele></trkpt><trkpt lat="49.63864" lon="-1.5365"><ele>101.97</ele></trkpt><trkpt lat="49.63857" lon="-1.53653"><ele>102.18</ele></trkpt><trkpt lat="49.63848" lon="-1.53654"><ele>102.25</ele></trkpt><trkpt lat="49.6383" lon="-1.53652"><ele>102.33</ele></trkpt><trkpt lat="49.63805" lon="-1.53647"><ele>102.61</ele></trkpt><trkpt lat="49.63793" lon="-1.53646"><ele>102.58</ele></trkpt><trkpt lat="49.63769" lon="-1.53638"><ele>103.08</ele></trkpt><trkpt lat="49.63766" lon="-1.53632"><ele>103.24</ele></trkpt><trkpt lat="49.63764" lon="-1.53625"><ele>103.23</ele></trkpt><trkpt lat="49.63765" lon="-1.53617"><ele>103.47</ele></trkpt><trkpt lat="49.63771" lon="-1.53574"><ele>103.65</ele></trkpt><trkpt lat="49.63771" lon="-1.53551"><ele>104.15</ele></trkpt><trkpt lat="49.63767" lon="-1.53501"><ele>105.2</ele></trkpt><trkpt lat="49.63767" lon="-1.53495"><ele>105.68</ele></trkpt><trkpt lat="49.63764" lon="-1.5349"><ele>105.64</ele></trkpt><trkpt lat="49.6376" lon="-1.53488"><ele>105.78</ele></trkpt><trkpt lat="49.63721" lon="-1.5349"><ele>106.49</ele></trkpt><trkpt lat="49.63696" lon="-1.53492"><ele>107.21</ele></trkpt><trkpt lat="49.63682" lon="-1.53497"><ele>107.44</ele></trkpt><trkpt lat="49.63676" lon="-1.53502"><ele>107.44</ele></trkpt><trkpt lat="49.63645" lon="-1.53524"><ele>108.17</ele></trkpt><trkpt lat="49.63633" lon="-1.53531"><ele>108.48</ele></trkpt><trkpt lat="49.63621" lon="-1.53535"><ele>108.75</ele></trkpt><trkpt lat="49.63603" lon="-1.53536"><ele>109.29</ele></trkpt><trkpt lat="49.63598" lon="-1.53537"><ele>109.4</ele></trkpt><trkpt lat="49.63589" lon="-1.53539"><ele>109.48</ele></trkpt><trkpt lat="49.63586" lon="-1.5354"><ele>109.69</ele></trkpt><trkpt lat="49.63553" lon="-1.53553"><ele>110.22</ele></trkpt><trkpt lat="49.63549" lon="-1.53552"><ele>110.21</ele></trkpt><trkpt lat="49.63545" lon="-1.5355"><ele>110.41</ele></trkpt><trkpt lat="49.63536" lon="-1.5354"><ele>110.71</ele></trkpt><trkpt lat="49.63523" lon="-1.53521"><ele>111.66</ele></trkpt><trkpt lat="49.63515" lon="-1.5351"><ele>111.99</ele></trkpt><trkpt lat="49.63498" lon="-1.53488"><ele>113.49</ele></trkpt><trkpt lat="49.63492" lon="-1.5348"><ele>114.02</ele></trkpt><trkpt lat="49.63487" lon="-1.53473"><ele>114.45</ele></trkpt><trkpt lat="49.63473" lon="-1.5344"><ele>115.83</ele></trkpt><trkpt lat="49.63471" lon="-1.53437"><ele>116.22</ele></trkpt><trkpt lat="49.63462" lon="-1.5342"><ele>116.38</ele></trkpt><trkpt lat="49.63451" lon="-1.53405"><ele>116.79</ele></trkpt><trkpt lat="49.63445" lon="-1.53399"><ele>116.89</ele></trkpt><trkpt lat="49.63434" lon="-1.53387"><ele>117.48</ele></trkpt><trkpt lat="49.63399" lon="-1.53367"><ele>118.22</ele></trkpt><trkpt lat="49.63365" lon="-1.53356"><ele>118.68</ele></trkpt><trkpt lat="49.63347" lon="-1.53348"><ele>118.92</ele></trkpt><trkpt lat="49.63349" lon="-1.53336"><ele>118.88</ele></trkpt><trkpt lat="49.6335" lon="-1.53325"><ele>118.83</ele></trkpt><trkpt lat="49.6335" lon="-1.53318"><ele>118.84</ele></trkpt><trkpt lat="49.63349" lon="-1.53307"><ele>118.85</ele></trkpt><trkpt lat="49.63336" lon="-1.53252"><ele>119.67</ele></trkpt><trkpt lat="49.6333" lon="-1.53224"><ele>120.17</ele></trkpt><trkpt lat="49.63321" lon="-1.53189"><ele>120.5</ele></trkpt><trkpt lat="49.63317" lon="-1.53173"><ele>120.69</ele></trkpt><trkpt lat="49.63311" lon="-1.53152"><ele>120.76</ele></trkpt><trkpt lat="49.63296" lon="-1.5311"><ele>120.84</ele></trkpt><trkpt lat="49.63295" lon="-1.53106"><ele>120.79</ele></trkpt><trkpt lat="49.63284" lon="-1.5308"><ele>120.58</ele></trkpt><trkpt lat="49.63271" lon="-1.53057"><ele>120.23</ele></trkpt><trkpt lat="49.63261" lon="-1.53035"><ele>119.84</ele></trkpt><trkpt lat="49.63249" lon="-1.53003"><ele>119.48</ele></trkpt><trkpt lat="49.63238" lon="-1.52973"><ele>119.18</ele></trkpt><trkpt lat="49.63235" lon="-1.52966"><ele>119.06</ele></trkpt><trkpt lat="49.63218" lon="-1.5293"><ele>118.72</ele></trkpt><trkpt lat="49.63211" lon="-1.52917"><ele>119.48</ele></trkpt><trkpt lat="49.63208" lon="-1.52911"><ele>118.82</ele></trkpt><trkpt lat="49.63188" lon="-1.52874"><ele>118.45</ele></trkpt><trkpt lat="49.63181" lon="-1.52858"><ele>117.93</ele></trkpt><trkpt lat="49.63171" lon="-1.52835"><ele>117.86</ele></trkpt><trkpt lat="49.63161" lon="-1.52799"><ele>116.62</ele></trkpt><trkpt lat="49.63158" lon="-1.52779"><ele>116.28</ele></trkpt><trkpt lat="49.63147" lon="-1.52776"><ele>116.24</ele></trkpt><trkpt lat="49.63137" lon="-1.52777"><ele>116.54</ele></trkpt><trkpt lat="49.63128" lon="-1.52783"><ele>116.87</ele></trkpt><trkpt lat="49.63118" lon="-1.5279"><ele>117</ele></trkpt><trkpt lat="49.63105" lon="-1.528"><ele>117.35</ele></trkpt><trkpt lat="49.63101" lon="-1.52806"><ele>117.51</ele></trkpt><trkpt lat="49.63094" lon="-1.52816"><ele>117.88</ele></trkpt><trkpt lat="49.63087" lon="-1.52832"><ele>118.2</ele></trkpt><trkpt lat="49.63083" lon="-1.52846"><ele>118.36</ele></trkpt><trkpt lat="49.6308" lon="-1.52858"><ele>118.56</ele></trkpt><trkpt lat="49.63079" lon="-1.52862"><ele>118.63</ele></trkpt><trkpt lat="49.63076" lon="-1.52874"><ele>118.84</ele></trkpt><trkpt lat="49.63072" lon="-1.52891"><ele>119</ele></trkpt><trkpt lat="49.63068" lon="-1.52905"><ele>119.14</ele></trkpt><trkpt lat="49.63056" lon="-1.52925"><ele>119.35</ele></trkpt><trkpt lat="49.63046" lon="-1.52941"><ele>119.43</ele></trkpt><trkpt lat="49.63012" lon="-1.52995"><ele>119.95</ele></trkpt><trkpt lat="49.62984" lon="-1.53041"><ele>120.39</ele></trkpt><trkpt lat="49.62936" lon="-1.53111"><ele>119.49</ele></trkpt><trkpt lat="49.62929" lon="-1.53121"><ele>119.47</ele></trkpt><trkpt lat="49.62921" lon="-1.53132"><ele>119.53</ele></trkpt></trkseg></trk></gpx>
