<?xml version="1.0" encoding="UTF-8" standalone="no"?>
<gpx xmlns="http://www.topografix.com/GPX/1/1" version="1.1" xmlns:xsi="http://www.w3.org/2001/XMLSchema-instance" xsi:schemaLocation="http://www.topografix.com/GPX/1/1 http://www.topografix.com/GPX/1/1/gpx.xsd" creator="Cirkwi"><metadata><name><![CDATA[Les Martins - n°134]]></name><desc><![CDATA[Le nom Tollevast vient de Tolvir, seigneur Viking dont les descendants ont longtemps accompagné l'histoire de France. L'occupation de cette vallée est attestée depuis l'âge de Bronze.Tollevast est le pays des sources de la Douve. Partez du parking de l'église. A la sortie du parking, dirigez-vous à droite pour longer la Maison du Sonneur avant de prendre la route de la Croix Dubost, à gauche (Tollevast). Coordonnées GPS : 49°34'28.4"N, 1°37'39.9"W Suivez le circuit selon le sens des aiguilles d'une montre. Le balisage est de couleur bleu.  Vous retrouverez ce circuit dans le topoguide "La Hague - Des Pieux et autour de Martinvast "de l'Office de tourisme du Cotentin.   Départ accessible avec le réseau de bus Cap Cotentin à l'arrêt "Centre aquatique" (plus d'infos sur capcotentin.fr)          Le parcours n’est pas desservi directement par le réseau de bus Cap Cotentin. Il est accessible en voiture, avec un parking à proximité du départ. Il est également possible de rejoindre le parcours en cours de route depuis l’arrêt « Tollevast – Nouvelle Route » (plus d’infos sur capcotentin.fr)]]></desc><author><name><![CDATA[Cotentin unique]]></name></author><link href="http://fichier0.cirkwi.com/image/photo/circuit/1300x1300/371472/fr/0.jpg"><text><![CDATA[|Aymeric PICOT]]></text></link><time>2026-08-13T14:23:47Z</time></metadata><trk><trkseg><trkpt lat="49.57453" lon="-1.62787"><ele>88.82</ele></trkpt><trkpt lat="49.57452" lon="-1.62787"><ele>88.82</ele></trkpt><trkpt lat="49.57456" lon="-1.62783"><ele>88.78</ele></trkpt><trkpt lat="49.57456" lon="-1.62782"><ele>88.73</ele></trkpt><trkpt lat="49.5747" lon="-1.62759"><ele>87.68</ele></trkpt><trkpt lat="49.57476" lon="-1.62749"><ele>87.5</ele></trkpt><trkpt lat="49.57477" lon="-1.62747"><ele>87.49</ele></trkpt><trkpt lat="49.57481" lon="-1.6274"><ele>87.36</ele></trkpt><trkpt lat="49.57498" lon="-1.62707"><ele>87.35</ele></trkpt><trkpt lat="49.57513" lon="-1.62686"><ele>87.21</ele></trkpt><trkpt lat="49.57522" lon="-1.6267"><ele>87.24</ele></trkpt><trkpt lat="49.57538" lon="-1.62646"><ele>87.06</ele></trkpt><trkpt lat="49.57549" lon="-1.62613"><ele>86.65</ele></trkpt><trkpt lat="49.57559" lon="-1.62582"><ele>86.06</ele></trkpt><trkpt lat="49.5756" lon="-1.62579"><ele>85.84</ele></trkpt><trkpt lat="49.57565" lon="-1.62563"><ele>85.65</ele></trkpt><trkpt lat="49.57574" lon="-1.62547"><ele>85.63</ele></trkpt><trkpt lat="49.57576" lon="-1.62542"><ele>85.64</ele></trkpt><trkpt lat="49.57585" lon="-1.62526"><ele>84.77</ele></trkpt><trkpt lat="49.57596" lon="-1.62533"><ele>84.49</ele></trkpt><trkpt lat="49.57597" lon="-1.62534"><ele>84.55</ele></trkpt><trkpt lat="49.57616" lon="-1.62549"><ele>84.19</ele></trkpt><trkpt lat="49.57637" lon="-1.62563"><ele>83.65</ele></trkpt><trkpt lat="49.57659" lon="-1.62579"><ele>83.44</ele></trkpt><trkpt lat="49.57678" lon="-1.626"><ele>83.32</ele></trkpt><trkpt lat="49.57698" lon="-1.62625"><ele>83.89</ele></trkpt><trkpt lat="49.57705" lon="-1.62641"><ele>83.91</ele></trkpt><trkpt lat="49.57706" lon="-1.62642"><ele>84.05</ele></trkpt><trkpt lat="49.57709" lon="-1.62647"><ele>84.01</ele></trkpt><trkpt lat="49.5772" lon="-1.62659"><ele>84.05</ele></trkpt><trkpt lat="49.57729" lon="-1.62663"><ele>84.22</ele></trkpt><trkpt lat="49.57757" lon="-1.62692"><ele>85.37</ele></trkpt><trkpt lat="49.57773" lon="-1.62705"><ele>86.14</ele></trkpt><trkpt lat="49.57774" lon="-1.62705"><ele>86.39</ele></trkpt><trkpt lat="49.57796" lon="-1.62708"><ele>86.65</ele></trkpt><trkpt lat="49.57815" lon="-1.62697"><ele>87.08</ele></trkpt><trkpt lat="49.57844" lon="-1.62688"><ele>87.88</ele></trkpt><trkpt lat="49.57867" lon="-1.62687"><ele>88.55</ele></trkpt><trkpt lat="49.57888" lon="-1.62685"><ele>89.35</ele></trkpt><trkpt lat="49.57914" lon="-1.62677"><ele>90.98</ele></trkpt><trkpt lat="49.57931" lon="-1.62657"><ele>91.15</ele></trkpt><trkpt lat="49.57946" lon="-1.62635"><ele>91.3</ele></trkpt><trkpt lat="49.57962" lon="-1.62606"><ele>92.11</ele></trkpt><trkpt lat="49.57973" lon="-1.62587"><ele>91.99</ele></trkpt><trkpt lat="49.57986" lon="-1.62565"><ele>92.05</ele></trkpt><trkpt lat="49.58003" lon="-1.62544"><ele>91.73</ele></trkpt><trkpt lat="49.58024" lon="-1.62528"><ele>91.78</ele></trkpt><trkpt lat="49.58046" lon="-1.62516"><ele>92.49</ele></trkpt><trkpt lat="49.58067" lon="-1.62506"><ele>92.81</ele></trkpt><trkpt lat="49.58087" lon="-1.62497"><ele>92.98</ele></trkpt><trkpt lat="49.58103" lon="-1.6249"><ele>93.12</ele></trkpt><trkpt lat="49.58107" lon="-1.6249"><ele>93.23</ele></trkpt><trkpt lat="49.58132" lon="-1.62504"><ele>94.04</ele></trkpt><trkpt lat="49.58155" lon="-1.62529"><ele>95.37</ele></trkpt><trkpt lat="49.58172" lon="-1.62548"><ele>96.48</ele></trkpt><trkpt lat="49.58194" lon="-1.62572"><ele>97.33</ele></trkpt><trkpt lat="49.58207" lon="-1.62584"><ele>98.27</ele></trkpt><trkpt lat="49.5821" lon="-1.62584"><ele>98.73</ele></trkpt><trkpt lat="49.58225" lon="-1.62566"><ele>99.19</ele></trkpt><trkpt lat="49.58243" lon="-1.62548"><ele>99.3</ele></trkpt><trkpt lat="49.58263" lon="-1.62533"><ele>99.71</ele></trkpt><trkpt lat="49.58282" lon="-1.6252"><ele>99.98</ele></trkpt><trkpt lat="49.5831" lon="-1.62505"><ele>100.56</ele></trkpt><trkpt lat="49.58328" lon="-1.62495"><ele>101.06</ele></trkpt><trkpt lat="49.58352" lon="-1.62488"><ele>101.37</ele></trkpt><trkpt lat="49.58377" lon="-1.62495"><ele>103.03</ele></trkpt><trkpt lat="49.58394" lon="-1.62494"><ele>103.21</ele></trkpt><trkpt lat="49.58407" lon="-1.62493"><ele>103.28</ele></trkpt><trkpt lat="49.58421" lon="-1.62487"><ele>103.76</ele></trkpt><trkpt lat="49.5844" lon="-1.62473"><ele>104.72</ele></trkpt><trkpt lat="49.58453" lon="-1.62468"><ele>105.48</ele></trkpt><trkpt lat="49.58457" lon="-1.62468"><ele>105.74</ele></trkpt><trkpt lat="49.58482" lon="-1.62462"><ele>107.06</ele></trkpt><trkpt lat="49.58486" lon="-1.62462"><ele>107.06</ele></trkpt><trkpt lat="49.58514" lon="-1.62459"><ele>107.96</ele></trkpt><trkpt lat="49.58546" lon="-1.62453"><ele>109</ele></trkpt><trkpt lat="49.58563" lon="-1.62453"><ele>109.8</ele></trkpt><trkpt lat="49.58592" lon="-1.62449"><ele>111.61</ele></trkpt><trkpt lat="49.58619" lon="-1.62445"><ele>113.94</ele></trkpt><trkpt lat="49.58641" lon="-1.62446"><ele>115.74</ele></trkpt><trkpt lat="49.58662" lon="-1.62447"><ele>117.13</ele></trkpt><trkpt lat="49.58682" lon="-1.62453"><ele>118.67</ele></trkpt><trkpt lat="49.58683" lon="-1.62453"><ele>118.67</ele></trkpt><trkpt lat="49.58689" lon="-1.62452"><ele>118.54</ele></trkpt><trkpt lat="49.58701" lon="-1.62449"><ele>119.21</ele></trkpt><trkpt lat="49.58713" lon="-1.62444"><ele>119.56</ele></trkpt><trkpt lat="49.58725" lon="-1.62444"><ele>120</ele></trkpt><trkpt lat="49.5875" lon="-1.62444"><ele>121.42</ele></trkpt><trkpt lat="49.58766" lon="-1.62447"><ele>122.64</ele></trkpt><trkpt lat="49.58779" lon="-1.62452"><ele>123.57</ele></trkpt><trkpt lat="49.58787" lon="-1.62451"><ele>123.97</ele></trkpt><trkpt lat="49.58792" lon="-1.62452"><ele>124.36</ele></trkpt><trkpt lat="49.58805" lon="-1.62457"><ele>125.43</ele></trkpt><trkpt lat="49.58827" lon="-1.6246"><ele>127.36</ele></trkpt><trkpt lat="49.58841" lon="-1.62468"><ele>128.11</ele></trkpt><trkpt lat="49.58854" lon="-1.62475"><ele>129.25</ele></trkpt><trkpt lat="49.58871" lon="-1.62478"><ele>130.5</ele></trkpt><trkpt lat="49.58897" lon="-1.62472"><ele>132.81</ele></trkpt><trkpt lat="49.58917" lon="-1.62464"><ele>134.89</ele></trkpt><trkpt lat="49.58926" lon="-1.62453"><ele>136.05</ele></trkpt><trkpt lat="49.58935" lon="-1.62433"><ele>137.58</ele></trkpt><trkpt lat="49.58944" lon="-1.62407"><ele>139.22</ele></trkpt><trkpt lat="49.58946" lon="-1.62396"><ele>140.01</ele></trkpt><trkpt lat="49.58946" lon="-1.6239"><ele>140.48</ele></trkpt><trkpt lat="49.58948" lon="-1.62384"><ele>140.76</ele></trkpt><trkpt lat="49.58955" lon="-1.62363"><ele>142.58</ele></trkpt><trkpt lat="49.58963" lon="-1.62342"><ele>144.48</ele></trkpt><trkpt lat="49.58969" lon="-1.62324"><ele>145.23</ele></trkpt><trkpt lat="49.58971" lon="-1.62315"><ele>145.35</ele></trkpt><trkpt lat="49.5897" lon="-1.62311"><ele>145.33</ele></trkpt><trkpt lat="49.58968" lon="-1.62307"><ele>145.3</ele></trkpt><trkpt lat="49.58961" lon="-1.62289"><ele>144.04</ele></trkpt><trkpt lat="49.58952" lon="-1.62268"><ele>142.7</ele></trkpt><trkpt lat="49.58948" lon="-1.62255"><ele>141.91</ele></trkpt><trkpt lat="49.58947" lon="-1.62249"><ele>141.83</ele></trkpt><trkpt lat="49.58947" lon="-1.62245"><ele>141.71</ele></trkpt><trkpt lat="49.58946" lon="-1.62238"><ele>141.55</ele></trkpt><trkpt lat="49.58946" lon="-1.62234"><ele>141.44</ele></trkpt><trkpt lat="49.58944" lon="-1.62228"><ele>140.89</ele></trkpt><trkpt lat="49.58938" lon="-1.62202"><ele>139.87</ele></trkpt><trkpt lat="49.58932" lon="-1.62176"><ele>138.01</ele></trkpt><trkpt lat="49.58921" lon="-1.62157"><ele>136.87</ele></trkpt><trkpt lat="49.58907" lon="-1.62137"><ele>134.47</ele></trkpt><trkpt lat="49.58891" lon="-1.62114"><ele>132.35</ele></trkpt><trkpt lat="49.58891" lon="-1.6211"><ele>132.19</ele></trkpt><trkpt lat="49.58896" lon="-1.62095"><ele>132.61</ele></trkpt><trkpt lat="49.58897" lon="-1.62086"><ele>132.76</ele></trkpt><trkpt lat="49.589" lon="-1.62058"><ele>133.84</ele></trkpt><trkpt lat="49.58901" lon="-1.62027"><ele>133.21</ele></trkpt><trkpt lat="49.58896" lon="-1.62002"><ele>133.53</ele></trkpt><trkpt lat="49.58894" lon="-1.61992"><ele>133.54</ele></trkpt><trkpt lat="49.58887" lon="-1.6197"><ele>132.24</ele></trkpt><trkpt lat="49.58886" lon="-1.61954"><ele>132.18</ele></trkpt><trkpt lat="49.58883" lon="-1.61934"><ele>131.84</ele></trkpt><trkpt lat="49.58879" lon="-1.61906"><ele>131.98</ele></trkpt><trkpt lat="49.58875" lon="-1.61875"><ele>131.92</ele></trkpt><trkpt lat="49.58871" lon="-1.61848"><ele>131.21</ele></trkpt><trkpt lat="49.58869" lon="-1.61839"><ele>131.24</ele></trkpt><trkpt lat="49.58865" lon="-1.61816"><ele>130.66</ele></trkpt><trkpt lat="49.58863" lon="-1.61796"><ele>130.4</ele></trkpt><trkpt lat="49.58862" lon="-1.61774"><ele>130.79</ele></trkpt><trkpt lat="49.58862" lon="-1.61766"><ele>130.87</ele></trkpt><trkpt lat="49.58861" lon="-1.61762"><ele>130.98</ele></trkpt><trkpt lat="49.58857" lon="-1.6175"><ele>130.5</ele></trkpt><trkpt lat="49.58852" lon="-1.6172"><ele>130.28</ele></trkpt><trkpt lat="49.58849" lon="-1.61694"><ele>129.86</ele></trkpt><trkpt lat="49.58849" lon="-1.61688"><ele>129.93</ele></trkpt><trkpt lat="49.5885" lon="-1.61662"><ele>130.53</ele></trkpt><trkpt lat="49.58852" lon="-1.61649"><ele>131.93</ele></trkpt><trkpt lat="49.58854" lon="-1.61615"><ele>132.33</ele></trkpt><trkpt lat="49.58857" lon="-1.61596"><ele>132.6</ele></trkpt><trkpt lat="49.58862" lon="-1.61565"><ele>133.05</ele></trkpt><trkpt lat="49.58863" lon="-1.61535"><ele>132.73</ele></trkpt><trkpt lat="49.58866" lon="-1.6151"><ele>133.14</ele></trkpt><trkpt lat="49.5887" lon="-1.61482"><ele>132.91</ele></trkpt><trkpt lat="49.58871" lon="-1.6148"><ele>132.52</ele></trkpt><trkpt lat="49.58866" lon="-1.61465"><ele>130.89</ele></trkpt><trkpt lat="49.58862" lon="-1.61461"><ele>130.08</ele></trkpt><trkpt lat="49.58862" lon="-1.61442"><ele>129.51</ele></trkpt><trkpt lat="49.5887" lon="-1.61411"><ele>130.42</ele></trkpt><trkpt lat="49.58876" lon="-1.61388"><ele>130.95</ele></trkpt><trkpt lat="49.58875" lon="-1.61377"><ele>130.53</ele></trkpt><trkpt lat="49.58881" lon="-1.61349"><ele>131.64</ele></trkpt><trkpt lat="49.58882" lon="-1.61335"><ele>131.18</ele></trkpt><trkpt lat="49.58885" lon="-1.61331"><ele>131.09</ele></trkpt><trkpt lat="49.58889" lon="-1.61321"><ele>131.51</ele></trkpt><trkpt lat="49.58898" lon="-1.61288"><ele>132.03</ele></trkpt><trkpt lat="49.58912" lon="-1.61264"><ele>133.07</ele></trkpt><trkpt lat="49.58924" lon="-1.61255"><ele>134.36</ele></trkpt><trkpt lat="49.58927" lon="-1.61256"><ele>134.36</ele></trkpt><trkpt lat="49.58927" lon="-1.61257"><ele>134.36</ele></trkpt><trkpt lat="49.58919" lon="-1.61251"><ele>133.16</ele></trkpt><trkpt lat="49.58922" lon="-1.61242"><ele>133.28</ele></trkpt><trkpt lat="49.58932" lon="-1.61225"><ele>133.73</ele></trkpt><trkpt lat="49.58936" lon="-1.61219"><ele>133.93</ele></trkpt><trkpt lat="49.58945" lon="-1.61206"><ele>134.47</ele></trkpt><trkpt lat="49.58952" lon="-1.61185"><ele>135.03</ele></trkpt><trkpt lat="49.58955" lon="-1.61174"><ele>135.41</ele></trkpt><trkpt lat="49.58973" lon="-1.6115"><ele>136.41</ele></trkpt><trkpt lat="49.58975" lon="-1.61147"><ele>136.18</ele></trkpt><trkpt lat="49.58989" lon="-1.61131"><ele>137.41</ele></trkpt><trkpt lat="49.58997" lon="-1.61117"><ele>137.88</ele></trkpt><trkpt lat="49.59007" lon="-1.61107"><ele>138.32</ele></trkpt><trkpt lat="49.59017" lon="-1.61097"><ele>138.84</ele></trkpt><trkpt lat="49.59019" lon="-1.61095"><ele>139.02</ele></trkpt><trkpt lat="49.59029" lon="-1.61081"><ele>139.34</ele></trkpt><trkpt lat="49.59039" lon="-1.61074"><ele>139.61</ele></trkpt><trkpt lat="49.5904" lon="-1.61073"><ele>140.04</ele></trkpt><trkpt lat="49.59047" lon="-1.61068"><ele>140.2</ele></trkpt><trkpt lat="49.59051" lon="-1.61067"><ele>140.64</ele></trkpt><trkpt lat="49.59056" lon="-1.6106"><ele>140.46</ele></trkpt><trkpt lat="49.59059" lon="-1.61057"><ele>140.97</ele></trkpt><trkpt lat="49.59073" lon="-1.61044"><ele>140.78</ele></trkpt><trkpt lat="49.59077" lon="-1.61039"><ele>140.84</ele></trkpt><trkpt lat="49.59084" lon="-1.61028"><ele>140.93</ele></trkpt><trkpt lat="49.59089" lon="-1.61024"><ele>140.97</ele></trkpt><trkpt lat="49.59092" lon="-1.61019"><ele>141.05</ele></trkpt><trkpt lat="49.59111" lon="-1.61003"><ele>141.77</ele></trkpt><trkpt lat="49.59114" lon="-1.60997"><ele>141.8</ele></trkpt><trkpt lat="49.59128" lon="-1.60984"><ele>142.01</ele></trkpt><trkpt lat="49.59127" lon="-1.60984"><ele>142.01</ele></trkpt><trkpt lat="49.59125" lon="-1.60983"><ele>141.62</ele></trkpt><trkpt lat="49.59127" lon="-1.60985"><ele>142.09</ele></trkpt><trkpt lat="49.59133" lon="-1.60984"><ele>142.51</ele></trkpt><trkpt lat="49.5914" lon="-1.6098"><ele>142.76</ele></trkpt><trkpt lat="49.59143" lon="-1.60977"><ele>142.87</ele></trkpt><trkpt lat="49.59147" lon="-1.60973"><ele>142.93</ele></trkpt><trkpt lat="49.59153" lon="-1.60969"><ele>143</ele></trkpt><trkpt lat="49.59163" lon="-1.60963"><ele>143.25</ele></trkpt><trkpt lat="49.59178" lon="-1.60947"><ele>143.54</ele></trkpt><trkpt lat="49.59185" lon="-1.60941"><ele>143.66</ele></trkpt><trkpt lat="49.59189" lon="-1.60937"><ele>143.78</ele></trkpt><trkpt lat="49.59209" lon="-1.60921"><ele>144.96</ele></trkpt><trkpt lat="49.59227" lon="-1.60902"><ele>146.06</ele></trkpt><trkpt lat="49.59239" lon="-1.60882"><ele>146.93</ele></trkpt><trkpt lat="49.59247" lon="-1.6087"><ele>147.67</ele></trkpt><trkpt lat="49.59256" lon="-1.60859"><ele>148.57</ele></trkpt><trkpt lat="49.5926" lon="-1.60848"><ele>149.18</ele></trkpt><trkpt lat="49.59262" lon="-1.60842"><ele>148.82</ele></trkpt><trkpt lat="49.59271" lon="-1.60829"><ele>149.86</ele></trkpt><trkpt lat="49.59279" lon="-1.60811"><ele>150.84</ele></trkpt><trkpt lat="49.5928" lon="-1.6081"><ele>150.84</ele></trkpt><trkpt lat="49.59286" lon="-1.60792"><ele>152</ele></trkpt><trkpt lat="49.59286" lon="-1.60789"><ele>151.79</ele></trkpt><trkpt lat="49.59289" lon="-1.60774"><ele>152.26</ele></trkpt><trkpt lat="49.59294" lon="-1.60744"><ele>151.49</ele></trkpt><trkpt lat="49.59295" lon="-1.60738"><ele>150.89</ele></trkpt><trkpt lat="49.59297" lon="-1.60733"><ele>150.62</ele></trkpt><trkpt lat="49.59298" lon="-1.60728"><ele>151.29</ele></trkpt><trkpt lat="49.59299" lon="-1.60722"><ele>150.7</ele></trkpt><trkpt lat="49.59303" lon="-1.60696"><ele>149.97</ele></trkpt><trkpt lat="49.59306" lon="-1.60686"><ele>150.41</ele></trkpt><trkpt lat="49.59307" lon="-1.60678"><ele>149.99</ele></trkpt><trkpt lat="49.59317" lon="-1.60658"><ele>151.09</ele></trkpt><trkpt lat="49.5932" lon="-1.60648"><ele>152.02</ele></trkpt><trkpt lat="49.59324" lon="-1.60618"><ele>151.47</ele></trkpt><trkpt lat="49.59331" lon="-1.60588"><ele>150.78</ele></trkpt><trkpt lat="49.59333" lon="-1.60581"><ele>151.47</ele></trkpt><trkpt lat="49.59334" lon="-1.60567"><ele>150.92</ele></trkpt><trkpt lat="49.59338" lon="-1.60556"><ele>151.56</ele></trkpt><trkpt lat="49.59339" lon="-1.60551"><ele>151.52</ele></trkpt><trkpt lat="49.5934" lon="-1.60546"><ele>151.36</ele></trkpt><trkpt lat="49.59339" lon="-1.60538"><ele>151.3</ele></trkpt><trkpt lat="49.59339" lon="-1.60532"><ele>151.2</ele></trkpt><trkpt lat="49.59338" lon="-1.60524"><ele>151.33</ele></trkpt><trkpt lat="49.59339" lon="-1.60505"><ele>151.92</ele></trkpt><trkpt lat="49.5934" lon="-1.60501"><ele>152.12</ele></trkpt><trkpt lat="49.59341" lon="-1.60473"><ele>154.46</ele></trkpt><trkpt lat="49.59339" lon="-1.60468"><ele>154.03</ele></trkpt><trkpt lat="49.59337" lon="-1.6046"><ele>153.93</ele></trkpt><trkpt lat="49.59337" lon="-1.60451"><ele>153.9</ele></trkpt><trkpt lat="49.59333" lon="-1.60422"><ele>153.57</ele></trkpt><trkpt lat="49.59328" lon="-1.60399"><ele>153.46</ele></trkpt><trkpt lat="49.59323" lon="-1.60364"><ele>154.98</ele></trkpt><trkpt lat="49.59314" lon="-1.60337"><ele>154.96</ele></trkpt><trkpt lat="49.59308" lon="-1.6031"><ele>155.63</ele></trkpt><trkpt lat="49.59303" lon="-1.60297"><ele>155.83</ele></trkpt><trkpt lat="49.59298" lon="-1.60272"><ele>156.2</ele></trkpt><trkpt lat="49.59291" lon="-1.60245"><ele>156.96</ele></trkpt><trkpt lat="49.59287" lon="-1.60234"><ele>157.12</ele></trkpt><trkpt lat="49.5928" lon="-1.60218"><ele>157.34</ele></trkpt><trkpt lat="49.59279" lon="-1.60207"><ele>158.06</ele></trkpt><trkpt lat="49.59277" lon="-1.60203"><ele>158.06</ele></trkpt><trkpt lat="49.59273" lon="-1.60193"><ele>158.28</ele></trkpt><trkpt lat="49.59268" lon="-1.60179"><ele>158.43</ele></trkpt><trkpt lat="49.59254" lon="-1.60143"><ele>158.62</ele></trkpt><trkpt lat="49.5924" lon="-1.60118"><ele>158.79</ele></trkpt><trkpt lat="49.59222" lon="-1.60101"><ele>158.61</ele></trkpt><trkpt lat="49.59203" lon="-1.60096"><ele>158.09</ele></trkpt><trkpt lat="49.59181" lon="-1.60094"><ele>157.35</ele></trkpt><trkpt lat="49.59156" lon="-1.60089"><ele>157.1</ele></trkpt><trkpt lat="49.59136" lon="-1.60084"><ele>157.1</ele></trkpt><trkpt lat="49.59116" lon="-1.60079"><ele>157.19</ele></trkpt><trkpt lat="49.59099" lon="-1.6008"><ele>157.49</ele></trkpt><trkpt lat="49.59095" lon="-1.60081"><ele>157.48</ele></trkpt><trkpt lat="49.59074" lon="-1.60088"><ele>157.59</ele></trkpt><trkpt lat="49.59053" lon="-1.601"><ele>157.56</ele></trkpt><trkpt lat="49.59034" lon="-1.60108"><ele>157.61</ele></trkpt><trkpt lat="49.59017" lon="-1.60101"><ele>157.98</ele></trkpt><trkpt lat="49.59013" lon="-1.60101"><ele>158.02</ele></trkpt><trkpt lat="49.59008" lon="-1.60098"><ele>157.91</ele></trkpt><trkpt lat="49.59" lon="-1.60098"><ele>157.75</ele></trkpt><trkpt lat="49.58996" lon="-1.60101"><ele>157.55</ele></trkpt><trkpt lat="49.58973" lon="-1.60109"><ele>157.5</ele></trkpt><trkpt lat="49.58955" lon="-1.60107"><ele>157.54</ele></trkpt><trkpt lat="49.58931" lon="-1.60105"><ele>157.44</ele></trkpt><trkpt lat="49.58911" lon="-1.60102"><ele>157.41</ele></trkpt><trkpt lat="49.58882" lon="-1.60095"><ele>157.46</ele></trkpt><trkpt lat="49.5886" lon="-1.60091"><ele>157.49</ele></trkpt><trkpt lat="49.5884" lon="-1.60087"><ele>157.5</ele></trkpt><trkpt lat="49.5882" lon="-1.6008"><ele>157.49</ele></trkpt><trkpt lat="49.58799" lon="-1.60077"><ele>157.58</ele></trkpt><trkpt lat="49.58794" lon="-1.60077"><ele>157.57</ele></trkpt><trkpt lat="49.58789" lon="-1.60103"><ele>157.07</ele></trkpt><trkpt lat="49.58788" lon="-1.60113"><ele>156.9</ele></trkpt><trkpt lat="49.58788" lon="-1.60132"><ele>156.62</ele></trkpt><trkpt lat="49.58789" lon="-1.60142"><ele>156.52</ele></trkpt><trkpt lat="49.58788" lon="-1.60148"><ele>156.41</ele></trkpt><trkpt lat="49.58766" lon="-1.60154"><ele>155.68</ele></trkpt><trkpt lat="49.58746" lon="-1.60155"><ele>154.92</ele></trkpt><trkpt lat="49.58731" lon="-1.60158"><ele>154.18</ele></trkpt><trkpt lat="49.5871" lon="-1.60159"><ele>153.89</ele></trkpt><trkpt lat="49.58689" lon="-1.60165"><ele>153.59</ele></trkpt><trkpt lat="49.58662" lon="-1.60175"><ele>153.96</ele></trkpt><trkpt lat="49.58644" lon="-1.60185"><ele>154.04</ele></trkpt><trkpt lat="49.58625" lon="-1.60198"><ele>154</ele></trkpt><trkpt lat="49.5861" lon="-1.60205"><ele>154.07</ele></trkpt><trkpt lat="49.58587" lon="-1.60219"><ele>153.9</ele></trkpt><trkpt lat="49.58567" lon="-1.60232"><ele>153.56</ele></trkpt><trkpt lat="49.58541" lon="-1.60236"><ele>154.1</ele></trkpt><trkpt lat="49.58519" lon="-1.60231"><ele>154.26</ele></trkpt><trkpt lat="49.585" lon="-1.60229"><ele>153.56</ele></trkpt><trkpt lat="49.58478" lon="-1.60218"><ele>154.22</ele></trkpt><trkpt lat="49.58454" lon="-1.60209"><ele>154.42</ele></trkpt><trkpt lat="49.58429" lon="-1.60196"><ele>154.92</ele></trkpt><trkpt lat="49.58409" lon="-1.60191"><ele>154.8</ele></trkpt><trkpt lat="49.58404" lon="-1.60189"><ele>154.81</ele></trkpt><trkpt lat="49.58391" lon="-1.6019"><ele>154.94</ele></trkpt><trkpt lat="49.58387" lon="-1.60187"><ele>154.92</ele></trkpt><trkpt lat="49.58365" lon="-1.60184"><ele>154.55</ele></trkpt><trkpt lat="49.58346" lon="-1.60181"><ele>154.34</ele></trkpt><trkpt lat="49.58326" lon="-1.60184"><ele>153.16</ele></trkpt><trkpt lat="49.58305" lon="-1.60196"><ele>152.1</ele></trkpt><trkpt lat="49.58288" lon="-1.60223"><ele>150.63</ele></trkpt><trkpt lat="49.58273" lon="-1.60243"><ele>149.92</ele></trkpt><trkpt lat="49.58261" lon="-1.60257"><ele>149.5</ele></trkpt><trkpt lat="49.58259" lon="-1.60263"><ele>149.41</ele></trkpt><trkpt lat="49.5824" lon="-1.60285"><ele>148.51</ele></trkpt><trkpt lat="49.58224" lon="-1.60302"><ele>147.4</ele></trkpt><trkpt lat="49.58213" lon="-1.60308"><ele>146.97</ele></trkpt><trkpt lat="49.58194" lon="-1.60311"><ele>146.27</ele></trkpt><trkpt lat="49.58187" lon="-1.60312"><ele>146.18</ele></trkpt><trkpt lat="49.58177" lon="-1.60312"><ele>145.71</ele></trkpt><trkpt lat="49.58153" lon="-1.60314"><ele>144.81</ele></trkpt><trkpt lat="49.5815" lon="-1.60313"><ele>144.6</ele></trkpt><trkpt lat="49.58138" lon="-1.60314"><ele>144.33</ele></trkpt><trkpt lat="49.58115" lon="-1.6032"><ele>144.59</ele></trkpt><trkpt lat="49.58114" lon="-1.60322"><ele>144.59</ele></trkpt><trkpt lat="49.58102" lon="-1.60344"><ele>144.44</ele></trkpt><trkpt lat="49.58081" lon="-1.60363"><ele>145.1</ele></trkpt><trkpt lat="49.58067" lon="-1.6034"><ele>146.07</ele></trkpt><trkpt lat="49.58049" lon="-1.60305"><ele>147.73</ele></trkpt><trkpt lat="49.58033" lon="-1.60279"><ele>148.65</ele></trkpt><trkpt lat="49.58011" lon="-1.60245"><ele>149.42</ele></trkpt><trkpt lat="49.57994" lon="-1.6023"><ele>148.68</ele></trkpt><trkpt lat="49.57986" lon="-1.60223"><ele>148.01</ele></trkpt><trkpt lat="49.57986" lon="-1.60219"><ele>148.02</ele></trkpt><trkpt lat="49.5799" lon="-1.60231"><ele>148.54</ele></trkpt><trkpt lat="49.57981" lon="-1.60245"><ele>148.74</ele></trkpt><trkpt lat="49.57979" lon="-1.60248"><ele>148.61</ele></trkpt><trkpt lat="49.57966" lon="-1.60283"><ele>148</ele></trkpt><trkpt lat="49.57956" lon="-1.60314"><ele>147.09</ele></trkpt><trkpt lat="49.57944" lon="-1.6035"><ele>146</ele></trkpt><trkpt lat="49.57931" lon="-1.60378"><ele>145.25</ele></trkpt><trkpt lat="49.57922" lon="-1.60398"><ele>144.18</ele></trkpt><trkpt lat="49.57918" lon="-1.60405"><ele>143.61</ele></trkpt><trkpt lat="49.57895" lon="-1.60452"><ele>141.44</ele></trkpt><trkpt lat="49.57885" lon="-1.6047"><ele>140.64</ele></trkpt><trkpt lat="49.57881" lon="-1.60477"><ele>140.52</ele></trkpt><trkpt lat="49.57859" lon="-1.60516"><ele>137.94</ele></trkpt><trkpt lat="49.57851" lon="-1.60548"><ele>136.58</ele></trkpt><trkpt lat="49.57844" lon="-1.60586"><ele>135.75</ele></trkpt><trkpt lat="49.57836" lon="-1.60631"><ele>132.79</ele></trkpt><trkpt lat="49.57825" lon="-1.60682"><ele>128.19</ele></trkpt><trkpt lat="49.5782" lon="-1.60725"><ele>125.09</ele></trkpt><trkpt lat="49.57816" lon="-1.60745"><ele>123.21</ele></trkpt><trkpt lat="49.57799" lon="-1.60773"><ele>121.38</ele></trkpt><trkpt lat="49.57791" lon="-1.60779"><ele>120.49</ele></trkpt><trkpt lat="49.57773" lon="-1.60809"><ele>119.04</ele></trkpt><trkpt lat="49.57771" lon="-1.60838"><ele>117.78</ele></trkpt><trkpt lat="49.57765" lon="-1.60843"><ele>118.23</ele></trkpt><trkpt lat="49.5776" lon="-1.60883"><ele>116.47</ele></trkpt><trkpt lat="49.57745" lon="-1.60913"><ele>115.4</ele></trkpt><trkpt lat="49.57737" lon="-1.60924"><ele>114.97</ele></trkpt><trkpt lat="49.57717" lon="-1.60937"><ele>114.81</ele></trkpt><trkpt lat="49.577" lon="-1.60931"><ele>118.22</ele></trkpt><trkpt lat="49.57675" lon="-1.60928"><ele>119.55</ele></trkpt><trkpt lat="49.57651" lon="-1.60919"><ele>122.39</ele></trkpt><trkpt lat="49.57637" lon="-1.60924"><ele>122.17</ele></trkpt><trkpt lat="49.57619" lon="-1.60935"><ele>120.18</ele></trkpt><trkpt lat="49.57604" lon="-1.60904"><ele>122.27</ele></trkpt><trkpt lat="49.57595" lon="-1.60864"><ele>125.06</ele></trkpt><trkpt lat="49.5758" lon="-1.60827"><ele>125.46</ele></trkpt><trkpt lat="49.57566" lon="-1.60793"><ele>128.2</ele></trkpt><trkpt lat="49.57551" lon="-1.60759"><ele>130.62</ele></trkpt><trkpt lat="49.57536" lon="-1.60736"><ele>131.49</ele></trkpt><trkpt lat="49.57527" lon="-1.60728"><ele>131.55</ele></trkpt><trkpt lat="49.57507" lon="-1.60695"><ele>132.79</ele></trkpt><trkpt lat="49.57485" lon="-1.6066"><ele>134.42</ele></trkpt><trkpt lat="49.57469" lon="-1.60637"><ele>134.3</ele></trkpt><trkpt lat="49.57457" lon="-1.6065"><ele>133.29</ele></trkpt><trkpt lat="49.5745" lon="-1.60678"><ele>132.62</ele></trkpt><trkpt lat="49.57446" lon="-1.60714"><ele>131.9</ele></trkpt><trkpt lat="49.57442" lon="-1.60753"><ele>131.3</ele></trkpt><trkpt lat="49.57447" lon="-1.608"><ele>130.48</ele></trkpt><trkpt lat="49.57436" lon="-1.60842"><ele>128.85</ele></trkpt><trkpt lat="49.57428" lon="-1.6088"><ele>127.82</ele></trkpt><trkpt lat="49.57425" lon="-1.6093"><ele>126.81</ele></trkpt><trkpt lat="49.57424" lon="-1.60967"><ele>126.04</ele></trkpt><trkpt lat="49.57417" lon="-1.61006"><ele>123.96</ele></trkpt><trkpt lat="49.57398" lon="-1.61054"><ele>123.22</ele></trkpt><trkpt lat="49.57385" lon="-1.61089"><ele>122.99</ele></trkpt><trkpt lat="49.57371" lon="-1.61119"><ele>122.93</ele></trkpt><trkpt lat="49.57356" lon="-1.61153"><ele>122.55</ele></trkpt><trkpt lat="49.5734" lon="-1.61187"><ele>122.33</ele></trkpt><trkpt lat="49.57332" lon="-1.61208"><ele>122.13</ele></trkpt><trkpt lat="49.57318" lon="-1.61244"><ele>122.02</ele></trkpt><trkpt lat="49.57308" lon="-1.61274"><ele>122.21</ele></trkpt><trkpt lat="49.57291" lon="-1.61304"><ele>122.35</ele></trkpt><trkpt lat="49.57273" lon="-1.61346"><ele>122.29</ele></trkpt><trkpt lat="49.57259" lon="-1.61384"><ele>122.33</ele></trkpt><trkpt lat="49.57259" lon="-1.61416"><ele>122.43</ele></trkpt><trkpt lat="49.57255" lon="-1.61456"><ele>122.66</ele></trkpt><trkpt lat="49.57248" lon="-1.61501"><ele>122.3</ele></trkpt><trkpt lat="49.57243" lon="-1.61537"><ele>122.36</ele></trkpt><trkpt lat="49.57236" lon="-1.61578"><ele>122.38</ele></trkpt><trkpt lat="49.57227" lon="-1.6161"><ele>122.26</ele></trkpt><trkpt lat="49.57212" lon="-1.61644"><ele>122.44</ele></trkpt><trkpt lat="49.57194" lon="-1.61688"><ele>123.73</ele></trkpt><trkpt lat="49.57184" lon="-1.61718"><ele>123.61</ele></trkpt><trkpt lat="49.5717" lon="-1.61753"><ele>123.43</ele></trkpt><trkpt lat="49.57157" lon="-1.6179"><ele>123.48</ele></trkpt><trkpt lat="49.57141" lon="-1.61828"><ele>123.71</ele></trkpt><trkpt lat="49.57121" lon="-1.61866"><ele>123.89</ele></trkpt><trkpt lat="49.571" lon="-1.61893"><ele>123.24</ele></trkpt><trkpt lat="49.57082" lon="-1.61908"><ele>123.05</ele></trkpt><trkpt lat="49.57064" lon="-1.61925"><ele>122.21</ele></trkpt><trkpt lat="49.57044" lon="-1.61942"><ele>121.92</ele></trkpt><trkpt lat="49.57021" lon="-1.61961"><ele>121.53</ele></trkpt><trkpt lat="49.56996" lon="-1.61988"><ele>121.35</ele></trkpt><trkpt lat="49.56995" lon="-1.61989"><ele>120.9</ele></trkpt><trkpt lat="49.56979" lon="-1.6199"><ele>120.49</ele></trkpt><trkpt lat="49.5697" lon="-1.6198"><ele>120.22</ele></trkpt><trkpt lat="49.56956" lon="-1.61941"><ele>119.81</ele></trkpt><trkpt lat="49.56945" lon="-1.61912"><ele>119.15</ele></trkpt><trkpt lat="49.56932" lon="-1.61873"><ele>118.46</ele></trkpt><trkpt lat="49.5692" lon="-1.61837"><ele>117.99</ele></trkpt><trkpt lat="49.56909" lon="-1.61794"><ele>116.23</ele></trkpt><trkpt lat="49.56899" lon="-1.61761"><ele>115.03</ele></trkpt><trkpt lat="49.5689" lon="-1.61726"><ele>113.85</ele></trkpt><trkpt lat="49.56884" lon="-1.6169"><ele>112.36</ele></trkpt><trkpt lat="49.56874" lon="-1.61653"><ele>110.78</ele></trkpt><trkpt lat="49.56866" lon="-1.61621"><ele>108.97</ele></trkpt><trkpt lat="49.56858" lon="-1.61588"><ele>107.22</ele></trkpt><trkpt lat="49.56851" lon="-1.61558"><ele>105.72</ele></trkpt><trkpt lat="49.56848" lon="-1.61554"><ele>105.57</ele></trkpt><trkpt lat="49.56848" lon="-1.61551"><ele>105.57</ele></trkpt><trkpt lat="49.56847" lon="-1.61542"><ele>105.37</ele></trkpt><trkpt lat="49.56843" lon="-1.61514"><ele>104.83</ele></trkpt><trkpt lat="49.5684" lon="-1.61505"><ele>104.02</ele></trkpt><trkpt lat="49.56837" lon="-1.61474"><ele>103.25</ele></trkpt><trkpt lat="49.56835" lon="-1.61448"><ele>102.75</ele></trkpt><trkpt lat="49.5683" lon="-1.61416"><ele>102.32</ele></trkpt><trkpt lat="49.56825" lon="-1.61377"><ele>103.18</ele></trkpt><trkpt lat="49.56818" lon="-1.61342"><ele>105.18</ele></trkpt><trkpt lat="49.56811" lon="-1.61307"><ele>106.87</ele></trkpt><trkpt lat="49.56804" lon="-1.61273"><ele>109.18</ele></trkpt><trkpt lat="49.56799" lon="-1.61241"><ele>110.26</ele></trkpt><trkpt lat="49.56795" lon="-1.6122"><ele>111.23</ele></trkpt><trkpt lat="49.56794" lon="-1.61212"><ele>111.38</ele></trkpt><trkpt lat="49.5679" lon="-1.61183"><ele>112.49</ele></trkpt><trkpt lat="49.56784" lon="-1.61157"><ele>113.18</ele></trkpt><trkpt lat="49.56778" lon="-1.61128"><ele>113.72</ele></trkpt><trkpt lat="49.56765" lon="-1.61099"><ele>113.44</ele></trkpt><trkpt lat="49.56748" lon="-1.61075"><ele>112.89</ele></trkpt><trkpt lat="49.56735" lon="-1.61049"><ele>112.71</ele></trkpt><trkpt lat="49.56717" lon="-1.61024"><ele>112.3</ele></trkpt><trkpt lat="49.56703" lon="-1.60996"><ele>112.5</ele></trkpt><trkpt lat="49.56687" lon="-1.60964"><ele>111.96</ele></trkpt><trkpt lat="49.56671" lon="-1.60936"><ele>113.14</ele></trkpt><trkpt lat="49.56657" lon="-1.60914"><ele>112.08</ele></trkpt><trkpt lat="49.56649" lon="-1.60901"><ele>112.3</ele></trkpt><trkpt lat="49.56637" lon="-1.60878"><ele>112.62</ele></trkpt><trkpt lat="49.56634" lon="-1.60868"><ele>112.75</ele></trkpt><trkpt lat="49.56633" lon="-1.60867"><ele>112.75</ele></trkpt><trkpt lat="49.56625" lon="-1.60865"><ele>112.27</ele></trkpt><trkpt lat="49.56621" lon="-1.60855"><ele>112.5</ele></trkpt><trkpt lat="49.56611" lon="-1.60826"><ele>112.95</ele></trkpt><trkpt lat="49.56606" lon="-1.60799"><ele>113.23</ele></trkpt><trkpt lat="49.56596" lon="-1.60766"><ele>112.52</ele></trkpt><trkpt lat="49.56593" lon="-1.60758"><ele>112.38</ele></trkpt><trkpt lat="49.56585" lon="-1.60728"><ele>112.89</ele></trkpt><trkpt lat="49.56574" lon="-1.60699"><ele>110.57</ele></trkpt><trkpt lat="49.56564" lon="-1.60672"><ele>110.13</ele></trkpt><trkpt lat="49.56556" lon="-1.60644"><ele>109.55</ele></trkpt><trkpt lat="49.56555" lon="-1.6063"><ele>109.72</ele></trkpt><trkpt lat="49.56551" lon="-1.606"><ele>109.46</ele></trkpt><trkpt lat="49.5655" lon="-1.60599"><ele>109.21</ele></trkpt><trkpt lat="49.56547" lon="-1.60578"><ele>109.46</ele></trkpt><trkpt lat="49.56547" lon="-1.60576"><ele>109.53</ele></trkpt><trkpt lat="49.56544" lon="-1.60573"><ele>109.31</ele></trkpt><trkpt lat="49.56538" lon="-1.60563"><ele>109.37</ele></trkpt><trkpt lat="49.56538" lon="-1.60562"><ele>109.37</ele></trkpt><trkpt lat="49.56535" lon="-1.60557"><ele>109.31</ele></trkpt><trkpt lat="49.56532" lon="-1.60553"><ele>109.21</ele></trkpt><trkpt lat="49.5653" lon="-1.60549"><ele>109.46</ele></trkpt><trkpt lat="49.56525" lon="-1.60545"><ele>109.42</ele></trkpt><trkpt lat="49.56526" lon="-1.60544"><ele>109.42</ele></trkpt><trkpt lat="49.56525" lon="-1.60547"><ele>109.48</ele></trkpt><trkpt lat="49.56522" lon="-1.60552"><ele>109.61</ele></trkpt><trkpt lat="49.56509" lon="-1.60565"><ele>109.89</ele></trkpt><trkpt lat="49.56498" lon="-1.60577"><ele>110.22</ele></trkpt><trkpt lat="49.56477" lon="-1.60596"><ele>110.93</ele></trkpt><trkpt lat="49.56469" lon="-1.60601"><ele>111.51</ele></trkpt><trkpt lat="49.56458" lon="-1.60606"><ele>112.09</ele></trkpt><trkpt lat="49.56454" lon="-1.60607"><ele>112.09</ele></trkpt><trkpt lat="49.56437" lon="-1.60622"><ele>112.93</ele></trkpt><trkpt lat="49.56421" lon="-1.6064"><ele>113.02</ele></trkpt><trkpt lat="49.56407" lon="-1.60658"><ele>112.76</ele></trkpt><trkpt lat="49.56404" lon="-1.60664"><ele>112.84</ele></trkpt><trkpt lat="49.56399" lon="-1.60675"><ele>112.81</ele></trkpt><trkpt lat="49.56396" lon="-1.60689"><ele>112.62</ele></trkpt><trkpt lat="49.56393" lon="-1.60699"><ele>112.57</ele></trkpt><trkpt lat="49.56389" lon="-1.60709"><ele>112.54</ele></trkpt><trkpt lat="49.56385" lon="-1.60718"><ele>112.17</ele></trkpt><trkpt lat="49.56385" lon="-1.60722"><ele>112.17</ele></trkpt><trkpt lat="49.56382" lon="-1.60727"><ele>111.85</ele></trkpt><trkpt lat="49.56379" lon="-1.60737"><ele>111.83</ele></trkpt><trkpt lat="49.56375" lon="-1.60752"><ele>111.62</ele></trkpt><trkpt lat="49.5637" lon="-1.60774"><ele>111.25</ele></trkpt><trkpt lat="49.56364" lon="-1.608"><ele>111.07</ele></trkpt><trkpt lat="49.56362" lon="-1.60815"><ele>111.34</ele></trkpt><trkpt lat="49.56354" lon="-1.60831"><ele>110.64</ele></trkpt><trkpt lat="49.56351" lon="-1.60837"><ele>110.4</ele></trkpt><trkpt lat="49.56348" lon="-1.60862"><ele>110.28</ele></trkpt><trkpt lat="49.56338" lon="-1.60876"><ele>110.33</ele></trkpt><trkpt lat="49.56318" lon="-1.6089"><ele>110.63</ele></trkpt><trkpt lat="49.56312" lon="-1.60898"><ele>110.57</ele></trkpt><trkpt lat="49.56308" lon="-1.60921"><ele>110.61</ele></trkpt><trkpt lat="49.56299" lon="-1.60943"><ele>110.31</ele></trkpt><trkpt lat="49.56295" lon="-1.60955"><ele>109.91</ele></trkpt><trkpt lat="49.56289" lon="-1.60977"><ele>108.75</ele></trkpt><trkpt lat="49.56292" lon="-1.60997"><ele>108.53</ele></trkpt><trkpt lat="49.563" lon="-1.61011"><ele>108.04</ele></trkpt><trkpt lat="49.56311" lon="-1.61031"><ele>107.46</ele></trkpt><trkpt lat="49.56314" lon="-1.61039"><ele>106.71</ele></trkpt><trkpt lat="49.56321" lon="-1.61061"><ele>105.96</ele></trkpt><trkpt lat="49.56322" lon="-1.61072"><ele>105.77</ele></trkpt><trkpt lat="49.5632" lon="-1.611"><ele>105.32</ele></trkpt><trkpt lat="49.56314" lon="-1.61121"><ele>104.48</ele></trkpt><trkpt lat="49.56311" lon="-1.61152"><ele>104.21</ele></trkpt><trkpt lat="49.56306" lon="-1.61184"><ele>103.55</ele></trkpt><trkpt lat="49.56305" lon="-1.61186"><ele>102.97</ele></trkpt><trkpt lat="49.56305" lon="-1.6119"><ele>102.97</ele></trkpt><trkpt lat="49.56306" lon="-1.61209"><ele>102.92</ele></trkpt><trkpt lat="49.56302" lon="-1.61228"><ele>102.48</ele></trkpt><trkpt lat="49.56295" lon="-1.61261"><ele>101.63</ele></trkpt><trkpt lat="49.56292" lon="-1.61282"><ele>101.08</ele></trkpt><trkpt lat="49.56288" lon="-1.61306"><ele>100.51</ele></trkpt><trkpt lat="49.56284" lon="-1.61327"><ele>100.04</ele></trkpt><trkpt lat="49.56283" lon="-1.6133"><ele>99.94</ele></trkpt><trkpt lat="49.56279" lon="-1.61351"><ele>99.45</ele></trkpt><trkpt lat="49.56279" lon="-1.61366"><ele>99.39</ele></trkpt><trkpt lat="49.56278" lon="-1.61383"><ele>99.3</ele></trkpt><trkpt lat="49.56276" lon="-1.61393"><ele>99.2</ele></trkpt><trkpt lat="49.56273" lon="-1.61398"><ele>99</ele></trkpt><trkpt lat="49.5627" lon="-1.61415"><ele>98.73</ele></trkpt><trkpt lat="49.56268" lon="-1.61431"><ele>98.17</ele></trkpt><trkpt lat="49.56265" lon="-1.61436"><ele>98.65</ele></trkpt><trkpt lat="49.5626" lon="-1.6145"><ele>98.71</ele></trkpt><trkpt lat="49.56254" lon="-1.61464"><ele>98.71</ele></trkpt><trkpt lat="49.5625" lon="-1.61482"><ele>98.39</ele></trkpt><trkpt lat="49.56247" lon="-1.61498"><ele>98.22</ele></trkpt><trkpt lat="49.56238" lon="-1.61521"><ele>98.41</ele></trkpt><trkpt lat="49.56232" lon="-1.61544"><ele>98.75</ele></trkpt><trkpt lat="49.56226" lon="-1.6156"><ele>98.7</ele></trkpt><trkpt lat="49.56223" lon="-1.61582"><ele>98.62</ele></trkpt><trkpt lat="49.5622" lon="-1.61601"><ele>98.77</ele></trkpt><trkpt lat="49.56219" lon="-1.61606"><ele>98.76</ele></trkpt><trkpt lat="49.56214" lon="-1.61626"><ele>98.68</ele></trkpt><trkpt lat="49.56214" lon="-1.61636"><ele>98.82</ele></trkpt><trkpt lat="49.56212" lon="-1.61646"><ele>98.51</ele></trkpt><trkpt lat="49.56206" lon="-1.61669"><ele>98.66</ele></trkpt><trkpt lat="49.56205" lon="-1.61673"><ele>98.71</ele></trkpt><trkpt lat="49.56203" lon="-1.61691"><ele>98.75</ele></trkpt><trkpt lat="49.56204" lon="-1.61698"><ele>98.7</ele></trkpt><trkpt lat="49.56195" lon="-1.61717"><ele>98.44</ele></trkpt><trkpt lat="49.56193" lon="-1.61727"><ele>98.89</ele></trkpt><trkpt lat="49.56204" lon="-1.61742"><ele>97.42</ele></trkpt><trkpt lat="49.56207" lon="-1.61743"><ele>97.42</ele></trkpt><trkpt lat="49.56225" lon="-1.61757"><ele>95.22</ele></trkpt><trkpt lat="49.56239" lon="-1.61769"><ele>93.78</ele></trkpt><trkpt lat="49.56256" lon="-1.61783"><ele>92.05</ele></trkpt><trkpt lat="49.56266" lon="-1.61789"><ele>91.3</ele></trkpt><trkpt lat="49.56273" lon="-1.61792"><ele>90.72</ele></trkpt><trkpt lat="49.56289" lon="-1.61808"><ele>89.69</ele></trkpt><trkpt lat="49.56301" lon="-1.6182"><ele>89.33</ele></trkpt><trkpt lat="49.56313" lon="-1.61828"><ele>89.23</ele></trkpt><trkpt lat="49.56316" lon="-1.61831"><ele>89.23</ele></trkpt><trkpt lat="49.56321" lon="-1.61837"><ele>89.28</ele></trkpt><trkpt lat="49.56332" lon="-1.61847"><ele>89.88</ele></trkpt><trkpt lat="49.56337" lon="-1.61849"><ele>89.94</ele></trkpt><trkpt lat="49.56356" lon="-1.61864"><ele>92.08</ele></trkpt><trkpt lat="49.56364" lon="-1.61873"><ele>93.1</ele></trkpt><trkpt lat="49.56369" lon="-1.61879"><ele>93.6</ele></trkpt><trkpt lat="49.56374" lon="-1.61884"><ele>94.15</ele></trkpt><trkpt lat="49.56378" lon="-1.61889"><ele>94.74</ele></trkpt><trkpt lat="49.56384" lon="-1.61895"><ele>95.82</ele></trkpt><trkpt lat="49.56399" lon="-1.6191"><ele>97.32</ele></trkpt><trkpt lat="49.56401" lon="-1.61914"><ele>98.24</ele></trkpt><trkpt lat="49.56415" lon="-1.61927"><ele>99.95</ele></trkpt><trkpt lat="49.56431" lon="-1.61942"><ele>101.47</ele></trkpt><trkpt lat="49.56447" lon="-1.61962"><ele>101.86</ele></trkpt><trkpt lat="49.56464" lon="-1.61977"><ele>103.1</ele></trkpt><trkpt lat="49.56467" lon="-1.61981"><ele>103.35</ele></trkpt><trkpt lat="49.56478" lon="-1.61992"><ele>104.61</ele></trkpt><trkpt lat="49.56493" lon="-1.62008"><ele>104.77</ele></trkpt><trkpt lat="49.56513" lon="-1.62024"><ele>105.94</ele></trkpt><trkpt lat="49.56523" lon="-1.62034"><ele>106.1</ele></trkpt><trkpt lat="49.56527" lon="-1.62038"><ele>106.22</ele></trkpt><trkpt lat="49.5654" lon="-1.62051"><ele>106.56</ele></trkpt><trkpt lat="49.56561" lon="-1.62068"><ele>107.18</ele></trkpt><trkpt lat="49.56575" lon="-1.62079"><ele>107</ele></trkpt><trkpt lat="49.56578" lon="-1.62081"><ele>107.54</ele></trkpt><trkpt lat="49.56583" lon="-1.62084"><ele>107.69</ele></trkpt><trkpt lat="49.56602" lon="-1.62102"><ele>107.76</ele></trkpt><trkpt lat="49.56608" lon="-1.6211"><ele>107.57</ele></trkpt><trkpt lat="49.56609" lon="-1.62111"><ele>107.57</ele></trkpt><trkpt lat="49.56613" lon="-1.62115"><ele>107.51</ele></trkpt><trkpt lat="49.56627" lon="-1.62126"><ele>107.31</ele></trkpt><trkpt lat="49.56642" lon="-1.62136"><ele>107.83</ele></trkpt><trkpt lat="49.5666" lon="-1.62148"><ele>107.69</ele></trkpt><trkpt lat="49.56662" lon="-1.62149"><ele>107.69</ele></trkpt><trkpt lat="49.56664" lon="-1.62151"><ele>108.15</ele></trkpt><trkpt lat="49.56671" lon="-1.62154"><ele>108.32</ele></trkpt><trkpt lat="49.56688" lon="-1.62179"><ele>106.92</ele></trkpt><trkpt lat="49.56707" lon="-1.62202"><ele>106.68</ele></trkpt><trkpt lat="49.56722" lon="-1.62209"><ele>106.58</ele></trkpt><trkpt lat="49.56733" lon="-1.62214"><ele>107.17</ele></trkpt><trkpt lat="49.56734" lon="-1.62214"><ele>107.17</ele></trkpt><trkpt lat="49.56741" lon="-1.62236"><ele>107.65</ele></trkpt><trkpt lat="49.5675" lon="-1.62263"><ele>108.23</ele></trkpt><trkpt lat="49.56758" lon="-1.62284"><ele>109.45</ele></trkpt><trkpt lat="49.5676" lon="-1.62291"><ele>108.61</ele></trkpt><trkpt lat="49.5677" lon="-1.62321"><ele>109.74</ele></trkpt><trkpt lat="49.56776" lon="-1.6235"><ele>108.77</ele></trkpt><trkpt lat="49.56782" lon="-1.62373"><ele>108.6</ele></trkpt><trkpt lat="49.5679" lon="-1.62395"><ele>109.6</ele></trkpt><trkpt lat="49.56797" lon="-1.62416"><ele>110.56</ele></trkpt><trkpt lat="49.568" lon="-1.62443"><ele>110.57</ele></trkpt><trkpt lat="49.56804" lon="-1.62464"><ele>110.99</ele></trkpt><trkpt lat="49.56807" lon="-1.62488"><ele>110.3</ele></trkpt><trkpt lat="49.56811" lon="-1.62511"><ele>110.81</ele></trkpt><trkpt lat="49.56815" lon="-1.62546"><ele>110.75</ele></trkpt><trkpt lat="49.56819" lon="-1.62568"><ele>111</ele></trkpt><trkpt lat="49.56822" lon="-1.62587"><ele>111.6</ele></trkpt><trkpt lat="49.56827" lon="-1.62606"><ele>112.19</ele></trkpt><trkpt lat="49.56835" lon="-1.6262"><ele>112.48</ele></trkpt><trkpt lat="49.56849" lon="-1.62637"><ele>112.74</ele></trkpt><trkpt lat="49.56861" lon="-1.62658"><ele>112.83</ele></trkpt><trkpt lat="49.56867" lon="-1.62669"><ele>112.44</ele></trkpt><trkpt lat="49.56867" lon="-1.62671"><ele>112.13</ele></trkpt><trkpt lat="49.56868" lon="-1.62675"><ele>111.95</ele></trkpt><trkpt lat="49.56875" lon="-1.62694"><ele>111.14</ele></trkpt><trkpt lat="49.56875" lon="-1.62695"><ele>111.14</ele></trkpt><trkpt lat="49.56877" lon="-1.62704"><ele>110.98</ele></trkpt><trkpt lat="49.56883" lon="-1.62732"><ele>109.84</ele></trkpt><trkpt lat="49.56886" lon="-1.62753"><ele>109.67</ele></trkpt><trkpt lat="49.56891" lon="-1.62778"><ele>109.48</ele></trkpt><trkpt lat="49.56896" lon="-1.62805"><ele>109.19</ele></trkpt><trkpt lat="49.569" lon="-1.62833"><ele>109.03</ele></trkpt><trkpt lat="49.56904" lon="-1.62859"><ele>108.73</ele></trkpt><trkpt lat="49.56908" lon="-1.62888"><ele>108.03</ele></trkpt><trkpt lat="49.5691" lon="-1.62894"><ele>107.49</ele></trkpt><trkpt lat="49.56912" lon="-1.62928"><ele>106.28</ele></trkpt><trkpt lat="49.56914" lon="-1.62949"><ele>104.49</ele></trkpt><trkpt lat="49.56916" lon="-1.62953"><ele>104.76</ele></trkpt><trkpt lat="49.56923" lon="-1.62976"><ele>103.31</ele></trkpt><trkpt lat="49.56924" lon="-1.62982"><ele>103.1</ele></trkpt><trkpt lat="49.56927" lon="-1.62989"><ele>102.72</ele></trkpt><trkpt lat="49.56929" lon="-1.62996"><ele>102.27</ele></trkpt><trkpt lat="49.56937" lon="-1.6302"><ele>100.93</ele></trkpt><trkpt lat="49.56946" lon="-1.63042"><ele>99.65</ele></trkpt><trkpt lat="49.56956" lon="-1.63067"><ele>98.06</ele></trkpt><trkpt lat="49.56957" lon="-1.63071"><ele>98.36</ele></trkpt><trkpt lat="49.56959" lon="-1.63075"><ele>97.46</ele></trkpt><trkpt lat="49.56962" lon="-1.6308"><ele>97.52</ele></trkpt><trkpt lat="49.56972" lon="-1.63103"><ele>96.45</ele></trkpt><trkpt lat="49.56974" lon="-1.63107"><ele>96.19</ele></trkpt><trkpt lat="49.56986" lon="-1.63128"><ele>95.95</ele></trkpt><trkpt lat="49.56994" lon="-1.63157"><ele>94.72</ele></trkpt><trkpt lat="49.56995" lon="-1.63172"><ele>94.03</ele></trkpt><trkpt lat="49.56997" lon="-1.63181"><ele>93.86</ele></trkpt><trkpt lat="49.56998" lon="-1.63184"><ele>93.55</ele></trkpt><trkpt lat="49.57004" lon="-1.63211"><ele>92.25</ele></trkpt><trkpt lat="49.57007" lon="-1.63227"><ele>91.61</ele></trkpt><trkpt lat="49.57011" lon="-1.63252"><ele>90.71</ele></trkpt><trkpt lat="49.57013" lon="-1.63258"><ele>90.42</ele></trkpt><trkpt lat="49.57015" lon="-1.63266"><ele>90.87</ele></trkpt><trkpt lat="49.57018" lon="-1.63294"><ele>89.49</ele></trkpt><trkpt lat="49.57025" lon="-1.63318"><ele>89.67</ele></trkpt><trkpt lat="49.57031" lon="-1.63347"><ele>88.32</ele></trkpt><trkpt lat="49.57032" lon="-1.63353"><ele>88.62</ele></trkpt><trkpt lat="49.57033" lon="-1.6336"><ele>88.34</ele></trkpt><trkpt lat="49.57035" lon="-1.63369"><ele>87.8</ele></trkpt><trkpt lat="49.57026" lon="-1.63376"><ele>88.82</ele></trkpt><trkpt lat="49.57031" lon="-1.63376"><ele>88.67</ele></trkpt><trkpt lat="49.57033" lon="-1.63377"><ele>87.86</ele></trkpt><trkpt lat="49.57038" lon="-1.63375"><ele>87.57</ele></trkpt><trkpt lat="49.57043" lon="-1.63372"><ele>88.07</ele></trkpt><trkpt lat="49.57048" lon="-1.63368"><ele>88.29</ele></trkpt><trkpt lat="49.57053" lon="-1.63366"><ele>87.9</ele></trkpt><trkpt lat="49.57057" lon="-1.63359"><ele>88.11</ele></trkpt><trkpt lat="49.5706" lon="-1.63356"><ele>88.69</ele></trkpt><trkpt lat="49.57066" lon="-1.63354"><ele>88.23</ele></trkpt><trkpt lat="49.57071" lon="-1.63351"><ele>88.34</ele></trkpt><trkpt lat="49.57075" lon="-1.63346"><ele>88.46</ele></trkpt><trkpt lat="49.57085" lon="-1.63333"><ele>88.77</ele></trkpt><trkpt lat="49.57106" lon="-1.63313"><ele>89.14</ele></trkpt><trkpt lat="49.57123" lon="-1.63299"><ele>88.45</ele></trkpt><trkpt lat="49.57133" lon="-1.6329"><ele>88.18</ele></trkpt><trkpt lat="49.57144" lon="-1.6328"><ele>87.18</ele></trkpt><trkpt lat="49.57151" lon="-1.6328"><ele>86.97</ele></trkpt><trkpt lat="49.57155" lon="-1.63278"><ele>86.83</ele></trkpt><trkpt lat="49.57156" lon="-1.63272"><ele>86.99</ele></trkpt><trkpt lat="49.57168" lon="-1.63243"><ele>85.97</ele></trkpt><trkpt lat="49.5717" lon="-1.63212"><ele>85.83</ele></trkpt><trkpt lat="49.57166" lon="-1.63177"><ele>85.97</ele></trkpt><trkpt lat="49.57167" lon="-1.63162"><ele>85.98</ele></trkpt><trkpt lat="49.57167" lon="-1.63152"><ele>86.54</ele></trkpt><trkpt lat="49.5717" lon="-1.63136"><ele>86.02</ele></trkpt><trkpt lat="49.57172" lon="-1.63125"><ele>87.1</ele></trkpt><trkpt lat="49.57179" lon="-1.63096"><ele>86.38</ele></trkpt><trkpt lat="49.57186" lon="-1.63063"><ele>86.61</ele></trkpt><trkpt lat="49.57189" lon="-1.63048"><ele>87</ele></trkpt><trkpt lat="49.57192" lon="-1.63036"><ele>87.44</ele></trkpt><trkpt lat="49.57202" lon="-1.63"><ele>89.88</ele></trkpt><trkpt lat="49.57209" lon="-1.62986"><ele>89.96</ele></trkpt><trkpt lat="49.57221" lon="-1.62957"><ele>91.42</ele></trkpt><trkpt lat="49.57233" lon="-1.62922"><ele>93.22</ele></trkpt><trkpt lat="49.57246" lon="-1.62889"><ele>94.51</ele></trkpt><trkpt lat="49.57256" lon="-1.62865"><ele>95.06</ele></trkpt><trkpt lat="49.57267" lon="-1.62838"><ele>96.34</ele></trkpt><trkpt lat="49.57283" lon="-1.62807"><ele>96.84</ele></trkpt><trkpt lat="49.57291" lon="-1.62794"><ele>96.7</ele></trkpt><trkpt lat="49.57288" lon="-1.62797"><ele>97</ele></trkpt><trkpt lat="49.57275" lon="-1.62819"><ele>96.89</ele></trkpt><trkpt lat="49.57265" lon="-1.62841"><ele>96.34</ele></trkpt><trkpt lat="49.57272" lon="-1.62828"><ele>96.14</ele></trkpt><trkpt lat="49.57291" lon="-1.62793"><ele>96.7</ele></trkpt><trkpt lat="49.57292" lon="-1.62792"><ele>96.7</ele></trkpt><trkpt lat="49.57307" lon="-1.62806"><ele>96.55</ele></trkpt><trkpt lat="49.5732" lon="-1.62825"><ele>96.26</ele></trkpt><trkpt lat="49.57331" lon="-1.62843"><ele>93.27</ele></trkpt><trkpt lat="49.57337" lon="-1.62851"><ele>93.18</ele></trkpt><trkpt lat="49.57354" lon="-1.62873"><ele>91.79</ele></trkpt><trkpt lat="49.57364" lon="-1.62891"><ele>89.74</ele></trkpt><trkpt lat="49.57368" lon="-1.62896"><ele>89.62</ele></trkpt><trkpt lat="49.57377" lon="-1.62912"><ele>88.72</ele></trkpt><trkpt lat="49.57381" lon="-1.62912"><ele>88.46</ele></trkpt><trkpt lat="49.57392" lon="-1.62884"><ele>89.97</ele></trkpt><trkpt lat="49.57397" lon="-1.62875"><ele>90.33</ele></trkpt><trkpt lat="49.57412" lon="-1.6285"><ele>90.71</ele></trkpt><trkpt lat="49.57423" lon="-1.62831"><ele>90.58</ele></trkpt><trkpt lat="49.57436" lon="-1.62813"><ele>89.9</ele></trkpt><trkpt lat="49.57439" lon="-1.62806"><ele>89.63</ele></trkpt><trkpt lat="49.57441" lon="-1.62803"><ele>89.66</ele></trkpt><trkpt lat="49.57441" lon="-1.628"><ele>89.66</ele></trkpt><trkpt lat="49.57442" lon="-1.628"><ele>89.66</ele></trkpt><trkpt lat="49.57442" lon="-1.62802"><ele>89.66</ele></trkpt><trkpt lat="49.57442" lon="-1.62801"><ele>89.66</ele></trkpt></trkseg></trk></gpx>
