<?xml version="1.0" encoding="UTF-8" standalone="no"?>
<gpx xmlns="http://www.topografix.com/GPX/1/1" version="1.1" xmlns:xsi="http://www.w3.org/2001/XMLSchema-instance" xsi:schemaLocation="http://www.topografix.com/GPX/1/1 http://www.topografix.com/GPX/1/1/gpx.xsd" creator="Cirkwi"><metadata><name><![CDATA[Sentier Vauban]]></name><desc><![CDATA[Cette randonnée découverte est riche en patrimoine et en panoramas exceptionnels. Dès votre départ, le port de Saint-Vaast-la-Hougue est un trésor qu'il ne faut pas manquer, tant pour le point de vue que pour les retours de pêche hauts en couleurs. Partez du comptoir touristique, 41 rue Vauban. Longez le port le long du quai Vauban (garder le port à sa gauche) et dirigez-vous vers la Hougue via le quai Tourville et la chapelle des marins (Saint-Vaast-la-Hougue). Coordonnées GPS : 49°35'22.6"N, 1°15'59.6"W Suivez le circuit selon le sens des aiguilles d'une montre. Pour vous repérer suivre les panneaux "Sentier Vauban". Le parcours se fait principalement sur voie goudronnée. Vous retrouverez ce circuit dans le topoguide "Val-de-Saire - de Barfleur aux plages du D-DAY" de l'Office de tourisme du Cotentin.   Attention aux passages sur les digues car le passage est très étroit, notamment auprès du fort de la Hougue, (possibilité de demi-tour ou ne ne pas contourner le fort de la Hougue dans l'intégralité). Le passage sur les digues est délicat pour les personnes assujetties aux vertiges. Merci de prendre vos précautions. Les chiens doivent être tenus en laisse. Départ accessible avec le réseau de bus Cap Cotentin à l'arrêt "Saint-Vaast-la-Hougue - Place Belle-Isle" (plus d'infos sur capcotentin.fr)]]></desc><author><name><![CDATA[Cotentin unique]]></name></author><link href="http://fichier0.cirkwi.com/image/photo/circuit/1300x1300/220349/fr/0.jpg"><text><![CDATA[|]]></text></link><link href="http://fichier0.cirkwi.com/image/photo/circuit/1300x1300/220349/fr/1.jpg"><text><![CDATA[|]]></text></link><time>2026-08-04T12:08:41Z</time></metadata><trk><trkseg><trkpt lat="49.58625" lon="-1.26401"><ele>4.7</ele></trkpt><trkpt lat="49.58618" lon="-1.26383"><ele>4.73</ele></trkpt><trkpt lat="49.58611" lon="-1.26374"><ele>4.81</ele></trkpt><trkpt lat="49.58609" lon="-1.26362"><ele>4.8</ele></trkpt><trkpt lat="49.58608" lon="-1.26358"><ele>4.78</ele></trkpt><trkpt lat="49.58607" lon="-1.26345"><ele>4.77</ele></trkpt><trkpt lat="49.58607" lon="-1.26312"><ele>4.71</ele></trkpt><trkpt lat="49.58608" lon="-1.26267"><ele>4.67</ele></trkpt><trkpt lat="49.58608" lon="-1.26266"><ele>4.67</ele></trkpt><trkpt lat="49.58608" lon="-1.26225"><ele>4.73</ele></trkpt><trkpt lat="49.58607" lon="-1.26217"><ele>4.76</ele></trkpt><trkpt lat="49.58605" lon="-1.26212"><ele>4.85</ele></trkpt><trkpt lat="49.58599" lon="-1.26207"><ele>4.85</ele></trkpt><trkpt lat="49.58594" lon="-1.26205"><ele>4.74</ele></trkpt><trkpt lat="49.58588" lon="-1.26204"><ele>4.75</ele></trkpt><trkpt lat="49.58585" lon="-1.26204"><ele>4.75</ele></trkpt><trkpt lat="49.58574" lon="-1.26207"><ele>4.81</ele></trkpt><trkpt lat="49.58561" lon="-1.26217"><ele>4.78</ele></trkpt><trkpt lat="49.58538" lon="-1.26234"><ele>4.84</ele></trkpt><trkpt lat="49.58537" lon="-1.26233"><ele>4.81</ele></trkpt><trkpt lat="49.58534" lon="-1.26239"><ele>4.88</ele></trkpt><trkpt lat="49.58524" lon="-1.26248"><ele>5.06</ele></trkpt><trkpt lat="49.58523" lon="-1.2625"><ele>5.12</ele></trkpt><trkpt lat="49.58521" lon="-1.26252"><ele>5.12</ele></trkpt><trkpt lat="49.58515" lon="-1.26261"><ele>5.53</ele></trkpt><trkpt lat="49.58508" lon="-1.26276"><ele>5.45</ele></trkpt><trkpt lat="49.58506" lon="-1.26285"><ele>5.29</ele></trkpt><trkpt lat="49.58505" lon="-1.26296"><ele>5.07</ele></trkpt><trkpt lat="49.58501" lon="-1.26296"><ele>5.03</ele></trkpt><trkpt lat="49.58496" lon="-1.263"><ele>5.04</ele></trkpt><trkpt lat="49.58495" lon="-1.26304"><ele>5.04</ele></trkpt><trkpt lat="49.58495" lon="-1.2631"><ele>4.93</ele></trkpt><trkpt lat="49.58488" lon="-1.26328"><ele>3.51</ele></trkpt><trkpt lat="49.58488" lon="-1.26355"><ele>3.07</ele></trkpt><trkpt lat="49.58489" lon="-1.26356"><ele>2.52</ele></trkpt><trkpt lat="49.58489" lon="-1.26371"><ele>4.76</ele></trkpt><trkpt lat="49.58479" lon="-1.26397"><ele>4.73</ele></trkpt><trkpt lat="49.58473" lon="-1.26415"><ele>3.55</ele></trkpt><trkpt lat="49.58468" lon="-1.26433"><ele>4.93</ele></trkpt><trkpt lat="49.58467" lon="-1.26436"><ele>4.93</ele></trkpt><trkpt lat="49.58464" lon="-1.2644"><ele>4.31</ele></trkpt><trkpt lat="49.58429" lon="-1.26482"><ele>4.8</ele></trkpt><trkpt lat="49.5841" lon="-1.26504"><ele>5.07</ele></trkpt><trkpt lat="49.58385" lon="-1.26534"><ele>5.04</ele></trkpt><trkpt lat="49.58355" lon="-1.26574"><ele>4.96</ele></trkpt><trkpt lat="49.5834" lon="-1.26595"><ele>4.52</ele></trkpt><trkpt lat="49.58323" lon="-1.26617"><ele>3.72</ele></trkpt><trkpt lat="49.58314" lon="-1.26629"><ele>4.42</ele></trkpt><trkpt lat="49.58286" lon="-1.26667"><ele>4.79</ele></trkpt><trkpt lat="49.58271" lon="-1.26687"><ele>4.67</ele></trkpt><trkpt lat="49.58237" lon="-1.26743"><ele>4.63</ele></trkpt><trkpt lat="49.58231" lon="-1.26754"><ele>4.76</ele></trkpt><trkpt lat="49.58192" lon="-1.26816"><ele>4.7</ele></trkpt><trkpt lat="49.58185" lon="-1.26823"><ele>4.17</ele></trkpt><trkpt lat="49.58159" lon="-1.26843"><ele>4.49</ele></trkpt><trkpt lat="49.58156" lon="-1.26846"><ele>4.54</ele></trkpt><trkpt lat="49.58108" lon="-1.26882"><ele>3.94</ele></trkpt><trkpt lat="49.58108" lon="-1.26883"><ele>3.94</ele></trkpt><trkpt lat="49.58104" lon="-1.2689"><ele>4.93</ele></trkpt><trkpt lat="49.58086" lon="-1.26904"><ele>4.6</ele></trkpt><trkpt lat="49.5805" lon="-1.26932"><ele>5.4</ele></trkpt><trkpt lat="49.58049" lon="-1.26934"><ele>5.4</ele></trkpt><trkpt lat="49.58041" lon="-1.26939"><ele>5.13</ele></trkpt><trkpt lat="49.58037" lon="-1.26941"><ele>5.52</ele></trkpt><trkpt lat="49.58028" lon="-1.2695"><ele>5.66</ele></trkpt><trkpt lat="49.58014" lon="-1.26961"><ele>5.14</ele></trkpt><trkpt lat="49.58005" lon="-1.26969"><ele>4.12</ele></trkpt><trkpt lat="49.57994" lon="-1.26979"><ele>5.64</ele></trkpt><trkpt lat="49.57983" lon="-1.2699"><ele>4.76</ele></trkpt><trkpt lat="49.57952" lon="-1.27018"><ele>5.61</ele></trkpt><trkpt lat="49.57945" lon="-1.27024"><ele>4.52</ele></trkpt><trkpt lat="49.57934" lon="-1.27034"><ele>5.77</ele></trkpt><trkpt lat="49.57905" lon="-1.2706"><ele>5.54</ele></trkpt><trkpt lat="49.57847" lon="-1.2711"><ele>5.38</ele></trkpt><trkpt lat="49.57846" lon="-1.2711"><ele>4.19</ele></trkpt><trkpt lat="49.57827" lon="-1.27125"><ele>5.14</ele></trkpt><trkpt lat="49.57804" lon="-1.27145"><ele>4.85</ele></trkpt><trkpt lat="49.57788" lon="-1.27159"><ele>5.45</ele></trkpt><trkpt lat="49.57782" lon="-1.27164"><ele>4.66</ele></trkpt><trkpt lat="49.5776" lon="-1.27184"><ele>5.47</ele></trkpt><trkpt lat="49.57754" lon="-1.27196"><ele>4.01</ele></trkpt><trkpt lat="49.57753" lon="-1.27219"><ele>4.94</ele></trkpt><trkpt lat="49.57746" lon="-1.2723"><ele>4.94</ele></trkpt><trkpt lat="49.57743" lon="-1.27237"><ele>4.9</ele></trkpt><trkpt lat="49.57741" lon="-1.27241"><ele>4.85</ele></trkpt><trkpt lat="49.57739" lon="-1.27248"><ele>4.87</ele></trkpt><trkpt lat="49.57737" lon="-1.27257"><ele>4.74</ele></trkpt><trkpt lat="49.57734" lon="-1.27277"><ele>4.63</ele></trkpt><trkpt lat="49.57733" lon="-1.27305"><ele>4.5</ele></trkpt><trkpt lat="49.57732" lon="-1.27339"><ele>4.5</ele></trkpt><trkpt lat="49.57732" lon="-1.27368"><ele>4.58</ele></trkpt><trkpt lat="49.57732" lon="-1.27387"><ele>4.5</ele></trkpt><trkpt lat="49.57737" lon="-1.27392"><ele>4.35</ele></trkpt><trkpt lat="49.57739" lon="-1.27395"><ele>4.3</ele></trkpt><trkpt lat="49.57745" lon="-1.27403"><ele>4.17</ele></trkpt><trkpt lat="49.57747" lon="-1.27407"><ele>4.17</ele></trkpt><trkpt lat="49.57769" lon="-1.27438"><ele>4</ele></trkpt><trkpt lat="49.57763" lon="-1.27464"><ele>4.4</ele></trkpt><trkpt lat="49.57753" lon="-1.27503"><ele>6.39</ele></trkpt><trkpt lat="49.57747" lon="-1.27517"><ele>4.6</ele></trkpt><trkpt lat="49.5774" lon="-1.27521"><ele>4.21</ele></trkpt><trkpt lat="49.57732" lon="-1.27523"><ele>3.99</ele></trkpt><trkpt lat="49.57724" lon="-1.27525"><ele>4.94</ele></trkpt><trkpt lat="49.57718" lon="-1.27524"><ele>5.76</ele></trkpt><trkpt lat="49.57713" lon="-1.27527"><ele>8.83</ele></trkpt><trkpt lat="49.57681" lon="-1.2754"><ele>9.6</ele></trkpt><trkpt lat="49.57678" lon="-1.27551"><ele>6.65</ele></trkpt><trkpt lat="49.57674" lon="-1.27553"><ele>7</ele></trkpt><trkpt lat="49.57669" lon="-1.27556"><ele>7.72</ele></trkpt><trkpt lat="49.57662" lon="-1.27555"><ele>8.15</ele></trkpt><trkpt lat="49.57626" lon="-1.27551"><ele>9.28</ele></trkpt><trkpt lat="49.57613" lon="-1.27551"><ele>10.72</ele></trkpt><trkpt lat="49.57608" lon="-1.27552"><ele>10.09</ele></trkpt><trkpt lat="49.57604" lon="-1.27561"><ele>8.81</ele></trkpt><trkpt lat="49.57603" lon="-1.27562"><ele>7.8</ele></trkpt><trkpt lat="49.57601" lon="-1.27563"><ele>7.4</ele></trkpt><trkpt lat="49.57586" lon="-1.27553"><ele>8.61</ele></trkpt><trkpt lat="49.57581" lon="-1.27549"><ele>9.25</ele></trkpt><trkpt lat="49.57574" lon="-1.2755"><ele>9.37</ele></trkpt><trkpt lat="49.57559" lon="-1.27544"><ele>10.58</ele></trkpt><trkpt lat="49.57554" lon="-1.27543"><ele>10.17</ele></trkpt><trkpt lat="49.57544" lon="-1.2754"><ele>10.9</ele></trkpt><trkpt lat="49.57521" lon="-1.27536"><ele>9.81</ele></trkpt><trkpt lat="49.57508" lon="-1.27532"><ele>9.72</ele></trkpt><trkpt lat="49.57502" lon="-1.2753"><ele>9.46</ele></trkpt><trkpt lat="49.57488" lon="-1.27524"><ele>8.64</ele></trkpt><trkpt lat="49.57482" lon="-1.27524"><ele>8.42</ele></trkpt><trkpt lat="49.57478" lon="-1.27523"><ele>8.17</ele></trkpt><trkpt lat="49.57471" lon="-1.27522"><ele>7.65</ele></trkpt><trkpt lat="49.57466" lon="-1.2752"><ele>7.26</ele></trkpt><trkpt lat="49.57455" lon="-1.27517"><ele>8.27</ele></trkpt><trkpt lat="49.57452" lon="-1.27517"><ele>8.27</ele></trkpt><trkpt lat="49.57449" lon="-1.27516"><ele>8.02</ele></trkpt><trkpt lat="49.57438" lon="-1.27516"><ele>7.39</ele></trkpt><trkpt lat="49.57434" lon="-1.27515"><ele>7.18</ele></trkpt><trkpt lat="49.57434" lon="-1.27518"><ele>7.18</ele></trkpt><trkpt lat="49.57433" lon="-1.2752"><ele>5.53</ele></trkpt><trkpt lat="49.57412" lon="-1.27524"><ele>5.25</ele></trkpt><trkpt lat="49.57408" lon="-1.27527"><ele>6.41</ele></trkpt><trkpt lat="49.57401" lon="-1.27534"><ele>5.41</ele></trkpt><trkpt lat="49.57396" lon="-1.27538"><ele>4.87</ele></trkpt><trkpt lat="49.57393" lon="-1.2754"><ele>4.87</ele></trkpt><trkpt lat="49.57391" lon="-1.27544"><ele>4.8</ele></trkpt><trkpt lat="49.57375" lon="-1.27568"><ele>3.96</ele></trkpt><trkpt lat="49.57373" lon="-1.27572"><ele>5.02</ele></trkpt><trkpt lat="49.57373" lon="-1.27576"><ele>4.64</ele></trkpt><trkpt lat="49.57372" lon="-1.27589"><ele>4.5</ele></trkpt><trkpt lat="49.57371" lon="-1.27594"><ele>3.74</ele></trkpt><trkpt lat="49.57368" lon="-1.27598"><ele>4.11</ele></trkpt><trkpt lat="49.57362" lon="-1.276"><ele>4.79</ele></trkpt><trkpt lat="49.57339" lon="-1.27612"><ele>4.28</ele></trkpt><trkpt lat="49.57336" lon="-1.27613"><ele>4.28</ele></trkpt><trkpt lat="49.57318" lon="-1.2762"><ele>3.91</ele></trkpt><trkpt lat="49.57313" lon="-1.27619"><ele>3.71</ele></trkpt><trkpt lat="49.57303" lon="-1.27602"><ele>4.42</ele></trkpt><trkpt lat="49.57294" lon="-1.27586"><ele>5.25</ele></trkpt><trkpt lat="49.57294" lon="-1.27581"><ele>5.91</ele></trkpt><trkpt lat="49.57289" lon="-1.27573"><ele>5.77</ele></trkpt><trkpt lat="49.57285" lon="-1.27567"><ele>6.03</ele></trkpt><trkpt lat="49.57284" lon="-1.27567"><ele>4.73</ele></trkpt><trkpt lat="49.57273" lon="-1.27556"><ele>6.6</ele></trkpt><trkpt lat="49.57266" lon="-1.27549"><ele>5.59</ele></trkpt><trkpt lat="49.57257" lon="-1.27548"><ele>5.97</ele></trkpt><trkpt lat="49.57243" lon="-1.27545"><ele>5.01</ele></trkpt><trkpt lat="49.5724" lon="-1.27542"><ele>5.7</ele></trkpt><trkpt lat="49.57229" lon="-1.27516"><ele>7.03</ele></trkpt><trkpt lat="49.57229" lon="-1.27513"><ele>8.69</ele></trkpt><trkpt lat="49.57229" lon="-1.27508"><ele>8.24</ele></trkpt><trkpt lat="49.57229" lon="-1.27501"><ele>8.29</ele></trkpt><trkpt lat="49.57227" lon="-1.27496"><ele>5.82</ele></trkpt><trkpt lat="49.57221" lon="-1.27487"><ele>5.36</ele></trkpt><trkpt lat="49.57215" lon="-1.27478"><ele>4.25</ele></trkpt><trkpt lat="49.57211" lon="-1.27476"><ele>3.93</ele></trkpt><trkpt lat="49.57194" lon="-1.27444"><ele>4.37</ele></trkpt><trkpt lat="49.57179" lon="-1.27415"><ele>3.65</ele></trkpt><trkpt lat="49.57166" lon="-1.2739"><ele>4.2</ele></trkpt><trkpt lat="49.57152" lon="-1.27361"><ele>3.26</ele></trkpt><trkpt lat="49.57148" lon="-1.27361"><ele>3.63</ele></trkpt><trkpt lat="49.57144" lon="-1.2736"><ele>3.51</ele></trkpt><trkpt lat="49.57132" lon="-1.27347"><ele>3.54</ele></trkpt><trkpt lat="49.57122" lon="-1.27336"><ele>3.53</ele></trkpt><trkpt lat="49.57118" lon="-1.27334"><ele>2.86</ele></trkpt><trkpt lat="49.57114" lon="-1.27332"><ele>3.12</ele></trkpt><trkpt lat="49.57096" lon="-1.27325"><ele>2.11</ele></trkpt><trkpt lat="49.57078" lon="-1.27318"><ele>2.43</ele></trkpt><trkpt lat="49.57082" lon="-1.27292"><ele>1.85</ele></trkpt><trkpt lat="49.5708" lon="-1.27284"><ele>1.27</ele></trkpt><trkpt lat="49.57079" lon="-1.27276"><ele>1.47</ele></trkpt><trkpt lat="49.5708" lon="-1.2727"><ele>1.72</ele></trkpt><trkpt lat="49.57083" lon="-1.27265"><ele>2.22</ele></trkpt><trkpt lat="49.57086" lon="-1.2726"><ele>2</ele></trkpt><trkpt lat="49.5709" lon="-1.27259"><ele>2.45</ele></trkpt><trkpt lat="49.57093" lon="-1.27257"><ele>2.21</ele></trkpt><trkpt lat="49.57099" lon="-1.27246"><ele>2.13</ele></trkpt><trkpt lat="49.57102" lon="-1.27242"><ele>1.85</ele></trkpt><trkpt lat="49.57105" lon="-1.27239"><ele>1.96</ele></trkpt><trkpt lat="49.5711" lon="-1.27238"><ele>2</ele></trkpt><trkpt lat="49.57113" lon="-1.27238"><ele>1.81</ele></trkpt><trkpt lat="49.57142" lon="-1.27254"><ele>2.14</ele></trkpt><trkpt lat="49.57146" lon="-1.27255"><ele>2.18</ele></trkpt><trkpt lat="49.57174" lon="-1.2727"><ele>1.96</ele></trkpt><trkpt lat="49.57179" lon="-1.27273"><ele>1.89</ele></trkpt><trkpt lat="49.5718" lon="-1.27277"><ele>1.9</ele></trkpt><trkpt lat="49.57182" lon="-1.27282"><ele>2.01</ele></trkpt><trkpt lat="49.57184" lon="-1.27286"><ele>2.14</ele></trkpt><trkpt lat="49.57184" lon="-1.2729"><ele>2.25</ele></trkpt><trkpt lat="49.57184" lon="-1.27295"><ele>2.42</ele></trkpt><trkpt lat="49.57181" lon="-1.27321"><ele>2.87</ele></trkpt><trkpt lat="49.57218" lon="-1.27337"><ele>3.26</ele></trkpt><trkpt lat="49.57256" lon="-1.27353"><ele>3.05</ele></trkpt><trkpt lat="49.57261" lon="-1.27355"><ele>2.8</ele></trkpt><trkpt lat="49.57289" lon="-1.27367"><ele>4.74</ele></trkpt><trkpt lat="49.57317" lon="-1.27369"><ele>6.16</ele></trkpt><trkpt lat="49.57356" lon="-1.27371"><ele>6.54</ele></trkpt><trkpt lat="49.5736" lon="-1.2737"><ele>6.53</ele></trkpt><trkpt lat="49.57391" lon="-1.27359"><ele>6.37</ele></trkpt><trkpt lat="49.57414" lon="-1.27345"><ele>6.19</ele></trkpt><trkpt lat="49.57432" lon="-1.2734"><ele>6</ele></trkpt><trkpt lat="49.57457" lon="-1.27333"><ele>6.13</ele></trkpt><trkpt lat="49.5749" lon="-1.27323"><ele>5.78</ele></trkpt><trkpt lat="49.57515" lon="-1.27315"><ele>5.54</ele></trkpt><trkpt lat="49.57536" lon="-1.27308"><ele>5.56</ele></trkpt><trkpt lat="49.57544" lon="-1.27305"><ele>5.64</ele></trkpt><trkpt lat="49.57562" lon="-1.27298"><ele>5.75</ele></trkpt><trkpt lat="49.57579" lon="-1.27291"><ele>5.71</ele></trkpt><trkpt lat="49.57598" lon="-1.27281"><ele>5.93</ele></trkpt><trkpt lat="49.5761" lon="-1.27274"><ele>5.6</ele></trkpt><trkpt lat="49.57628" lon="-1.27264"><ele>5.55</ele></trkpt><trkpt lat="49.5766" lon="-1.27249"><ele>5.23</ele></trkpt><trkpt lat="49.5767" lon="-1.27247"><ele>5.05</ele></trkpt><trkpt lat="49.57674" lon="-1.27246"><ele>5.22</ele></trkpt><trkpt lat="49.57679" lon="-1.27245"><ele>5.32</ele></trkpt><trkpt lat="49.57698" lon="-1.27236"><ele>5.09</ele></trkpt><trkpt lat="49.57702" lon="-1.27235"><ele>4.96</ele></trkpt><trkpt lat="49.5771" lon="-1.27234"><ele>5.07</ele></trkpt><trkpt lat="49.5772" lon="-1.27239"><ele>4.81</ele></trkpt><trkpt lat="49.57727" lon="-1.27242"><ele>4.6</ele></trkpt><trkpt lat="49.57728" lon="-1.27244"><ele>4.67</ele></trkpt><trkpt lat="49.57734" lon="-1.27252"><ele>4.72</ele></trkpt><trkpt lat="49.57737" lon="-1.27257"><ele>4.74</ele></trkpt><trkpt lat="49.57734" lon="-1.27277"><ele>4.63</ele></trkpt><trkpt lat="49.57733" lon="-1.27305"><ele>4.5</ele></trkpt><trkpt lat="49.57732" lon="-1.27339"><ele>4.5</ele></trkpt><trkpt lat="49.57732" lon="-1.27368"><ele>4.58</ele></trkpt><trkpt lat="49.57732" lon="-1.27387"><ele>4.5</ele></trkpt><trkpt lat="49.57737" lon="-1.27392"><ele>4.35</ele></trkpt><trkpt lat="49.57739" lon="-1.27395"><ele>4.3</ele></trkpt><trkpt lat="49.57747" lon="-1.27407"><ele>4.17</ele></trkpt><trkpt lat="49.5776" lon="-1.27409"><ele>4.24</ele></trkpt><trkpt lat="49.57771" lon="-1.27409"><ele>4.25</ele></trkpt><trkpt lat="49.57777" lon="-1.2741"><ele>4.22</ele></trkpt><trkpt lat="49.5778" lon="-1.2741"><ele>4.13</ele></trkpt><trkpt lat="49.57783" lon="-1.27409"><ele>4.03</ele></trkpt><trkpt lat="49.57785" lon="-1.27405"><ele>4.06</ele></trkpt><trkpt lat="49.57785" lon="-1.27404"><ele>4.06</ele></trkpt><trkpt lat="49.57791" lon="-1.27382"><ele>4.12</ele></trkpt><trkpt lat="49.57792" lon="-1.27376"><ele>4.08</ele></trkpt><trkpt lat="49.57793" lon="-1.27371"><ele>4.1</ele></trkpt><trkpt lat="49.57803" lon="-1.27354"><ele>4.26</ele></trkpt><trkpt lat="49.57808" lon="-1.27345"><ele>4.18</ele></trkpt><trkpt lat="49.57815" lon="-1.27343"><ele>4.2</ele></trkpt><trkpt lat="49.57815" lon="-1.27342"><ele>4.1</ele></trkpt><trkpt lat="49.57825" lon="-1.27333"><ele>4.18</ele></trkpt><trkpt lat="49.57839" lon="-1.27327"><ele>4.14</ele></trkpt><trkpt lat="49.57842" lon="-1.27326"><ele>4.14</ele></trkpt><trkpt lat="49.57847" lon="-1.27326"><ele>4.15</ele></trkpt><trkpt lat="49.57854" lon="-1.27326"><ele>4.13</ele></trkpt><trkpt lat="49.57873" lon="-1.27329"><ele>4.12</ele></trkpt><trkpt lat="49.57889" lon="-1.27332"><ele>4.07</ele></trkpt><trkpt lat="49.57909" lon="-1.27332"><ele>4.02</ele></trkpt><trkpt lat="49.57919" lon="-1.27329"><ele>3.99</ele></trkpt><trkpt lat="49.57924" lon="-1.27328"><ele>4.01</ele></trkpt><trkpt lat="49.57926" lon="-1.27326"><ele>4.01</ele></trkpt><trkpt lat="49.57927" lon="-1.27323"><ele>3.94</ele></trkpt><trkpt lat="49.57928" lon="-1.2732"><ele>3.97</ele></trkpt><trkpt lat="49.57928" lon="-1.27316"><ele>4.01</ele></trkpt><trkpt lat="49.57927" lon="-1.27311"><ele>4.05</ele></trkpt><trkpt lat="49.57922" lon="-1.2729"><ele>4.05</ele></trkpt><trkpt lat="49.57916" lon="-1.27274"><ele>5.2</ele></trkpt><trkpt lat="49.57912" lon="-1.27242"><ele>5.23</ele></trkpt><trkpt lat="49.57906" lon="-1.27208"><ele>5.43</ele></trkpt><trkpt lat="49.57905" lon="-1.272"><ele>5.45</ele></trkpt><trkpt lat="49.57905" lon="-1.27192"><ele>5.45</ele></trkpt><trkpt lat="49.57905" lon="-1.27186"><ele>5.46</ele></trkpt><trkpt lat="49.57902" lon="-1.27177"><ele>5.48</ele></trkpt><trkpt lat="49.57897" lon="-1.27164"><ele>5.43</ele></trkpt><trkpt lat="49.57892" lon="-1.27139"><ele>5.27</ele></trkpt><trkpt lat="49.57892" lon="-1.27135"><ele>5.21</ele></trkpt><trkpt lat="49.5789" lon="-1.27127"><ele>5.05</ele></trkpt><trkpt lat="49.57888" lon="-1.27121"><ele>5.15</ele></trkpt><trkpt lat="49.57896" lon="-1.27112"><ele>5.03</ele></trkpt><trkpt lat="49.57901" lon="-1.27106"><ele>4.95</ele></trkpt><trkpt lat="49.57908" lon="-1.27096"><ele>4.8</ele></trkpt><trkpt lat="49.57919" lon="-1.27083"><ele>4.87</ele></trkpt><trkpt lat="49.57968" lon="-1.27036"><ele>4.53</ele></trkpt><trkpt lat="49.57976" lon="-1.27029"><ele>4.49</ele></trkpt><trkpt lat="49.58051" lon="-1.26961"><ele>4.07</ele></trkpt><trkpt lat="49.58054" lon="-1.26958"><ele>4.09</ele></trkpt><trkpt lat="49.58067" lon="-1.26948"><ele>4.01</ele></trkpt><trkpt lat="49.58128" lon="-1.26897"><ele>3.95</ele></trkpt><trkpt lat="49.58169" lon="-1.26863"><ele>3.88</ele></trkpt><trkpt lat="49.58183" lon="-1.26852"><ele>3.8</ele></trkpt><trkpt lat="49.58199" lon="-1.26838"><ele>3.73</ele></trkpt><trkpt lat="49.58222" lon="-1.26807"><ele>4.01</ele></trkpt><trkpt lat="49.58232" lon="-1.26793"><ele>3.99</ele></trkpt><trkpt lat="49.58239" lon="-1.26789"><ele>4.01</ele></trkpt><trkpt lat="49.58242" lon="-1.26789"><ele>3.99</ele></trkpt><trkpt lat="49.5825" lon="-1.26791"><ele>3.92</ele></trkpt><trkpt lat="49.58257" lon="-1.26793"><ele>3.8</ele></trkpt><trkpt lat="49.58266" lon="-1.26799"><ele>4.23</ele></trkpt><trkpt lat="49.58273" lon="-1.26806"><ele>4.42</ele></trkpt><trkpt lat="49.58282" lon="-1.26819"><ele>4.42</ele></trkpt><trkpt lat="49.58292" lon="-1.26833"><ele>4.27</ele></trkpt><trkpt lat="49.58298" lon="-1.26841"><ele>4.19</ele></trkpt><trkpt lat="49.5831" lon="-1.26859"><ele>4.11</ele></trkpt><trkpt lat="49.58315" lon="-1.26868"><ele>4.24</ele></trkpt><trkpt lat="49.58323" lon="-1.26884"><ele>4.16</ele></trkpt><trkpt lat="49.58336" lon="-1.26908"><ele>4.36</ele></trkpt><trkpt lat="49.58349" lon="-1.26932"><ele>4.5</ele></trkpt><trkpt lat="49.58354" lon="-1.2694"><ele>4.53</ele></trkpt><trkpt lat="49.58362" lon="-1.26954"><ele>4.7</ele></trkpt><trkpt lat="49.58367" lon="-1.26963"><ele>4.92</ele></trkpt><trkpt lat="49.58374" lon="-1.26968"><ele>5.02</ele></trkpt><trkpt lat="49.58378" lon="-1.26971"><ele>5.14</ele></trkpt><trkpt lat="49.5838" lon="-1.26974"><ele>5.24</ele></trkpt><trkpt lat="49.58381" lon="-1.26978"><ele>5.22</ele></trkpt><trkpt lat="49.58381" lon="-1.26989"><ele>5.22</ele></trkpt><trkpt lat="49.58382" lon="-1.26996"><ele>5.2</ele></trkpt><trkpt lat="49.58385" lon="-1.27002"><ele>5.24</ele></trkpt><trkpt lat="49.58391" lon="-1.27013"><ele>5.04</ele></trkpt><trkpt lat="49.58402" lon="-1.2704"><ele>5.07</ele></trkpt><trkpt lat="49.5841" lon="-1.27059"><ele>5.06</ele></trkpt><trkpt lat="49.58413" lon="-1.27065"><ele>5.03</ele></trkpt><trkpt lat="49.58417" lon="-1.27071"><ele>5</ele></trkpt><trkpt lat="49.5842" lon="-1.27073"><ele>4.93</ele></trkpt><trkpt lat="49.58422" lon="-1.27073"><ele>4.87</ele></trkpt><trkpt lat="49.58426" lon="-1.27072"><ele>3.97</ele></trkpt><trkpt lat="49.58434" lon="-1.27065"><ele>3.59</ele></trkpt><trkpt lat="49.58448" lon="-1.27054"><ele>3.58</ele></trkpt><trkpt lat="49.58458" lon="-1.27047"><ele>3.6</ele></trkpt><trkpt lat="49.58479" lon="-1.27036"><ele>3.66</ele></trkpt><trkpt lat="49.58494" lon="-1.27028"><ele>3.67</ele></trkpt><trkpt lat="49.58497" lon="-1.27026"><ele>3.67</ele></trkpt><trkpt lat="49.58523" lon="-1.27013"><ele>3.7</ele></trkpt><trkpt lat="49.58533" lon="-1.27007"><ele>3.84</ele></trkpt><trkpt lat="49.5854" lon="-1.27022"><ele>3.8</ele></trkpt><trkpt lat="49.58549" lon="-1.27045"><ele>3.84</ele></trkpt><trkpt lat="49.58551" lon="-1.27049"><ele>3.8</ele></trkpt><trkpt lat="49.58553" lon="-1.2705"><ele>3.8</ele></trkpt><trkpt lat="49.58556" lon="-1.2705"><ele>3.8</ele></trkpt><trkpt lat="49.58563" lon="-1.27043"><ele>3.75</ele></trkpt><trkpt lat="49.58569" lon="-1.27034"><ele>3.62</ele></trkpt><trkpt lat="49.58572" lon="-1.27049"><ele>3.56</ele></trkpt><trkpt lat="49.58579" lon="-1.27079"><ele>3.61</ele></trkpt><trkpt lat="49.58584" lon="-1.27098"><ele>3.72</ele></trkpt><trkpt lat="49.58593" lon="-1.27125"><ele>3.93</ele></trkpt><trkpt lat="49.58602" lon="-1.27147"><ele>3.94</ele></trkpt><trkpt lat="49.58603" lon="-1.27151"><ele>3.98</ele></trkpt><trkpt lat="49.58607" lon="-1.27162"><ele>4</ele></trkpt><trkpt lat="49.58613" lon="-1.27178"><ele>4.1</ele></trkpt><trkpt lat="49.58611" lon="-1.2719"><ele>3.78</ele></trkpt><trkpt lat="49.58604" lon="-1.27204"><ele>3.8</ele></trkpt><trkpt lat="49.58602" lon="-1.27218"><ele>3.92</ele></trkpt><trkpt lat="49.58602" lon="-1.2723"><ele>3.93</ele></trkpt><trkpt lat="49.58606" lon="-1.27247"><ele>3.81</ele></trkpt><trkpt lat="49.58607" lon="-1.2725"><ele>3.76</ele></trkpt><trkpt lat="49.5861" lon="-1.27259"><ele>3.78</ele></trkpt><trkpt lat="49.58609" lon="-1.2727"><ele>3.85</ele></trkpt><trkpt lat="49.58608" lon="-1.27283"><ele>3.81</ele></trkpt><trkpt lat="49.58612" lon="-1.27309"><ele>3.91</ele></trkpt><trkpt lat="49.58622" lon="-1.27376"><ele>4.1</ele></trkpt><trkpt lat="49.58626" lon="-1.274"><ele>4.06</ele></trkpt><trkpt lat="49.58632" lon="-1.27439"><ele>4.18</ele></trkpt><trkpt lat="49.58641" lon="-1.27499"><ele>3.95</ele></trkpt><trkpt lat="49.58644" lon="-1.27515"><ele>3.97</ele></trkpt><trkpt lat="49.5865" lon="-1.27559"><ele>4.07</ele></trkpt><trkpt lat="49.58656" lon="-1.27599"><ele>4.22</ele></trkpt><trkpt lat="49.58657" lon="-1.27607"><ele>4.39</ele></trkpt><trkpt lat="49.58657" lon="-1.27614"><ele>4.51</ele></trkpt><trkpt lat="49.58656" lon="-1.27629"><ele>4.71</ele></trkpt><trkpt lat="49.58654" lon="-1.27664"><ele>4.3</ele></trkpt><trkpt lat="49.58653" lon="-1.2768"><ele>4.09</ele></trkpt><trkpt lat="49.58653" lon="-1.27682"><ele>4.04</ele></trkpt><trkpt lat="49.58653" lon="-1.27688"><ele>3.98</ele></trkpt><trkpt lat="49.5867" lon="-1.27682"><ele>4.8</ele></trkpt><trkpt lat="49.58682" lon="-1.27677"><ele>5.03</ele></trkpt><trkpt lat="49.58696" lon="-1.2767"><ele>5.06</ele></trkpt><trkpt lat="49.58709" lon="-1.27665"><ele>5.13</ele></trkpt><trkpt lat="49.58712" lon="-1.27665"><ele>5.14</ele></trkpt><trkpt lat="49.58715" lon="-1.27665"><ele>5.09</ele></trkpt><trkpt lat="49.58719" lon="-1.27665"><ele>5</ele></trkpt><trkpt lat="49.58722" lon="-1.27666"><ele>5</ele></trkpt><trkpt lat="49.58726" lon="-1.27667"><ele>4.88</ele></trkpt><trkpt lat="49.58732" lon="-1.27668"><ele>4.86</ele></trkpt><trkpt lat="49.58744" lon="-1.27669"><ele>5.07</ele></trkpt><trkpt lat="49.58751" lon="-1.27671"><ele>5.07</ele></trkpt><trkpt lat="49.58761" lon="-1.27672"><ele>5.07</ele></trkpt><trkpt lat="49.58769" lon="-1.27671"><ele>5.19</ele></trkpt><trkpt lat="49.5878" lon="-1.2767"><ele>5.11</ele></trkpt><trkpt lat="49.58783" lon="-1.2767"><ele>5</ele></trkpt><trkpt lat="49.58785" lon="-1.27671"><ele>5</ele></trkpt><trkpt lat="49.58786" lon="-1.27674"><ele>5.03</ele></trkpt><trkpt lat="49.5879" lon="-1.27724"><ele>5.25</ele></trkpt><trkpt lat="49.58792" lon="-1.27753"><ele>5.17</ele></trkpt><trkpt lat="49.58793" lon="-1.27756"><ele>5.18</ele></trkpt><trkpt lat="49.58795" lon="-1.27756"><ele>5.18</ele></trkpt><trkpt lat="49.58808" lon="-1.27755"><ele>4.93</ele></trkpt><trkpt lat="49.58819" lon="-1.27754"><ele>4.87</ele></trkpt><trkpt lat="49.58825" lon="-1.27753"><ele>4.87</ele></trkpt><trkpt lat="49.58831" lon="-1.27749"><ele>4.96</ele></trkpt><trkpt lat="49.5884" lon="-1.27746"><ele>5</ele></trkpt><trkpt lat="49.58842" lon="-1.27745"><ele>5</ele></trkpt><trkpt lat="49.58869" lon="-1.27736"><ele>5.24</ele></trkpt><trkpt lat="49.5888" lon="-1.27731"><ele>5.33</ele></trkpt><trkpt lat="49.58887" lon="-1.27726"><ele>5.46</ele></trkpt><trkpt lat="49.58895" lon="-1.27718"><ele>5.6</ele></trkpt><trkpt lat="49.58904" lon="-1.27705"><ele>5.84</ele></trkpt><trkpt lat="49.58908" lon="-1.27695"><ele>6.04</ele></trkpt><trkpt lat="49.58909" lon="-1.27693"><ele>6.09</ele></trkpt><trkpt lat="49.58915" lon="-1.27666"><ele>5.97</ele></trkpt><trkpt lat="49.58916" lon="-1.27659"><ele>5.94</ele></trkpt><trkpt lat="49.58921" lon="-1.27634"><ele>5.46</ele></trkpt><trkpt lat="49.58927" lon="-1.27604"><ele>5.29</ele></trkpt><trkpt lat="49.58929" lon="-1.27589"><ele>5.18</ele></trkpt><trkpt lat="49.58936" lon="-1.27549"><ele>4.89</ele></trkpt><trkpt lat="49.5894" lon="-1.2753"><ele>4.76</ele></trkpt><trkpt lat="49.58942" lon="-1.27522"><ele>4.6</ele></trkpt><trkpt lat="49.58947" lon="-1.27522"><ele>4.52</ele></trkpt><trkpt lat="49.58985" lon="-1.27523"><ele>4.7</ele></trkpt><trkpt lat="49.59" lon="-1.27512"><ele>4.78</ele></trkpt><trkpt lat="49.59017" lon="-1.27499"><ele>4.84</ele></trkpt><trkpt lat="49.59017" lon="-1.27498"><ele>4.84</ele></trkpt><trkpt lat="49.59028" lon="-1.27491"><ele>4.77</ele></trkpt><trkpt lat="49.59047" lon="-1.27481"><ele>4.73</ele></trkpt><trkpt lat="49.59053" lon="-1.27478"><ele>4.69</ele></trkpt><trkpt lat="49.59056" lon="-1.27476"><ele>4.69</ele></trkpt><trkpt lat="49.59074" lon="-1.2745"><ele>4.15</ele></trkpt><trkpt lat="49.59068" lon="-1.27435"><ele>4.07</ele></trkpt><trkpt lat="49.59064" lon="-1.27427"><ele>4.11</ele></trkpt><trkpt lat="49.59062" lon="-1.27419"><ele>4.15</ele></trkpt><trkpt lat="49.59069" lon="-1.27416"><ele>4.15</ele></trkpt><trkpt lat="49.5908" lon="-1.27412"><ele>4.36</ele></trkpt><trkpt lat="49.59122" lon="-1.2739"><ele>4.17</ele></trkpt><trkpt lat="49.59135" lon="-1.27383"><ele>4.28</ele></trkpt><trkpt lat="49.59155" lon="-1.27372"><ele>4.3</ele></trkpt><trkpt lat="49.5918" lon="-1.27303"><ele>3.92</ele></trkpt><trkpt lat="49.59188" lon="-1.27286"><ele>4.17</ele></trkpt><trkpt lat="49.59194" lon="-1.27274"><ele>4.32</ele></trkpt><trkpt lat="49.59212" lon="-1.27268"><ele>4.4</ele></trkpt><trkpt lat="49.59245" lon="-1.27259"><ele>4.29</ele></trkpt><trkpt lat="49.59265" lon="-1.27254"><ele>4.21</ele></trkpt><trkpt lat="49.59273" lon="-1.27252"><ele>4.16</ele></trkpt><trkpt lat="49.59289" lon="-1.27248"><ele>4.05</ele></trkpt><trkpt lat="49.59306" lon="-1.27243"><ele>3.99</ele></trkpt><trkpt lat="49.59316" lon="-1.2724"><ele>3.95</ele></trkpt><trkpt lat="49.59343" lon="-1.27232"><ele>3.94</ele></trkpt><trkpt lat="49.59368" lon="-1.27226"><ele>3.88</ele></trkpt><trkpt lat="49.59394" lon="-1.27219"><ele>3.99</ele></trkpt><trkpt lat="49.59405" lon="-1.27215"><ele>4.32</ele></trkpt><trkpt lat="49.59407" lon="-1.27218"><ele>4.32</ele></trkpt><trkpt lat="49.59411" lon="-1.27225"><ele>4.03</ele></trkpt><trkpt lat="49.59412" lon="-1.27227"><ele>3.9</ele></trkpt><trkpt lat="49.59485" lon="-1.27208"><ele>3.5</ele></trkpt><trkpt lat="49.59532" lon="-1.27196"><ele>3.91</ele></trkpt><trkpt lat="49.59572" lon="-1.27186"><ele>3.3</ele></trkpt><trkpt lat="49.5959" lon="-1.27182"><ele>3.21</ele></trkpt><trkpt lat="49.59609" lon="-1.27176"><ele>3.11</ele></trkpt><trkpt lat="49.59622" lon="-1.27168"><ele>3.29</ele></trkpt><trkpt lat="49.59641" lon="-1.27158"><ele>3.49</ele></trkpt><trkpt lat="49.59643" lon="-1.27154"><ele>3.49</ele></trkpt><trkpt lat="49.59635" lon="-1.27128"><ele>3.07</ele></trkpt><trkpt lat="49.59637" lon="-1.27116"><ele>2.98</ele></trkpt><trkpt lat="49.59632" lon="-1.27104"><ele>2.96</ele></trkpt><trkpt lat="49.59629" lon="-1.27096"><ele>2.99</ele></trkpt><trkpt lat="49.59628" lon="-1.27092"><ele>3.03</ele></trkpt><trkpt lat="49.59623" lon="-1.27076"><ele>2.91</ele></trkpt><trkpt lat="49.59615" lon="-1.27048"><ele>2.94</ele></trkpt><trkpt lat="49.59614" lon="-1.27038"><ele>3.14</ele></trkpt><trkpt lat="49.59612" lon="-1.27027"><ele>3.13</ele></trkpt><trkpt lat="49.59612" lon="-1.27022"><ele>3.18</ele></trkpt><trkpt lat="49.5961" lon="-1.27016"><ele>3.21</ele></trkpt><trkpt lat="49.59609" lon="-1.27009"><ele>3.25</ele></trkpt><trkpt lat="49.59607" lon="-1.27001"><ele>3.3</ele></trkpt><trkpt lat="49.59606" lon="-1.26992"><ele>3.37</ele></trkpt><trkpt lat="49.59604" lon="-1.26982"><ele>3.36</ele></trkpt><trkpt lat="49.59603" lon="-1.26972"><ele>3.37</ele></trkpt><trkpt lat="49.59602" lon="-1.26961"><ele>3.43</ele></trkpt><trkpt lat="49.59602" lon="-1.2695"><ele>3.45</ele></trkpt><trkpt lat="49.59603" lon="-1.26928"><ele>3.3</ele></trkpt><trkpt lat="49.59602" lon="-1.26917"><ele>3.27</ele></trkpt><trkpt lat="49.596" lon="-1.26906"><ele>3.24</ele></trkpt><trkpt lat="49.59598" lon="-1.26896"><ele>3.17</ele></trkpt><trkpt lat="49.59596" lon="-1.26886"><ele>3.14</ele></trkpt><trkpt lat="49.59593" lon="-1.26876"><ele>3.13</ele></trkpt><trkpt lat="49.59592" lon="-1.26871"><ele>3.12</ele></trkpt><trkpt lat="49.5959" lon="-1.26866"><ele>3.09</ele></trkpt><trkpt lat="49.59588" lon="-1.26856"><ele>3.08</ele></trkpt><trkpt lat="49.59587" lon="-1.26845"><ele>3.06</ele></trkpt><trkpt lat="49.59587" lon="-1.26834"><ele>3.02</ele></trkpt><trkpt lat="49.59587" lon="-1.26824"><ele>2.99</ele></trkpt><trkpt lat="49.59591" lon="-1.26804"><ele>2.97</ele></trkpt><trkpt lat="49.59594" lon="-1.26795"><ele>2.98</ele></trkpt><trkpt lat="49.59602" lon="-1.2678"><ele>2.88</ele></trkpt><trkpt lat="49.59606" lon="-1.26773"><ele>2.84</ele></trkpt><trkpt lat="49.59609" lon="-1.26764"><ele>2.91</ele></trkpt><trkpt lat="49.59611" lon="-1.26755"><ele>2.94</ele></trkpt><trkpt lat="49.59613" lon="-1.26736"><ele>2.94</ele></trkpt><trkpt lat="49.59613" lon="-1.26727"><ele>2.98</ele></trkpt><trkpt lat="49.59612" lon="-1.26717"><ele>3</ele></trkpt><trkpt lat="49.59612" lon="-1.26708"><ele>3.04</ele></trkpt><trkpt lat="49.59613" lon="-1.267"><ele>3.07</ele></trkpt><trkpt lat="49.59615" lon="-1.26691"><ele>3.02</ele></trkpt><trkpt lat="49.59617" lon="-1.26683"><ele>3.05</ele></trkpt><trkpt lat="49.5962" lon="-1.26674"><ele>3.1</ele></trkpt><trkpt lat="49.59627" lon="-1.26658"><ele>3.05</ele></trkpt><trkpt lat="49.5963" lon="-1.2665"><ele>3.07</ele></trkpt><trkpt lat="49.59634" lon="-1.26642"><ele>3.09</ele></trkpt><trkpt lat="49.59642" lon="-1.26626"><ele>3.16</ele></trkpt><trkpt lat="49.59642" lon="-1.26625"><ele>3.16</ele></trkpt><trkpt lat="49.59646" lon="-1.26618"><ele>3.18</ele></trkpt><trkpt lat="49.59654" lon="-1.26602"><ele>3.19</ele></trkpt><trkpt lat="49.59659" lon="-1.26596"><ele>3.21</ele></trkpt><trkpt lat="49.59668" lon="-1.26585"><ele>3.15</ele></trkpt><trkpt lat="49.59673" lon="-1.26579"><ele>3.13</ele></trkpt><trkpt lat="49.59678" lon="-1.26575"><ele>3.13</ele></trkpt><trkpt lat="49.59682" lon="-1.26571"><ele>3.12</ele></trkpt><trkpt lat="49.59686" lon="-1.26567"><ele>3.06</ele></trkpt><trkpt lat="49.5969" lon="-1.26564"><ele>2.87</ele></trkpt><trkpt lat="49.59693" lon="-1.26561"><ele>2.87</ele></trkpt><trkpt lat="49.59695" lon="-1.26558"><ele>2.87</ele></trkpt><trkpt lat="49.59697" lon="-1.26555"><ele>2.95</ele></trkpt><trkpt lat="49.59693" lon="-1.26545"><ele>2.97</ele></trkpt><trkpt lat="49.5977" lon="-1.26482"><ele>2.53</ele></trkpt><trkpt lat="49.59773" lon="-1.2648"><ele>2.32</ele></trkpt><trkpt lat="49.59799" lon="-1.26458"><ele>2.58</ele></trkpt><trkpt lat="49.59868" lon="-1.26397"><ele>2.78</ele></trkpt><trkpt lat="49.5989" lon="-1.26374"><ele>3.05</ele></trkpt><trkpt lat="49.59888" lon="-1.26368"><ele>3.19</ele></trkpt><trkpt lat="49.59887" lon="-1.26363"><ele>3.25</ele></trkpt><trkpt lat="49.59886" lon="-1.26356"><ele>3.27</ele></trkpt><trkpt lat="49.59903" lon="-1.26339"><ele>2.81</ele></trkpt><trkpt lat="49.59922" lon="-1.26325"><ele>2.83</ele></trkpt><trkpt lat="49.59931" lon="-1.26322"><ele>2.68</ele></trkpt><trkpt lat="49.59938" lon="-1.26322"><ele>2.62</ele></trkpt><trkpt lat="49.59941" lon="-1.26322"><ele>2.58</ele></trkpt><trkpt lat="49.59987" lon="-1.26323"><ele>2.47</ele></trkpt><trkpt lat="49.6" lon="-1.26323"><ele>2.54</ele></trkpt><trkpt lat="49.60012" lon="-1.26321"><ele>2.67</ele></trkpt><trkpt lat="49.6002" lon="-1.26317"><ele>2.82</ele></trkpt><trkpt lat="49.60029" lon="-1.2631"><ele>2.89</ele></trkpt><trkpt lat="49.60062" lon="-1.26285"><ele>2.98</ele></trkpt><trkpt lat="49.6008" lon="-1.26272"><ele>3.05</ele></trkpt><trkpt lat="49.60092" lon="-1.26263"><ele>2.8</ele></trkpt><trkpt lat="49.60119" lon="-1.26237"><ele>2.56</ele></trkpt><trkpt lat="49.60139" lon="-1.26223"><ele>2.5</ele></trkpt><trkpt lat="49.60153" lon="-1.26214"><ele>3.04</ele></trkpt><trkpt lat="49.60157" lon="-1.26222"><ele>2.88</ele></trkpt><trkpt lat="49.6019" lon="-1.26223"><ele>2.64</ele></trkpt><trkpt lat="49.60203" lon="-1.26221"><ele>3.06</ele></trkpt><trkpt lat="49.6021" lon="-1.26212"><ele>3.97</ele></trkpt><trkpt lat="49.60209" lon="-1.26199"><ele>5.19</ele></trkpt><trkpt lat="49.60203" lon="-1.26183"><ele>5.42</ele></trkpt><trkpt lat="49.60199" lon="-1.26169"><ele>5.58</ele></trkpt><trkpt lat="49.60199" lon="-1.26165"><ele>5.57</ele></trkpt><trkpt lat="49.60199" lon="-1.26163"><ele>5.57</ele></trkpt><trkpt lat="49.60205" lon="-1.26147"><ele>5.73</ele></trkpt><trkpt lat="49.60222" lon="-1.26119"><ele>5.36</ele></trkpt><trkpt lat="49.60236" lon="-1.2608"><ele>4.7</ele></trkpt><trkpt lat="49.6024" lon="-1.26058"><ele>4.01</ele></trkpt><trkpt lat="49.60241" lon="-1.26056"><ele>4.01</ele></trkpt><trkpt lat="49.60238" lon="-1.26035"><ele>3.93</ele></trkpt><trkpt lat="49.60146" lon="-1.2609"><ele>3.47</ele></trkpt><trkpt lat="49.60138" lon="-1.26067"><ele>1.98</ele></trkpt><trkpt lat="49.60036" lon="-1.26156"><ele>3.03</ele></trkpt><trkpt lat="49.59938" lon="-1.26252"><ele>4.82</ele></trkpt><trkpt lat="49.59856" lon="-1.26302"><ele>4.61</ele></trkpt><trkpt lat="49.59753" lon="-1.26366"><ele>4.64</ele></trkpt><trkpt lat="49.59634" lon="-1.26436"><ele>2.2</ele></trkpt><trkpt lat="49.59524" lon="-1.26508"><ele>4.25</ele></trkpt><trkpt lat="49.59452" lon="-1.26546"><ele>2.29</ele></trkpt><trkpt lat="49.59371" lon="-1.26602"><ele>4.88</ele></trkpt><trkpt lat="49.59333" lon="-1.26626"><ele>4.36</ele></trkpt><trkpt lat="49.59269" lon="-1.26668"><ele>5.72</ele></trkpt><trkpt lat="49.59228" lon="-1.26658"><ele>5.19</ele></trkpt><trkpt lat="49.5913" lon="-1.26649"><ele>5.35</ele></trkpt><trkpt lat="49.59074" lon="-1.26635"><ele>4.84</ele></trkpt><trkpt lat="49.59017" lon="-1.26631"><ele>5.23</ele></trkpt><trkpt lat="49.59014" lon="-1.26647"><ele>4.66</ele></trkpt><trkpt lat="49.58996" lon="-1.26642"><ele>4.4</ele></trkpt><trkpt lat="49.58996" lon="-1.26643"><ele>4.4</ele></trkpt><trkpt lat="49.58994" lon="-1.26642"><ele>4.4</ele></trkpt><trkpt lat="49.5899" lon="-1.26639"><ele>4.42</ele></trkpt><trkpt lat="49.58985" lon="-1.26635"><ele>4.45</ele></trkpt><trkpt lat="49.58981" lon="-1.2663"><ele>4.47</ele></trkpt><trkpt lat="49.58979" lon="-1.26628"><ele>4.53</ele></trkpt><trkpt lat="49.58977" lon="-1.26626"><ele>4.5</ele></trkpt><trkpt lat="49.58972" lon="-1.26622"><ele>4.53</ele></trkpt><trkpt lat="49.58967" lon="-1.2662"><ele>4.55</ele></trkpt><trkpt lat="49.58966" lon="-1.26619"><ele>4.6</ele></trkpt><trkpt lat="49.58963" lon="-1.26619"><ele>4.6</ele></trkpt><trkpt lat="49.58962" lon="-1.26619"><ele>4.63</ele></trkpt><trkpt lat="49.58956" lon="-1.26621"><ele>4.66</ele></trkpt><trkpt lat="49.58951" lon="-1.26623"><ele>4.69</ele></trkpt><trkpt lat="49.5895" lon="-1.26623"><ele>4.69</ele></trkpt><trkpt lat="49.58943" lon="-1.26625"><ele>4.67</ele></trkpt><trkpt lat="49.58936" lon="-1.26625"><ele>4.69</ele></trkpt><trkpt lat="49.58929" lon="-1.26623"><ele>4.63</ele></trkpt><trkpt lat="49.58922" lon="-1.26621"><ele>4.59</ele></trkpt><trkpt lat="49.58917" lon="-1.26619"><ele>4.56</ele></trkpt><trkpt lat="49.58915" lon="-1.26619"><ele>4.54</ele></trkpt><trkpt lat="49.58908" lon="-1.26618"><ele>4.49</ele></trkpt><trkpt lat="49.589" lon="-1.26617"><ele>4.46</ele></trkpt><trkpt lat="49.58894" lon="-1.26617"><ele>4.45</ele></trkpt><trkpt lat="49.58893" lon="-1.26617"><ele>4.42</ele></trkpt><trkpt lat="49.58885" lon="-1.26617"><ele>4.35</ele></trkpt><trkpt lat="49.58878" lon="-1.26619"><ele>4.33</ele></trkpt><trkpt lat="49.58871" lon="-1.2662"><ele>4.3</ele></trkpt><trkpt lat="49.5887" lon="-1.2662"><ele>4.3</ele></trkpt><trkpt lat="49.58865" lon="-1.2662"><ele>4.28</ele></trkpt><trkpt lat="49.58858" lon="-1.26619"><ele>4.28</ele></trkpt><trkpt lat="49.58852" lon="-1.26616"><ele>4.31</ele></trkpt><trkpt lat="49.58847" lon="-1.26612"><ele>4.35</ele></trkpt><trkpt lat="49.58841" lon="-1.26607"><ele>4.45</ele></trkpt><trkpt lat="49.58836" lon="-1.26601"><ele>4.53</ele></trkpt><trkpt lat="49.58831" lon="-1.26594"><ele>4.65</ele></trkpt><trkpt lat="49.58825" lon="-1.26588"><ele>4.68</ele></trkpt><trkpt lat="49.58819" lon="-1.26582"><ele>4.78</ele></trkpt><trkpt lat="49.58813" lon="-1.26575"><ele>4.8</ele></trkpt><trkpt lat="49.58806" lon="-1.2657"><ele>4.88</ele></trkpt><trkpt lat="49.58799" lon="-1.26564"><ele>4.91</ele></trkpt><trkpt lat="49.58792" lon="-1.26559"><ele>4.88</ele></trkpt><trkpt lat="49.58778" lon="-1.26548"><ele>4.87</ele></trkpt><trkpt lat="49.58768" lon="-1.26541"><ele>4.97</ele></trkpt><trkpt lat="49.58719" lon="-1.26505"><ele>4.92</ele></trkpt><trkpt lat="49.58703" lon="-1.26493"><ele>4.91</ele></trkpt><trkpt lat="49.587" lon="-1.26491"><ele>4.89</ele></trkpt><trkpt lat="49.58679" lon="-1.26475"><ele>4.84</ele></trkpt><trkpt lat="49.58647" lon="-1.26452"><ele>4.89</ele></trkpt><trkpt lat="49.58639" lon="-1.26446"><ele>4.95</ele></trkpt><trkpt lat="49.58637" lon="-1.26434"><ele>4.74</ele></trkpt><trkpt lat="49.58625" lon="-1.26401"><ele>4.7</ele></trkpt></trkseg></trk></gpx>
