<?xml version="1.0" encoding="UTF-8" standalone="no"?>
<gpx xmlns="http://www.topografix.com/GPX/1/1" version="1.1" xmlns:xsi="http://www.w3.org/2001/XMLSchema-instance" xsi:schemaLocation="http://www.topografix.com/GPX/1/1 http://www.topografix.com/GPX/1/1/gpx.xsd" creator="Cirkwi"><metadata><name><![CDATA[Sentier du contrebandier - n°105]]></name><desc><![CDATA[Laissez-vous envoûter par le charme de Jobourg. Parcourez les chemins qui dominent la mer, et visitez au passage, les hameaux de pierre, très typiques de la Pointe de la Hague. Attention..., si le vent souffle, tendez l’oreille, avec un peu de chance, vous entendrez peut-être le rire d’un goubelin, caché au creux des buissons... Partez du parking du nez de Jobourg vers l'auberge des Grottes et dirigez-vous sur le sentier du littoral vers le sud-est (à gauche de la table d'orientation) - (Jobourg, La Hague). Coordonnées GPS : 49°40'38.9"N, 1°56'18.1"W Suivez le circuit selon le sens inverse des aiguilles d'une montre. Le balisage est de couleur jaune. Le long du littoral, suivez le balisage du GR223. Vous retrouverez ce circuit dans le topoguide "La Hague - Des Pieux et autour de Martinvast "de l'Office de tourisme du Cotentin.   La moitié du parcours est sur des falaises, soyez vigilants.  Départ accessible en bus avec le réseau Cap Cotentin les week-ends et pendant les vacances scolaires aux arrêts "Jobourg - nez de Jobourg" et "Audreville - Ecalgrain" (possibilité de rejoindre le circuit en cours) - (plus d'infos sur capcotentin.fr)]]></desc><author><name><![CDATA[Cotentin unique]]></name></author><link href="http://fichier0.cirkwi.com/image/photo/circuit/1300x1300/60171/fr/0.jpg"><text><![CDATA[|]]></text></link><link href="http://fichier0.cirkwi.com/image/photo/circuit/1300x1300/60171/fr/1.jpg"><text><![CDATA[|Aymeric PICOT]]></text></link><link href="http://fichier0.cirkwi.com/image/photo/circuit/1300x1300/60171/fr/2.jpg"><text><![CDATA[|Aymeric PIOT]]></text></link><link href="http://fichier0.cirkwi.com/image/photo/circuit/1300x1300/60171/fr/3.jpg"><text><![CDATA[|Aymeric PICOT]]></text></link><link href="http://fichier0.cirkwi.com/image/photo/circuit/1300x1300/60171/fr/4.jpg"><text><![CDATA[|Aymeric PICOT]]></text></link><link href="http://fichier0.cirkwi.com/image/photo/circuit/1300x1300/60171/fr/5.jpg"><text><![CDATA[|Aymeric PICOT]]></text></link><time>2026-09-08T13:18:44Z</time></metadata><trk><trkseg><trkpt lat="49.67536" lon="-1.94578"><ele>71.27</ele></trkpt><trkpt lat="49.67599" lon="-1.94497"><ele>106.21</ele></trkpt><trkpt lat="49.67638" lon="-1.94484"><ele>111.36</ele></trkpt><trkpt lat="49.67661" lon="-1.94454"><ele>113.62</ele></trkpt><trkpt lat="49.67679" lon="-1.94454"><ele>111.67</ele></trkpt><trkpt lat="49.67693" lon="-1.94432"><ele>110.57</ele></trkpt><trkpt lat="49.67742" lon="-1.94391"><ele>110.86</ele></trkpt><trkpt lat="49.67803" lon="-1.94357"><ele>109.56</ele></trkpt><trkpt lat="49.67876" lon="-1.94297"><ele>103.87</ele></trkpt><trkpt lat="49.67951" lon="-1.94233"><ele>100.35</ele></trkpt><trkpt lat="49.67975" lon="-1.94138"><ele>103.02</ele></trkpt><trkpt lat="49.68021" lon="-1.94059"><ele>98.51</ele></trkpt><trkpt lat="49.68069" lon="-1.94018"><ele>92.61</ele></trkpt><trkpt lat="49.68143" lon="-1.93924"><ele>76.88</ele></trkpt><trkpt lat="49.68161" lon="-1.93868"><ele>67</ele></trkpt><trkpt lat="49.68217" lon="-1.93857"><ele>60.32</ele></trkpt><trkpt lat="49.68249" lon="-1.93823"><ele>52.52</ele></trkpt><trkpt lat="49.68296" lon="-1.93776"><ele>48.54</ele></trkpt><trkpt lat="49.68353" lon="-1.93827"><ele>34.02</ele></trkpt><trkpt lat="49.68386" lon="-1.93819"><ele>29.07</ele></trkpt><trkpt lat="49.68443" lon="-1.93789"><ele>22.21</ele></trkpt><trkpt lat="49.68496" lon="-1.93823"><ele>20.22</ele></trkpt><trkpt lat="49.68508" lon="-1.93819"><ele>17.62</ele></trkpt><trkpt lat="49.68557" lon="-1.93812"><ele>19.41</ele></trkpt><trkpt lat="49.6859" lon="-1.93784"><ele>20.22</ele></trkpt><trkpt lat="49.68628" lon="-1.93692"><ele>31.84</ele></trkpt><trkpt lat="49.68673" lon="-1.93617"><ele>39.48</ele></trkpt><trkpt lat="49.68597" lon="-1.93632"><ele>49.89</ele></trkpt><trkpt lat="49.68537" lon="-1.93681"><ele>55.05</ele></trkpt><trkpt lat="49.68535" lon="-1.93632"><ele>62.64</ele></trkpt><trkpt lat="49.68515" lon="-1.9358"><ele>69.69</ele></trkpt><trkpt lat="49.68472" lon="-1.93486"><ele>85.34</ele></trkpt><trkpt lat="49.68465" lon="-1.9343"><ele>92.33</ele></trkpt><trkpt lat="49.6844" lon="-1.9337"><ele>97.11</ele></trkpt><trkpt lat="49.68382" lon="-1.93211"><ele>101.13</ele></trkpt><trkpt lat="49.68383" lon="-1.93076"><ele>111.47</ele></trkpt><trkpt lat="49.68396" lon="-1.93016"><ele>114.2</ele></trkpt><trkpt lat="49.68426" lon="-1.92982"><ele>115.84</ele></trkpt><trkpt lat="49.68425" lon="-1.92832"><ele>115</ele></trkpt><trkpt lat="49.68387" lon="-1.9269"><ele>114.89</ele></trkpt><trkpt lat="49.68337" lon="-1.92615"><ele>115.35</ele></trkpt><trkpt lat="49.6828" lon="-1.92533"><ele>114.69</ele></trkpt><trkpt lat="49.68172" lon="-1.92426"><ele>114.94</ele></trkpt><trkpt lat="49.68081" lon="-1.92422"><ele>116.58</ele></trkpt><trkpt lat="49.68067" lon="-1.9248"><ele>117.47</ele></trkpt><trkpt lat="49.68003" lon="-1.92516"><ele>117.17</ele></trkpt><trkpt lat="49.67925" lon="-1.92465"><ele>117.89</ele></trkpt><trkpt lat="49.67924" lon="-1.92466"><ele>117.89</ele></trkpt><trkpt lat="49.67922" lon="-1.92462"><ele>117.7</ele></trkpt><trkpt lat="49.67918" lon="-1.92457"><ele>117.72</ele></trkpt><trkpt lat="49.6791" lon="-1.92441"><ele>117.45</ele></trkpt><trkpt lat="49.67886" lon="-1.92398"><ele>114.94</ele></trkpt><trkpt lat="49.67864" lon="-1.92354"><ele>113.59</ele></trkpt><trkpt lat="49.67852" lon="-1.92327"><ele>113.21</ele></trkpt><trkpt lat="49.67848" lon="-1.9232"><ele>113.39</ele></trkpt><trkpt lat="49.67846" lon="-1.92316"><ele>113.51</ele></trkpt><trkpt lat="49.67836" lon="-1.923"><ele>113.44</ele></trkpt><trkpt lat="49.67832" lon="-1.92293"><ele>113.34</ele></trkpt><trkpt lat="49.67824" lon="-1.92279"><ele>113.99</ele></trkpt><trkpt lat="49.67814" lon="-1.92257"><ele>115.97</ele></trkpt><trkpt lat="49.67809" lon="-1.92249"><ele>115.21</ele></trkpt><trkpt lat="49.67792" lon="-1.92214"><ele>115.86</ele></trkpt><trkpt lat="49.67788" lon="-1.92204"><ele>116.34</ele></trkpt><trkpt lat="49.67785" lon="-1.92208"><ele>116.63</ele></trkpt><trkpt lat="49.67783" lon="-1.92212"><ele>116.74</ele></trkpt><trkpt lat="49.67785" lon="-1.92213"><ele>116.74</ele></trkpt><trkpt lat="49.67787" lon="-1.92207"><ele>116.4</ele></trkpt><trkpt lat="49.67791" lon="-1.92202"><ele>116.09</ele></trkpt><trkpt lat="49.6779" lon="-1.92195"><ele>116.3</ele></trkpt><trkpt lat="49.67791" lon="-1.92187"><ele>116.19</ele></trkpt><trkpt lat="49.67793" lon="-1.92154"><ele>117.37</ele></trkpt><trkpt lat="49.67792" lon="-1.9214"><ele>117.97</ele></trkpt><trkpt lat="49.67792" lon="-1.92132"><ele>118.12</ele></trkpt><trkpt lat="49.67789" lon="-1.92108"><ele>119.15</ele></trkpt><trkpt lat="49.67786" lon="-1.92059"><ele>121.62</ele></trkpt><trkpt lat="49.67785" lon="-1.92041"><ele>123.62</ele></trkpt><trkpt lat="49.67786" lon="-1.92035"><ele>123.58</ele></trkpt><trkpt lat="49.67787" lon="-1.91995"><ele>124.92</ele></trkpt><trkpt lat="49.67786" lon="-1.91976"><ele>124.8</ele></trkpt><trkpt lat="49.67785" lon="-1.91967"><ele>124.97</ele></trkpt><trkpt lat="49.67785" lon="-1.91952"><ele>124.69</ele></trkpt><trkpt lat="49.67784" lon="-1.91929"><ele>124.18</ele></trkpt><trkpt lat="49.67782" lon="-1.91891"><ele>122.47</ele></trkpt><trkpt lat="49.67783" lon="-1.9188"><ele>122.17</ele></trkpt><trkpt lat="49.67777" lon="-1.91875"><ele>122.63</ele></trkpt><trkpt lat="49.67776" lon="-1.91874"><ele>122.62</ele></trkpt><trkpt lat="49.67775" lon="-1.91877"><ele>122.63</ele></trkpt><trkpt lat="49.67677" lon="-1.91847"><ele>124.82</ele></trkpt><trkpt lat="49.6767" lon="-1.9178"><ele>125.24</ele></trkpt><trkpt lat="49.67592" lon="-1.91688"><ele>128.24</ele></trkpt><trkpt lat="49.67575" lon="-1.91514"><ele>131.41</ele></trkpt><trkpt lat="49.67547" lon="-1.91353"><ele>136.47</ele></trkpt><trkpt lat="49.6752" lon="-1.91181"><ele>138.57</ele></trkpt><trkpt lat="49.67468" lon="-1.9119"><ele>137.01</ele></trkpt><trkpt lat="49.67343" lon="-1.91276"><ele>138.08</ele></trkpt><trkpt lat="49.67324" lon="-1.91248"><ele>137.69</ele></trkpt><trkpt lat="49.67196" lon="-1.91385"><ele>132.38</ele></trkpt><trkpt lat="49.67125" lon="-1.91196"><ele>133.13</ele></trkpt><trkpt lat="49.67092" lon="-1.911"><ele>132.18</ele></trkpt><trkpt lat="49.67124" lon="-1.91096"><ele>133.59</ele></trkpt><trkpt lat="49.67231" lon="-1.91061"><ele>139.03</ele></trkpt><trkpt lat="49.67285" lon="-1.91023"><ele>136.6</ele></trkpt><trkpt lat="49.67247" lon="-1.90924"><ele>135.32</ele></trkpt><trkpt lat="49.67265" lon="-1.9083"><ele>138.61</ele></trkpt><trkpt lat="49.67238" lon="-1.90722"><ele>140.51</ele></trkpt><trkpt lat="49.67188" lon="-1.90578"><ele>139.15</ele></trkpt><trkpt lat="49.67107" lon="-1.90415"><ele>131.53</ele></trkpt><trkpt lat="49.67102" lon="-1.90334"><ele>126.26</ele></trkpt><trkpt lat="49.67092" lon="-1.90291"><ele>122.66</ele></trkpt><trkpt lat="49.67035" lon="-1.90203"><ele>110.27</ele></trkpt><trkpt lat="49.66954" lon="-1.90143"><ele>100.95</ele></trkpt><trkpt lat="49.66924" lon="-1.9007"><ele>92.86</ele></trkpt><trkpt lat="49.66874" lon="-1.89926"><ele>79.43</ele></trkpt><trkpt lat="49.66822" lon="-1.89892"><ele>76.25</ele></trkpt><trkpt lat="49.66723" lon="-1.89892"><ele>69.48</ele></trkpt><trkpt lat="49.66704" lon="-1.89995"><ele>62.06</ele></trkpt><trkpt lat="49.66668" lon="-1.90048"><ele>53.62</ele></trkpt><trkpt lat="49.66702" lon="-1.90128"><ele>61.78</ele></trkpt><trkpt lat="49.66696" lon="-1.90192"><ele>72.23</ele></trkpt><trkpt lat="49.66729" lon="-1.90269"><ele>87.4</ele></trkpt><trkpt lat="49.66753" lon="-1.90351"><ele>92.41</ele></trkpt><trkpt lat="49.66798" lon="-1.90415"><ele>89.7</ele></trkpt><trkpt lat="49.66779" lon="-1.90501"><ele>70.26</ele></trkpt><trkpt lat="49.66799" lon="-1.90572"><ele>66.06</ele></trkpt><trkpt lat="49.66752" lon="-1.90587"><ele>68.89</ele></trkpt><trkpt lat="49.66741" lon="-1.90707"><ele>76.36</ele></trkpt><trkpt lat="49.6672" lon="-1.90784"><ele>84.14</ele></trkpt><trkpt lat="49.66724" lon="-1.90851"><ele>86.68</ele></trkpt><trkpt lat="49.6671" lon="-1.90926"><ele>96.08</ele></trkpt><trkpt lat="49.66698" lon="-1.91005"><ele>105.89</ele></trkpt><trkpt lat="49.66692" lon="-1.91128"><ele>115.11</ele></trkpt><trkpt lat="49.66663" lon="-1.9125"><ele>115.11</ele></trkpt><trkpt lat="49.66684" lon="-1.91362"><ele>110.73</ele></trkpt><trkpt lat="49.6671" lon="-1.91473"><ele>107.06</ele></trkpt><trkpt lat="49.66732" lon="-1.91527"><ele>105.37</ele></trkpt><trkpt lat="49.66754" lon="-1.916"><ele>98.51</ele></trkpt><trkpt lat="49.66749" lon="-1.91675"><ele>92.85</ele></trkpt><trkpt lat="49.66753" lon="-1.91754"><ele>94.8</ele></trkpt><trkpt lat="49.66771" lon="-1.91821"><ele>84.46</ele></trkpt><trkpt lat="49.66771" lon="-1.91913"><ele>79.58</ele></trkpt><trkpt lat="49.66796" lon="-1.92001"><ele>74.93</ele></trkpt><trkpt lat="49.66836" lon="-1.92072"><ele>66.88</ele></trkpt><trkpt lat="49.66824" lon="-1.92117"><ele>62.87</ele></trkpt><trkpt lat="49.6677" lon="-1.92138"><ele>58.53</ele></trkpt><trkpt lat="49.66786" lon="-1.92175"><ele>54.89</ele></trkpt><trkpt lat="49.66822" lon="-1.92233"><ele>49.19</ele></trkpt><trkpt lat="49.6687" lon="-1.92308"><ele>46.05</ele></trkpt><trkpt lat="49.66897" lon="-1.92353"><ele>45.21</ele></trkpt><trkpt lat="49.66906" lon="-1.92441"><ele>35.13</ele></trkpt><trkpt lat="49.66935" lon="-1.92488"><ele>30.21</ele></trkpt><trkpt lat="49.66936" lon="-1.92531"><ele>30.62</ele></trkpt><trkpt lat="49.66986" lon="-1.92565"><ele>55.56</ele></trkpt><trkpt lat="49.66975" lon="-1.92649"><ele>61.72</ele></trkpt><trkpt lat="49.66966" lon="-1.92795"><ele>59.76</ele></trkpt><trkpt lat="49.66999" lon="-1.92716"><ele>73.47</ele></trkpt><trkpt lat="49.67046" lon="-1.92686"><ele>87.9</ele></trkpt><trkpt lat="49.67163" lon="-1.92739"><ele>90.09</ele></trkpt><trkpt lat="49.67256" lon="-1.92832"><ele>80.37</ele></trkpt><trkpt lat="49.67275" lon="-1.92922"><ele>73.96</ele></trkpt><trkpt lat="49.673" lon="-1.93031"><ele>69.07</ele></trkpt><trkpt lat="49.67342" lon="-1.93134"><ele>64.48</ele></trkpt><trkpt lat="49.67353" lon="-1.93218"><ele>77.6</ele></trkpt><trkpt lat="49.67359" lon="-1.93312"><ele>92.69</ele></trkpt><trkpt lat="49.67347" lon="-1.9343"><ele>96.46</ele></trkpt><trkpt lat="49.67329" lon="-1.93542"><ele>102.06</ele></trkpt><trkpt lat="49.67386" lon="-1.93649"><ele>104.89</ele></trkpt><trkpt lat="49.67377" lon="-1.93718"><ele>102.34</ele></trkpt><trkpt lat="49.67404" lon="-1.93829"><ele>101.64</ele></trkpt><trkpt lat="49.67488" lon="-1.93866"><ele>100.42</ele></trkpt><trkpt lat="49.67535" lon="-1.93964"><ele>87.9</ele></trkpt><trkpt lat="49.67552" lon="-1.94059"><ele>66.08</ele></trkpt><trkpt lat="49.67572" lon="-1.94128"><ele>81.08</ele></trkpt><trkpt lat="49.67583" lon="-1.94278"><ele>93.45</ele></trkpt><trkpt lat="49.67578" lon="-1.94398"><ele>92.7</ele></trkpt><trkpt lat="49.67536" lon="-1.94578"><ele>71.27</ele></trkpt></trkseg></trk></gpx>
