<?xml version="1.0" encoding="UTF-8" standalone="no"?>
<gpx xmlns="http://www.topografix.com/GPX/1/1" version="1.1" xmlns:xsi="http://www.w3.org/2001/XMLSchema-instance" xsi:schemaLocation="http://www.topografix.com/GPX/1/1 http://www.topografix.com/GPX/1/1/gpx.xsd" creator="Cirkwi"><metadata><name><![CDATA[Au fil de la Couplière]]></name><desc><![CDATA[Cette balade est notre coup de cœur nature, entre chemins creux et le village pittoresque où a grandi l'écrivain, philosophe et homme politique Alexis de Tocqueville. Partez du parking de l'église. Contournez-la puis traversez le ruisseau et suivez le passage de la Couplière avant de traverser la RD901 (Tocqueville). Coordonnées GPS : 49°40'13.753"N, 1°20'11.684"W Suivez le circuit selon le sens inverse des aiguilles d'une montre. Le balisage est de couleur jaune. Vous retrouverez ce circuit dans les topoguides "Val-de-Saire - de Bretteville à Gatteville-Phare " et "Hors des Sentiers Battus" de l'Office de tourisme du Cotentin.   Départ accessible avec le réseau de bus Cap Cotentin à l'arrêt "Tocqueville - Place de l'Eglise" (plus d'infos sur capcotentin.fr)]]></desc><author><name><![CDATA[Cotentin unique]]></name></author><link href="http://fichier0.cirkwi.com/image/photo/circuit/1300x1300/142240/fr/0.jpg"><text><![CDATA[|]]></text></link><time>2026-08-06T14:17:49Z</time></metadata><trk><trkseg><trkpt lat="49.6705" lon="-1.33549"><ele>34.65</ele></trkpt><trkpt lat="49.6705" lon="-1.33559"><ele>34.32</ele></trkpt><trkpt lat="49.67028" lon="-1.33646"><ele>34.6</ele></trkpt><trkpt lat="49.67027" lon="-1.33668"><ele>34.68</ele></trkpt><trkpt lat="49.67027" lon="-1.33685"><ele>32.6</ele></trkpt><trkpt lat="49.67038" lon="-1.33709"><ele>30.25</ele></trkpt><trkpt lat="49.67053" lon="-1.33715"><ele>27.94</ele></trkpt><trkpt lat="49.67086" lon="-1.33767"><ele>29.85</ele></trkpt><trkpt lat="49.67111" lon="-1.33754"><ele>28.75</ele></trkpt><trkpt lat="49.67126" lon="-1.3374"><ele>28.32</ele></trkpt><trkpt lat="49.67131" lon="-1.3374"><ele>28.25</ele></trkpt><trkpt lat="49.6714" lon="-1.33741"><ele>28.06</ele></trkpt><trkpt lat="49.67152" lon="-1.33739"><ele>28.15</ele></trkpt><trkpt lat="49.67159" lon="-1.33738"><ele>28.23</ele></trkpt><trkpt lat="49.6717" lon="-1.33738"><ele>28.54</ele></trkpt><trkpt lat="49.6718" lon="-1.33736"><ele>28.69</ele></trkpt><trkpt lat="49.67192" lon="-1.33736"><ele>28.48</ele></trkpt><trkpt lat="49.67212" lon="-1.33732"><ele>28.07</ele></trkpt><trkpt lat="49.6723" lon="-1.33723"><ele>29.42</ele></trkpt><trkpt lat="49.67244" lon="-1.33723"><ele>28.56</ele></trkpt><trkpt lat="49.67255" lon="-1.33719"><ele>28.01</ele></trkpt><trkpt lat="49.67272" lon="-1.3372"><ele>27.18</ele></trkpt><trkpt lat="49.67285" lon="-1.33724"><ele>26.73</ele></trkpt><trkpt lat="49.67295" lon="-1.33726"><ele>26.34</ele></trkpt><trkpt lat="49.67304" lon="-1.33728"><ele>25.19</ele></trkpt><trkpt lat="49.67315" lon="-1.33729"><ele>25.13</ele></trkpt><trkpt lat="49.67325" lon="-1.33728"><ele>25.24</ele></trkpt><trkpt lat="49.67331" lon="-1.33732"><ele>25.8</ele></trkpt><trkpt lat="49.67337" lon="-1.33745"><ele>27.25</ele></trkpt><trkpt lat="49.67347" lon="-1.33744"><ele>28.02</ele></trkpt><trkpt lat="49.67356" lon="-1.33743"><ele>28.62</ele></trkpt><trkpt lat="49.67367" lon="-1.33741"><ele>29.16</ele></trkpt><trkpt lat="49.67376" lon="-1.33748"><ele>29.2</ele></trkpt><trkpt lat="49.67383" lon="-1.33765"><ele>30.06</ele></trkpt><trkpt lat="49.67389" lon="-1.33783"><ele>30.81</ele></trkpt><trkpt lat="49.67393" lon="-1.33802"><ele>31.94</ele></trkpt><trkpt lat="49.67398" lon="-1.33819"><ele>31.92</ele></trkpt><trkpt lat="49.67403" lon="-1.33835"><ele>31.98</ele></trkpt><trkpt lat="49.67326" lon="-1.34024"><ele>36.12</ele></trkpt><trkpt lat="49.67218" lon="-1.34235"><ele>41.91</ele></trkpt><trkpt lat="49.67217" lon="-1.34344"><ele>41.22</ele></trkpt><trkpt lat="49.67276" lon="-1.34468"><ele>44.36</ele></trkpt><trkpt lat="49.67295" lon="-1.34517"><ele>44.63</ele></trkpt><trkpt lat="49.67299" lon="-1.34532"><ele>45.05</ele></trkpt><trkpt lat="49.67306" lon="-1.34561"><ele>45.74</ele></trkpt><trkpt lat="49.67304" lon="-1.34571"><ele>46.18</ele></trkpt><trkpt lat="49.67303" lon="-1.34587"><ele>47.25</ele></trkpt><trkpt lat="49.673" lon="-1.34598"><ele>47.92</ele></trkpt><trkpt lat="49.67299" lon="-1.34608"><ele>48.07</ele></trkpt><trkpt lat="49.67295" lon="-1.34645"><ele>50.07</ele></trkpt><trkpt lat="49.67293" lon="-1.34664"><ele>51.33</ele></trkpt><trkpt lat="49.67291" lon="-1.34679"><ele>51.81</ele></trkpt><trkpt lat="49.67292" lon="-1.34691"><ele>52.54</ele></trkpt><trkpt lat="49.67294" lon="-1.34722"><ele>53.66</ele></trkpt><trkpt lat="49.67298" lon="-1.34737"><ele>54.12</ele></trkpt><trkpt lat="49.67302" lon="-1.34751"><ele>54.46</ele></trkpt><trkpt lat="49.67304" lon="-1.34762"><ele>54.7</ele></trkpt><trkpt lat="49.67307" lon="-1.34775"><ele>55.14</ele></trkpt><trkpt lat="49.67315" lon="-1.34803"><ele>57.07</ele></trkpt><trkpt lat="49.6732" lon="-1.34815"><ele>58.13</ele></trkpt><trkpt lat="49.67326" lon="-1.34828"><ele>58.29</ele></trkpt><trkpt lat="49.67332" lon="-1.34842"><ele>58.64</ele></trkpt><trkpt lat="49.67336" lon="-1.34859"><ele>59.02</ele></trkpt><trkpt lat="49.67339" lon="-1.34875"><ele>59.54</ele></trkpt><trkpt lat="49.67343" lon="-1.3489"><ele>59.89</ele></trkpt><trkpt lat="49.67347" lon="-1.34906"><ele>61.25</ele></trkpt><trkpt lat="49.6735" lon="-1.34921"><ele>62.82</ele></trkpt><trkpt lat="49.67353" lon="-1.34935"><ele>63.59</ele></trkpt><trkpt lat="49.67357" lon="-1.34948"><ele>63.96</ele></trkpt><trkpt lat="49.67365" lon="-1.34976"><ele>64.08</ele></trkpt><trkpt lat="49.6737" lon="-1.3499"><ele>63.66</ele></trkpt><trkpt lat="49.67374" lon="-1.35006"><ele>63.86</ele></trkpt><trkpt lat="49.6738" lon="-1.35038"><ele>65.33</ele></trkpt><trkpt lat="49.67382" lon="-1.35053"><ele>65.29</ele></trkpt><trkpt lat="49.67382" lon="-1.35068"><ele>65.16</ele></trkpt><trkpt lat="49.67383" lon="-1.35084"><ele>65.31</ele></trkpt><trkpt lat="49.67386" lon="-1.35099"><ele>65.38</ele></trkpt><trkpt lat="49.67387" lon="-1.35116"><ele>65.76</ele></trkpt><trkpt lat="49.67389" lon="-1.35132"><ele>65.63</ele></trkpt><trkpt lat="49.67389" lon="-1.35149"><ele>65.92</ele></trkpt><trkpt lat="49.6739" lon="-1.35167"><ele>66.24</ele></trkpt><trkpt lat="49.6739" lon="-1.35182"><ele>66.32</ele></trkpt><trkpt lat="49.67389" lon="-1.35198"><ele>66.12</ele></trkpt><trkpt lat="49.67387" lon="-1.35206"><ele>66.21</ele></trkpt><trkpt lat="49.67389" lon="-1.35219"><ele>65.88</ele></trkpt><trkpt lat="49.67388" lon="-1.35233"><ele>65.46</ele></trkpt><trkpt lat="49.67389" lon="-1.35249"><ele>65.27</ele></trkpt><trkpt lat="49.6739" lon="-1.35264"><ele>65.42</ele></trkpt><trkpt lat="49.67394" lon="-1.35278"><ele>65.09</ele></trkpt><trkpt lat="49.67397" lon="-1.35293"><ele>64.8</ele></trkpt><trkpt lat="49.67401" lon="-1.35306"><ele>64.4</ele></trkpt><trkpt lat="49.67408" lon="-1.35316"><ele>64.3</ele></trkpt><trkpt lat="49.67414" lon="-1.3533"><ele>63.89</ele></trkpt><trkpt lat="49.67417" lon="-1.35348"><ele>63.5</ele></trkpt><trkpt lat="49.67421" lon="-1.35365"><ele>63.1</ele></trkpt><trkpt lat="49.67427" lon="-1.35382"><ele>62.7</ele></trkpt><trkpt lat="49.67431" lon="-1.35398"><ele>62.3</ele></trkpt><trkpt lat="49.67433" lon="-1.35414"><ele>62.06</ele></trkpt><trkpt lat="49.67435" lon="-1.35433"><ele>61.5</ele></trkpt><trkpt lat="49.67436" lon="-1.35451"><ele>61.18</ele></trkpt><trkpt lat="49.67435" lon="-1.35468"><ele>60.94</ele></trkpt><trkpt lat="49.67431" lon="-1.35483"><ele>60.95</ele></trkpt><trkpt lat="49.67426" lon="-1.35497"><ele>60.8</ele></trkpt><trkpt lat="49.67423" lon="-1.35512"><ele>60.55</ele></trkpt><trkpt lat="49.67418" lon="-1.35527"><ele>60.28</ele></trkpt><trkpt lat="49.67415" lon="-1.35541"><ele>60.12</ele></trkpt><trkpt lat="49.67414" lon="-1.35555"><ele>60</ele></trkpt><trkpt lat="49.67412" lon="-1.35571"><ele>60.04</ele></trkpt><trkpt lat="49.67408" lon="-1.35623"><ele>59.38</ele></trkpt><trkpt lat="49.67408" lon="-1.35641"><ele>58.9</ele></trkpt><trkpt lat="49.67407" lon="-1.35656"><ele>58.58</ele></trkpt><trkpt lat="49.67405" lon="-1.35674"><ele>58.3</ele></trkpt><trkpt lat="49.67405" lon="-1.35691"><ele>57.96</ele></trkpt><trkpt lat="49.67404" lon="-1.35707"><ele>57.5</ele></trkpt><trkpt lat="49.67402" lon="-1.35725"><ele>56.87</ele></trkpt><trkpt lat="49.67402" lon="-1.35744"><ele>56.15</ele></trkpt><trkpt lat="49.67399" lon="-1.35779"><ele>55.59</ele></trkpt><trkpt lat="49.67398" lon="-1.35795"><ele>55.62</ele></trkpt><trkpt lat="49.67396" lon="-1.35814"><ele>55.75</ele></trkpt><trkpt lat="49.67392" lon="-1.35829"><ele>56.13</ele></trkpt><trkpt lat="49.67386" lon="-1.35848"><ele>55.77</ele></trkpt><trkpt lat="49.67382" lon="-1.35869"><ele>56.17</ele></trkpt><trkpt lat="49.67377" lon="-1.35886"><ele>56.47</ele></trkpt><trkpt lat="49.67373" lon="-1.35901"><ele>56.54</ele></trkpt><trkpt lat="49.67364" lon="-1.35948"><ele>56.91</ele></trkpt><trkpt lat="49.6736" lon="-1.35979"><ele>56.62</ele></trkpt><trkpt lat="49.67357" lon="-1.36011"><ele>56.22</ele></trkpt><trkpt lat="49.67355" lon="-1.36021"><ele>55.97</ele></trkpt><trkpt lat="49.67348" lon="-1.36018"><ele>56.94</ele></trkpt><trkpt lat="49.67339" lon="-1.36003"><ele>57.85</ele></trkpt><trkpt lat="49.6733" lon="-1.35986"><ele>58.69</ele></trkpt><trkpt lat="49.6732" lon="-1.35969"><ele>59.36</ele></trkpt><trkpt lat="49.67311" lon="-1.35952"><ele>60.03</ele></trkpt><trkpt lat="49.67302" lon="-1.35943"><ele>60.63</ele></trkpt><trkpt lat="49.6729" lon="-1.35938"><ele>61.39</ele></trkpt><trkpt lat="49.67278" lon="-1.35931"><ele>61.72</ele></trkpt><trkpt lat="49.67267" lon="-1.35924"><ele>62.33</ele></trkpt><trkpt lat="49.67256" lon="-1.35916"><ele>62.33</ele></trkpt><trkpt lat="49.6724" lon="-1.35896"><ele>62.24</ele></trkpt><trkpt lat="49.6723" lon="-1.3588"><ele>61.94</ele></trkpt><trkpt lat="49.67222" lon="-1.35863"><ele>62.19</ele></trkpt><trkpt lat="49.67212" lon="-1.35848"><ele>61.88</ele></trkpt><trkpt lat="49.67206" lon="-1.35833"><ele>61.42</ele></trkpt><trkpt lat="49.67198" lon="-1.35818"><ele>61.14</ele></trkpt><trkpt lat="49.67189" lon="-1.3581"><ele>61.45</ele></trkpt><trkpt lat="49.67181" lon="-1.35801"><ele>61.47</ele></trkpt><trkpt lat="49.67171" lon="-1.35791"><ele>61.82</ele></trkpt><trkpt lat="49.67162" lon="-1.35782"><ele>61.94</ele></trkpt><trkpt lat="49.67152" lon="-1.35773"><ele>62.06</ele></trkpt><trkpt lat="49.67143" lon="-1.35765"><ele>62.32</ele></trkpt><trkpt lat="49.67135" lon="-1.35756"><ele>62.44</ele></trkpt><trkpt lat="49.67126" lon="-1.35747"><ele>62.2</ele></trkpt><trkpt lat="49.67114" lon="-1.35739"><ele>62.5</ele></trkpt><trkpt lat="49.67102" lon="-1.35733"><ele>63.05</ele></trkpt><trkpt lat="49.67092" lon="-1.35727"><ele>63.14</ele></trkpt><trkpt lat="49.67082" lon="-1.35718"><ele>63.36</ele></trkpt><trkpt lat="49.67065" lon="-1.357"><ele>63.36</ele></trkpt><trkpt lat="49.6705" lon="-1.35686"><ele>64.08</ele></trkpt><trkpt lat="49.67054" lon="-1.3569"><ele>63.85</ele></trkpt><trkpt lat="49.67037" lon="-1.35675"><ele>64.65</ele></trkpt><trkpt lat="49.67028" lon="-1.35665"><ele>65.05</ele></trkpt><trkpt lat="49.67019" lon="-1.35656"><ele>65.38</ele></trkpt><trkpt lat="49.67001" lon="-1.35637"><ele>66.12</ele></trkpt><trkpt lat="49.66993" lon="-1.35626"><ele>66.53</ele></trkpt><trkpt lat="49.66985" lon="-1.35615"><ele>67.45</ele></trkpt><trkpt lat="49.66973" lon="-1.35598"><ele>68.81</ele></trkpt><trkpt lat="49.66964" lon="-1.35594"><ele>69.08</ele></trkpt><trkpt lat="49.66953" lon="-1.35582"><ele>69.29</ele></trkpt><trkpt lat="49.66944" lon="-1.35568"><ele>69.57</ele></trkpt><trkpt lat="49.66934" lon="-1.35557"><ele>69.86</ele></trkpt><trkpt lat="49.66925" lon="-1.35547"><ele>70.48</ele></trkpt><trkpt lat="49.66916" lon="-1.35537"><ele>70.67</ele></trkpt><trkpt lat="49.66906" lon="-1.35525"><ele>71.03</ele></trkpt><trkpt lat="49.66896" lon="-1.35517"><ele>71.28</ele></trkpt><trkpt lat="49.66885" lon="-1.35503"><ele>71.32</ele></trkpt><trkpt lat="49.66876" lon="-1.35492"><ele>71.43</ele></trkpt><trkpt lat="49.66868" lon="-1.3548"><ele>71.38</ele></trkpt><trkpt lat="49.66863" lon="-1.35473"><ele>71.42</ele></trkpt><trkpt lat="49.66857" lon="-1.35461"><ele>71.32</ele></trkpt><trkpt lat="49.66843" lon="-1.35435"><ele>71.24</ele></trkpt><trkpt lat="49.66837" lon="-1.35421"><ele>71.23</ele></trkpt><trkpt lat="49.66832" lon="-1.35409"><ele>71.07</ele></trkpt><trkpt lat="49.66819" lon="-1.35385"><ele>70.9</ele></trkpt><trkpt lat="49.66814" lon="-1.3537"><ele>70.74</ele></trkpt><trkpt lat="49.66808" lon="-1.35357"><ele>70.6</ele></trkpt><trkpt lat="49.668" lon="-1.35344"><ele>70.42</ele></trkpt><trkpt lat="49.66789" lon="-1.35315"><ele>69.61</ele></trkpt><trkpt lat="49.66786" lon="-1.35306"><ele>69.53</ele></trkpt><trkpt lat="49.6678" lon="-1.35294"><ele>69.66</ele></trkpt><trkpt lat="49.66773" lon="-1.35282"><ele>69.42</ele></trkpt><trkpt lat="49.66763" lon="-1.35272"><ele>69.4</ele></trkpt><trkpt lat="49.66754" lon="-1.35271"><ele>69.46</ele></trkpt><trkpt lat="49.66723" lon="-1.35278"><ele>70.21</ele></trkpt><trkpt lat="49.66712" lon="-1.35279"><ele>70.16</ele></trkpt><trkpt lat="49.66681" lon="-1.35285"><ele>70.32</ele></trkpt><trkpt lat="49.6667" lon="-1.35286"><ele>70.4</ele></trkpt><trkpt lat="49.66659" lon="-1.35287"><ele>70.36</ele></trkpt><trkpt lat="49.66648" lon="-1.35289"><ele>70.37</ele></trkpt><trkpt lat="49.66638" lon="-1.3529"><ele>70.62</ele></trkpt><trkpt lat="49.66617" lon="-1.3529"><ele>70.34</ele></trkpt><trkpt lat="49.66595" lon="-1.3529"><ele>69.67</ele></trkpt><trkpt lat="49.66585" lon="-1.35289"><ele>69.46</ele></trkpt><trkpt lat="49.66576" lon="-1.35289"><ele>69.36</ele></trkpt><trkpt lat="49.66565" lon="-1.35287"><ele>69.39</ele></trkpt><trkpt lat="49.66555" lon="-1.35284"><ele>69.26</ele></trkpt><trkpt lat="49.66546" lon="-1.35283"><ele>68.78</ele></trkpt><trkpt lat="49.66535" lon="-1.35282"><ele>68.58</ele></trkpt><trkpt lat="49.66524" lon="-1.35281"><ele>67.46</ele></trkpt><trkpt lat="49.66514" lon="-1.35278"><ele>67.05</ele></trkpt><trkpt lat="49.66504" lon="-1.35278"><ele>66.89</ele></trkpt><trkpt lat="49.66492" lon="-1.3528"><ele>66.39</ele></trkpt><trkpt lat="49.66483" lon="-1.35285"><ele>65.93</ele></trkpt><trkpt lat="49.66475" lon="-1.35293"><ele>65.95</ele></trkpt><trkpt lat="49.66467" lon="-1.35301"><ele>65.6</ele></trkpt><trkpt lat="49.66458" lon="-1.35306"><ele>65.33</ele></trkpt><trkpt lat="49.66448" lon="-1.35303"><ele>65.35</ele></trkpt><trkpt lat="49.66439" lon="-1.353"><ele>65.69</ele></trkpt><trkpt lat="49.6643" lon="-1.35294"><ele>64.91</ele></trkpt><trkpt lat="49.66416" lon="-1.35286"><ele>64.47</ele></trkpt><trkpt lat="49.66406" lon="-1.35279"><ele>64.5</ele></trkpt><trkpt lat="49.66397" lon="-1.35276"><ele>64</ele></trkpt><trkpt lat="49.66391" lon="-1.35265"><ele>63.81</ele></trkpt><trkpt lat="49.66384" lon="-1.35252"><ele>63.64</ele></trkpt><trkpt lat="49.66378" lon="-1.35237"><ele>63.68</ele></trkpt><trkpt lat="49.66321" lon="-1.35102"><ele>59.48</ele></trkpt><trkpt lat="49.66335" lon="-1.35098"><ele>60.02</ele></trkpt><trkpt lat="49.6639" lon="-1.35064"><ele>56.78</ele></trkpt><trkpt lat="49.66355" lon="-1.34985"><ele>56.47</ele></trkpt><trkpt lat="49.66386" lon="-1.34911"><ele>60.22</ele></trkpt><trkpt lat="49.66394" lon="-1.34825"><ele>62.73</ele></trkpt><trkpt lat="49.66432" lon="-1.34756"><ele>62.83</ele></trkpt><trkpt lat="49.66436" lon="-1.34743"><ele>62.9</ele></trkpt><trkpt lat="49.66454" lon="-1.34706"><ele>62.43</ele></trkpt><trkpt lat="49.6646" lon="-1.34694"><ele>62.3</ele></trkpt><trkpt lat="49.66465" lon="-1.34679"><ele>61.98</ele></trkpt><trkpt lat="49.66479" lon="-1.34626"><ele>59.7</ele></trkpt><trkpt lat="49.66487" lon="-1.3461"><ele>58.11</ele></trkpt><trkpt lat="49.66494" lon="-1.34594"><ele>56.91</ele></trkpt><trkpt lat="49.66491" lon="-1.34575"><ele>56.3</ele></trkpt><trkpt lat="49.66492" lon="-1.34556"><ele>55.32</ele></trkpt><trkpt lat="49.66489" lon="-1.34538"><ele>55.29</ele></trkpt><trkpt lat="49.66489" lon="-1.3452"><ele>53.79</ele></trkpt><trkpt lat="49.665" lon="-1.34522"><ele>52.44</ele></trkpt><trkpt lat="49.6651" lon="-1.3452"><ele>51.98</ele></trkpt><trkpt lat="49.6652" lon="-1.34521"><ele>52.11</ele></trkpt><trkpt lat="49.66544" lon="-1.34525"><ele>53.63</ele></trkpt><trkpt lat="49.66556" lon="-1.34531"><ele>54.97</ele></trkpt><trkpt lat="49.66569" lon="-1.34537"><ele>56.42</ele></trkpt><trkpt lat="49.66579" lon="-1.34536"><ele>57.16</ele></trkpt><trkpt lat="49.66598" lon="-1.34528"><ele>58.92</ele></trkpt><trkpt lat="49.66618" lon="-1.34523"><ele>60.52</ele></trkpt><trkpt lat="49.66637" lon="-1.34514"><ele>61.55</ele></trkpt><trkpt lat="49.66647" lon="-1.34511"><ele>61.8</ele></trkpt><trkpt lat="49.66656" lon="-1.34507"><ele>62.07</ele></trkpt><trkpt lat="49.66666" lon="-1.34502"><ele>61.75</ele></trkpt><trkpt lat="49.66678" lon="-1.34498"><ele>61.77</ele></trkpt><trkpt lat="49.66688" lon="-1.34497"><ele>61.82</ele></trkpt><trkpt lat="49.66693" lon="-1.34491"><ele>61.97</ele></trkpt><trkpt lat="49.66701" lon="-1.34489"><ele>61.84</ele></trkpt><trkpt lat="49.6671" lon="-1.34484"><ele>62.04</ele></trkpt><trkpt lat="49.66719" lon="-1.34478"><ele>62.45</ele></trkpt><trkpt lat="49.66727" lon="-1.3447"><ele>62.81</ele></trkpt><trkpt lat="49.66733" lon="-1.34468"><ele>63.01</ele></trkpt><trkpt lat="49.66751" lon="-1.34455"><ele>63.17</ele></trkpt><trkpt lat="49.6676" lon="-1.34449"><ele>63</ele></trkpt><trkpt lat="49.66765" lon="-1.34439"><ele>62.88</ele></trkpt><trkpt lat="49.6677" lon="-1.34425"><ele>62.56</ele></trkpt><trkpt lat="49.66787" lon="-1.34389"><ele>61.19</ele></trkpt><trkpt lat="49.668" lon="-1.34367"><ele>59.86</ele></trkpt><trkpt lat="49.66806" lon="-1.34355"><ele>59.34</ele></trkpt><trkpt lat="49.66813" lon="-1.34344"><ele>58.77</ele></trkpt><trkpt lat="49.66819" lon="-1.34332"><ele>58.46</ele></trkpt><trkpt lat="49.66826" lon="-1.34321"><ele>58</ele></trkpt><trkpt lat="49.66825" lon="-1.34314"><ele>57.82</ele></trkpt><trkpt lat="49.66809" lon="-1.34308"><ele>56.9</ele></trkpt><trkpt lat="49.66797" lon="-1.34302"><ele>54.54</ele></trkpt><trkpt lat="49.66786" lon="-1.34297"><ele>53.57</ele></trkpt><trkpt lat="49.66774" lon="-1.3429"><ele>52.66</ele></trkpt><trkpt lat="49.6676" lon="-1.34284"><ele>53.79</ele></trkpt><trkpt lat="49.66746" lon="-1.34276"><ele>53.59</ele></trkpt><trkpt lat="49.66678" lon="-1.34236"><ele>53.36</ele></trkpt><trkpt lat="49.66651" lon="-1.34223"><ele>52.57</ele></trkpt><trkpt lat="49.66629" lon="-1.34215"><ele>51.15</ele></trkpt><trkpt lat="49.66612" lon="-1.34213"><ele>48.96</ele></trkpt><trkpt lat="49.66594" lon="-1.34212"><ele>48.34</ele></trkpt><trkpt lat="49.66584" lon="-1.34202"><ele>47.96</ele></trkpt><trkpt lat="49.66577" lon="-1.34187"><ele>47.88</ele></trkpt><trkpt lat="49.66566" lon="-1.34145"><ele>51.95</ele></trkpt><trkpt lat="49.66604" lon="-1.34103"><ele>53.37</ele></trkpt><trkpt lat="49.66679" lon="-1.3408"><ele>51.79</ele></trkpt><trkpt lat="49.66691" lon="-1.34045"><ele>56.78</ele></trkpt><trkpt lat="49.66699" lon="-1.34029"><ele>58.66</ele></trkpt><trkpt lat="49.66706" lon="-1.34016"><ele>60.2</ele></trkpt><trkpt lat="49.66713" lon="-1.34004"><ele>60.68</ele></trkpt><trkpt lat="49.66718" lon="-1.33989"><ele>60.89</ele></trkpt><trkpt lat="49.66721" lon="-1.33975"><ele>60.91</ele></trkpt><trkpt lat="49.6672" lon="-1.3396"><ele>61.19</ele></trkpt><trkpt lat="49.66717" lon="-1.33946"><ele>61.35</ele></trkpt><trkpt lat="49.66714" lon="-1.33932"><ele>61.5</ele></trkpt><trkpt lat="49.66708" lon="-1.33921"><ele>61.97</ele></trkpt><trkpt lat="49.66704" lon="-1.33907"><ele>62.21</ele></trkpt><trkpt lat="49.66714" lon="-1.339"><ele>61.72</ele></trkpt><trkpt lat="49.66725" lon="-1.33894"><ele>61.31</ele></trkpt><trkpt lat="49.66733" lon="-1.33888"><ele>60.87</ele></trkpt><trkpt lat="49.66742" lon="-1.33883"><ele>60.42</ele></trkpt><trkpt lat="49.6675" lon="-1.33875"><ele>59.94</ele></trkpt><trkpt lat="49.6677" lon="-1.33863"><ele>59.01</ele></trkpt><trkpt lat="49.6678" lon="-1.33853"><ele>58.33</ele></trkpt><trkpt lat="49.6679" lon="-1.33847"><ele>57.96</ele></trkpt><trkpt lat="49.66793" lon="-1.33848"><ele>57.76</ele></trkpt><trkpt lat="49.668" lon="-1.33855"><ele>56.92</ele></trkpt><trkpt lat="49.66809" lon="-1.33858"><ele>56.39</ele></trkpt><trkpt lat="49.66818" lon="-1.33861"><ele>55.92</ele></trkpt><trkpt lat="49.66839" lon="-1.33865"><ele>54.52</ele></trkpt><trkpt lat="49.6685" lon="-1.3386"><ele>53.69</ele></trkpt><trkpt lat="49.66857" lon="-1.33851"><ele>52.25</ele></trkpt><trkpt lat="49.66862" lon="-1.33838"><ele>51.75</ele></trkpt><trkpt lat="49.66865" lon="-1.33824"><ele>51.16</ele></trkpt><trkpt lat="49.66869" lon="-1.33809"><ele>49.9</ele></trkpt><trkpt lat="49.66873" lon="-1.33795"><ele>49.18</ele></trkpt><trkpt lat="49.66878" lon="-1.3378"><ele>48.54</ele></trkpt><trkpt lat="49.66882" lon="-1.33769"><ele>48.14</ele></trkpt><trkpt lat="49.66888" lon="-1.33757"><ele>47.58</ele></trkpt><trkpt lat="49.66895" lon="-1.33747"><ele>46.11</ele></trkpt><trkpt lat="49.66903" lon="-1.33737"><ele>46.14</ele></trkpt><trkpt lat="49.66912" lon="-1.3373"><ele>44.77</ele></trkpt><trkpt lat="49.66922" lon="-1.33724"><ele>44.56</ele></trkpt><trkpt lat="49.6693" lon="-1.33715"><ele>43.71</ele></trkpt><trkpt lat="49.6694" lon="-1.33706"><ele>42.06</ele></trkpt><trkpt lat="49.66945" lon="-1.33698"><ele>39.86</ele></trkpt><trkpt lat="49.66953" lon="-1.33687"><ele>39.23</ele></trkpt><trkpt lat="49.66962" lon="-1.33685"><ele>39.62</ele></trkpt><trkpt lat="49.66973" lon="-1.33691"><ele>38.89</ele></trkpt><trkpt lat="49.66994" lon="-1.33698"><ele>35.97</ele></trkpt><trkpt lat="49.67004" lon="-1.33701"><ele>34.96</ele></trkpt><trkpt lat="49.67013" lon="-1.33699"><ele>33.91</ele></trkpt><trkpt lat="49.6702" lon="-1.3369"><ele>33.19</ele></trkpt><trkpt lat="49.67026" lon="-1.33677"><ele>34.47</ele></trkpt><trkpt lat="49.67029" lon="-1.33664"><ele>34.62</ele></trkpt><trkpt lat="49.67029" lon="-1.3364"><ele>34.83</ele></trkpt><trkpt lat="49.67032" lon="-1.33625"><ele>35.18</ele></trkpt><trkpt lat="49.67036" lon="-1.33609"><ele>34.78</ele></trkpt><trkpt lat="49.67042" lon="-1.33583"><ele>34.22</ele></trkpt><trkpt lat="49.67046" lon="-1.33563"><ele>34.18</ele></trkpt><trkpt lat="49.6705" lon="-1.33554"><ele>34.49</ele></trkpt><trkpt lat="49.67052" lon="-1.33551"><ele>34.67</ele></trkpt></trkseg></trk></gpx>
