<?xml version="1.0" encoding="UTF-8" standalone="no" ?>
<gpx xmlns="http://www.topografix.com/GPX/1/1" xmlns:xsi="http://www.w3.org/2001/XMLSchema-instance" xsi:schemaLocation="http://www.topografix.com/GPX/1/1 http://www.topografix.com/GPX/1/1/gpx.xsd" version="1.1" creator="VisuGPX - https://www.visugpx.com">
  <metadata>
    <name>Calanques - Callelongue - Mounine - Marseilleveyre</name>
    <desc><![CDATA[http://art.photographies.free.fr/images/photos/rando-callelongue-270408/rando-callelongue-270408.html]]></desc>
  </metadata>
  <trk>
    <name><![CDATA[Calanques - Callelongue - Mounine - Marseilleveyre_1]]></name>
    <trkseg>
      <trkpt lat="43.21201" lon="5.35073">
        <ele>22</ele>
      </trkpt>
      <trkpt lat="43.21176" lon="5.35114">
        <ele>15</ele>
      </trkpt>
      <trkpt lat="43.21179" lon="5.35173">
        <ele>11</ele>
      </trkpt>
      <trkpt lat="43.21206" lon="5.3522">
        <ele>10</ele>
      </trkpt>
      <trkpt lat="43.21241" lon="5.35244">
        <ele>13</ele>
      </trkpt>
      <trkpt lat="43.21259" lon="5.35307">
        <ele>12</ele>
      </trkpt>
      <trkpt lat="43.21257" lon="5.35346">
        <ele>10</ele>
      </trkpt>
      <trkpt lat="43.21275" lon="5.35415">
        <ele>7</ele>
      </trkpt>
      <trkpt lat="43.2126" lon="5.35434">
        <ele>8</ele>
      </trkpt>
      <trkpt lat="43.21237" lon="5.35472">
        <ele>17</ele>
      </trkpt>
      <trkpt lat="43.21193" lon="5.35437">
        <ele>33</ele>
      </trkpt>
      <trkpt lat="43.2117" lon="5.35407">
        <ele>36</ele>
      </trkpt>
      <trkpt lat="43.21117" lon="5.35427">
        <ele>52</ele>
      </trkpt>
      <trkpt lat="43.21091" lon="5.35415">
        <ele>52</ele>
      </trkpt>
      <trkpt lat="43.21053" lon="5.35426">
        <ele>59</ele>
      </trkpt>
      <trkpt lat="43.21006" lon="5.35486">
        <ele>50</ele>
      </trkpt>
      <trkpt lat="43.20982" lon="5.35579">
        <ele>45</ele>
      </trkpt>
      <trkpt lat="43.20981" lon="5.35608">
        <ele>45</ele>
      </trkpt>
      <trkpt lat="43.21003" lon="5.35665">
        <ele>46</ele>
      </trkpt>
      <trkpt lat="43.20982" lon="5.35741">
        <ele>33</ele>
      </trkpt>
      <trkpt lat="43.20984" lon="5.35774">
        <ele>32</ele>
      </trkpt>
      <trkpt lat="43.20985" lon="5.358">
        <ele>32</ele>
      </trkpt>
      <trkpt lat="43.20973" lon="5.35829">
        <ele>30</ele>
      </trkpt>
      <trkpt lat="43.20968" lon="5.3592">
        <ele>31</ele>
      </trkpt>
      <trkpt lat="43.20978" lon="5.35992">
        <ele>30</ele>
      </trkpt>
      <trkpt lat="43.20979" lon="5.36021">
        <ele>28</ele>
      </trkpt>
      <trkpt lat="43.20975" lon="5.36096">
        <ele>16</ele>
      </trkpt>
      <trkpt lat="43.21003" lon="5.36107">
        <ele>23</ele>
      </trkpt>
      <trkpt lat="43.20995" lon="5.36136">
        <ele>19</ele>
      </trkpt>
      <trkpt lat="43.20998" lon="5.36198">
        <ele>19</ele>
      </trkpt>
      <trkpt lat="43.21042" lon="5.36226">
        <ele>20</ele>
      </trkpt>
      <trkpt lat="43.21042" lon="5.36249">
        <ele>21</ele>
      </trkpt>
      <trkpt lat="43.21019" lon="5.36228">
        <ele>18</ele>
      </trkpt>
      <trkpt lat="43.20995" lon="5.3623">
        <ele>22</ele>
      </trkpt>
      <trkpt lat="43.20976" lon="5.362">
        <ele>19</ele>
      </trkpt>
      <trkpt lat="43.20936" lon="5.36188">
        <ele>18</ele>
      </trkpt>
      <trkpt lat="43.20896" lon="5.36196">
        <ele>19</ele>
      </trkpt>
      <trkpt lat="43.20846" lon="5.36264">
        <ele>20</ele>
      </trkpt>
      <trkpt lat="43.20815" lon="5.3636">
        <ele>18</ele>
      </trkpt>
      <trkpt lat="43.20786" lon="5.36391">
        <ele>13</ele>
      </trkpt>
      <trkpt lat="43.20774" lon="5.36537">
        <ele>11</ele>
      </trkpt>
      <trkpt lat="43.20781" lon="5.36642">
        <ele>8</ele>
      </trkpt>
      <trkpt lat="43.20802" lon="5.36721">
        <ele>11</ele>
      </trkpt>
      <trkpt lat="43.20815" lon="5.36773">
        <ele>12</ele>
      </trkpt>
      <trkpt lat="43.20833" lon="5.36888">
        <ele>11</ele>
      </trkpt>
      <trkpt lat="43.20856" lon="5.37003">
        <ele>11</ele>
      </trkpt>
      <trkpt lat="43.20884" lon="5.37044">
        <ele>12</ele>
      </trkpt>
      <trkpt lat="43.20927" lon="5.37105">
        <ele>14</ele>
      </trkpt>
      <trkpt lat="43.20952" lon="5.37145">
        <ele>14</ele>
      </trkpt>
      <trkpt lat="43.21006" lon="5.37164">
        <ele>26</ele>
      </trkpt>
      <trkpt lat="43.21046" lon="5.37277">
        <ele>22</ele>
      </trkpt>
      <trkpt lat="43.21045" lon="5.37312">
        <ele>17</ele>
      </trkpt>
      <trkpt lat="43.21017" lon="5.37373">
        <ele>8</ele>
      </trkpt>
      <trkpt lat="43.21057" lon="5.37378">
        <ele>10</ele>
      </trkpt>
      <trkpt lat="43.21085" lon="5.37399">
        <ele>10</ele>
      </trkpt>
      <trkpt lat="43.21109" lon="5.37394">
        <ele>12</ele>
      </trkpt>
      <trkpt lat="43.2118" lon="5.3743">
        <ele>15</ele>
      </trkpt>
      <trkpt lat="43.21259" lon="5.37418">
        <ele>24</ele>
      </trkpt>
      <trkpt lat="43.21305" lon="5.37381">
        <ele>21</ele>
      </trkpt>
      <trkpt lat="43.21345" lon="5.37296">
        <ele>27</ele>
      </trkpt>
      <trkpt lat="43.21373" lon="5.37252">
        <ele>33</ele>
      </trkpt>
      <trkpt lat="43.21409" lon="5.37215">
        <ele>38</ele>
      </trkpt>
      <trkpt lat="43.21453" lon="5.37204">
        <ele>35</ele>
      </trkpt>
      <trkpt lat="43.2151" lon="5.37197">
        <ele>47</ele>
      </trkpt>
      <trkpt lat="43.21534" lon="5.37176">
        <ele>60</ele>
      </trkpt>
      <trkpt lat="43.2155" lon="5.3719">
        <ele>68</ele>
      </trkpt>
      <trkpt lat="43.21565" lon="5.37177">
        <ele>75</ele>
      </trkpt>
      <trkpt lat="43.21566" lon="5.37138">
        <ele>82</ele>
      </trkpt>
      <trkpt lat="43.21581" lon="5.37129">
        <ele>88</ele>
      </trkpt>
      <trkpt lat="43.21591" lon="5.37097">
        <ele>98</ele>
      </trkpt>
      <trkpt lat="43.21627" lon="5.37018">
        <ele>145</ele>
      </trkpt>
      <trkpt lat="43.21604" lon="5.36971">
        <ele>147</ele>
      </trkpt>
      <trkpt lat="43.216" lon="5.36948">
        <ele>146</ele>
      </trkpt>
      <trkpt lat="43.21626" lon="5.36891">
        <ele>144</ele>
      </trkpt>
      <trkpt lat="43.21636" lon="5.36869">
        <ele>139</ele>
      </trkpt>
      <trkpt lat="43.21666" lon="5.36822">
        <ele>141</ele>
      </trkpt>
      <trkpt lat="43.21652" lon="5.36779">
        <ele>150</ele>
      </trkpt>
      <trkpt lat="43.21634" lon="5.36765">
        <ele>147</ele>
      </trkpt>
      <trkpt lat="43.21603" lon="5.3675">
        <ele>141</ele>
      </trkpt>
      <trkpt lat="43.21588" lon="5.3671">
        <ele>148</ele>
      </trkpt>
      <trkpt lat="43.21557" lon="5.36712">
        <ele>141</ele>
      </trkpt>
      <trkpt lat="43.21536" lon="5.36675">
        <ele>150</ele>
      </trkpt>
      <trkpt lat="43.21487" lon="5.36659">
        <ele>143</ele>
      </trkpt>
      <trkpt lat="43.21494" lon="5.36588">
        <ele>155</ele>
      </trkpt>
      <trkpt lat="43.21476" lon="5.36551">
        <ele>151</ele>
      </trkpt>
      <trkpt lat="43.21459" lon="5.3655">
        <ele>144</ele>
      </trkpt>
      <trkpt lat="43.21448" lon="5.36524">
        <ele>146</ele>
      </trkpt>
      <trkpt lat="43.21434" lon="5.36517">
        <ele>141</ele>
      </trkpt>
      <trkpt lat="43.21433" lon="5.36468">
        <ele>150</ele>
      </trkpt>
      <trkpt lat="43.2141" lon="5.36437">
        <ele>148</ele>
      </trkpt>
      <trkpt lat="43.21377" lon="5.36423">
        <ele>147</ele>
      </trkpt>
      <trkpt lat="43.21335" lon="5.36401">
        <ele>150</ele>
      </trkpt>
      <trkpt lat="43.21324" lon="5.36371">
        <ele>147</ele>
      </trkpt>
      <trkpt lat="43.21329" lon="5.36345">
        <ele>146</ele>
      </trkpt>
      <trkpt lat="43.21375" lon="5.36318">
        <ele>157</ele>
      </trkpt>
      <trkpt lat="43.21347" lon="5.3631">
        <ele>145</ele>
      </trkpt>
      <trkpt lat="43.21338" lon="5.36287">
        <ele>139</ele>
      </trkpt>
      <trkpt lat="43.21305" lon="5.36259">
        <ele>135</ele>
      </trkpt>
      <trkpt lat="43.21286" lon="5.36258">
        <ele>129</ele>
      </trkpt>
      <trkpt lat="43.21295" lon="5.3621">
        <ele>134</ele>
      </trkpt>
      <trkpt lat="43.21305" lon="5.36178">
        <ele>131</ele>
      </trkpt>
      <trkpt lat="43.21296" lon="5.36158">
        <ele>126</ele>
      </trkpt>
      <trkpt lat="43.21293" lon="5.36129">
        <ele>129</ele>
      </trkpt>
      <trkpt lat="43.2127" lon="5.36101">
        <ele>125</ele>
      </trkpt>
      <trkpt lat="43.21291" lon="5.36021">
        <ele>133</ele>
      </trkpt>
      <trkpt lat="43.21287" lon="5.36001">
        <ele>127</ele>
      </trkpt>
      <trkpt lat="43.21283" lon="5.35965">
        <ele>121</ele>
      </trkpt>
      <trkpt lat="43.2127" lon="5.35926">
        <ele>117</ele>
      </trkpt>
      <trkpt lat="43.21249" lon="5.35895">
        <ele>113</ele>
      </trkpt>
      <trkpt lat="43.21226" lon="5.35858">
        <ele>109</ele>
      </trkpt>
      <trkpt lat="43.21162" lon="5.35787">
        <ele>95</ele>
      </trkpt>
      <trkpt lat="43.21121" lon="5.35716">
        <ele>85</ele>
      </trkpt>
      <trkpt lat="43.21138" lon="5.35704">
        <ele>81</ele>
      </trkpt>
      <trkpt lat="43.2119" lon="5.3572">
        <ele>68</ele>
      </trkpt>
      <trkpt lat="43.2123" lon="5.35728">
        <ele>65</ele>
      </trkpt>
      <trkpt lat="43.21219" lon="5.35689">
        <ele>55</ele>
      </trkpt>
      <trkpt lat="43.21216" lon="5.3565">
        <ele>49</ele>
      </trkpt>
      <trkpt lat="43.212" lon="5.35613">
        <ele>46</ele>
      </trkpt>
      <trkpt lat="43.21201" lon="5.35571">
        <ele>39</ele>
      </trkpt>
      <trkpt lat="43.21211" lon="5.35565">
        <ele>37</ele>
      </trkpt>
      <trkpt lat="43.21234" lon="5.35495">
        <ele>20</ele>
      </trkpt>
      <trkpt lat="43.21237" lon="5.35465">
        <ele>16</ele>
      </trkpt>
      <trkpt lat="43.21272" lon="5.35415">
        <ele>7</ele>
      </trkpt>
      <trkpt lat="43.21257" lon="5.35353">
        <ele>9</ele>
      </trkpt>
      <trkpt lat="43.21258" lon="5.3532">
        <ele>11</ele>
      </trkpt>
      <trkpt lat="43.21246" lon="5.35245">
        <ele>15</ele>
      </trkpt>
      <trkpt lat="43.21206" lon="5.35217">
        <ele>11</ele>
      </trkpt>
      <trkpt lat="43.21188" lon="5.3518">
        <ele>13</ele>
      </trkpt>
      <trkpt lat="43.2117" lon="5.35146">
        <ele>11</ele>
      </trkpt>
      <trkpt lat="43.21174" lon="5.35114">
        <ele>14</ele>
      </trkpt>
      <trkpt lat="43.21201" lon="5.3507">
        <ele>22</ele>
      </trkpt>
    </trkseg>
  </trk>
</gpx>