<?xml version="1.0" encoding="UTF-8" standalone="no"?>
<gpx xmlns="http://www.topografix.com/GPX/1/1" version="1.1" xmlns:xsi="http://www.w3.org/2001/XMLSchema-instance" xsi:schemaLocation="http://www.topografix.com/GPX/1/1 http://www.topografix.com/GPX/1/1/gpx.xsd" creator="Cirkwi"><metadata><name><![CDATA[Porte de la Hague - n°100]]></name><desc><![CDATA[Entre plage de sable et petits hameaux de caractère, partez pour une balade aux multiples paysages. Quittez le rivage pour admirer les points de vue sur la mer depuis les hauteurs d’Urville-Nacqueville et admirez au passage, de jolies demeures typiques du Cotentin. Partez du parking de la Maison Familiale Rurale (MFR). Longez la RD45 sur quelques dizaines de mètres vers Landemer avant de tourner à gauche pour monter vers le hameau Capel (Urville-Nacqueville). Coordonnées GPS : 49°40'29.4"N, 1°44'38.7"W Suivez le circuit selon le sens inverse des aiguilles d'une montre. Le balisage est de couleur jaune. Vous retrouverez ce circuit dans le topoguide "La Hague - Des Pieux et autour de Martinvast "de l'Office de tourisme du Cotentin.   Départ accessible avec le réseau de bus Cap Cotentin à l'arrêt "Urville-Nacqueville - MFR" ou "Urville-Nacqueville - Le Bourg" (plus d'infos sur capcotentin.fr)]]></desc><author><name><![CDATA[Cotentin unique]]></name></author><link href="http://fichier0.cirkwi.com/image/photo/circuit/1300x1300/60091/fr/0.jpg"><text><![CDATA[|]]></text></link><link href="http://fichier0.cirkwi.com/image/photo/circuit/1300x1300/60091/fr/1.jpg"><text><![CDATA[|Aymeric Picot]]></text></link><link href="http://fichier0.cirkwi.com/image/photo/circuit/1300x1300/60091/fr/2.jpg"><text><![CDATA[|© B. Almodovar]]></text></link><link href="http://fichier0.cirkwi.com/image/photo/circuit/1300x1300/60091/fr/3.jpg"><text><![CDATA[|© BIPLAN]]></text></link><link href="http://fichier0.cirkwi.com/image/photo/circuit/1300x1300/60091/fr/4.jpg"><text><![CDATA[|© B. Almodovar]]></text></link><link href="http://fichier0.cirkwi.com/image/photo/circuit/1300x1300/60091/fr/5.jpg"><text><![CDATA[|© B. Almodovar]]></text></link><link href="http://fichier0.cirkwi.com/image/photo/circuit/1300x1300/60091/fr/6.jpg"><text><![CDATA[|© B. Almodovar]]></text></link><time>2026-08-11T12:58:40Z</time></metadata><trk><trkseg><trkpt lat="49.67473" lon="-1.74435"><ele>13.09</ele></trkpt><trkpt lat="49.67481" lon="-1.74462"><ele>13.27</ele></trkpt><trkpt lat="49.67485" lon="-1.74477"><ele>13.35</ele></trkpt><trkpt lat="49.67492" lon="-1.74499"><ele>13.41</ele></trkpt><trkpt lat="49.67493" lon="-1.74504"><ele>13.49</ele></trkpt><trkpt lat="49.67498" lon="-1.74521"><ele>13.62</ele></trkpt><trkpt lat="49.67504" lon="-1.74543"><ele>13.6</ele></trkpt><trkpt lat="49.67508" lon="-1.74562"><ele>13.79</ele></trkpt><trkpt lat="49.67511" lon="-1.74577"><ele>14.23</ele></trkpt><trkpt lat="49.67513" lon="-1.74588"><ele>14.16</ele></trkpt><trkpt lat="49.67528" lon="-1.74656"><ele>14.75</ele></trkpt><trkpt lat="49.67529" lon="-1.74661"><ele>14.49</ele></trkpt><trkpt lat="49.67531" lon="-1.74669"><ele>15.03</ele></trkpt><trkpt lat="49.67534" lon="-1.74678"><ele>15.11</ele></trkpt><trkpt lat="49.67539" lon="-1.74697"><ele>15.57</ele></trkpt><trkpt lat="49.67534" lon="-1.74703"><ele>15.83</ele></trkpt><trkpt lat="49.67532" lon="-1.74706"><ele>16.39</ele></trkpt><trkpt lat="49.67531" lon="-1.74708"><ele>16.39</ele></trkpt><trkpt lat="49.6753" lon="-1.74716"><ele>16.72</ele></trkpt><trkpt lat="49.67529" lon="-1.74729"><ele>17.3</ele></trkpt><trkpt lat="49.67529" lon="-1.7473"><ele>17.44</ele></trkpt><trkpt lat="49.67529" lon="-1.74733"><ele>17.44</ele></trkpt><trkpt lat="49.67526" lon="-1.74746"><ele>18.37</ele></trkpt><trkpt lat="49.67525" lon="-1.7475"><ele>18.43</ele></trkpt><trkpt lat="49.67524" lon="-1.74755"><ele>19.32</ele></trkpt><trkpt lat="49.67514" lon="-1.74779"><ele>20.97</ele></trkpt><trkpt lat="49.67511" lon="-1.74787"><ele>22.08</ele></trkpt><trkpt lat="49.67504" lon="-1.74802"><ele>23.13</ele></trkpt><trkpt lat="49.67498" lon="-1.74813"><ele>24.47</ele></trkpt><trkpt lat="49.67488" lon="-1.74829"><ele>25.98</ele></trkpt><trkpt lat="49.67482" lon="-1.74836"><ele>26.77</ele></trkpt><trkpt lat="49.67479" lon="-1.74839"><ele>27.4</ele></trkpt><trkpt lat="49.67475" lon="-1.7484"><ele>27.93</ele></trkpt><trkpt lat="49.67472" lon="-1.7484"><ele>28.37</ele></trkpt><trkpt lat="49.67468" lon="-1.7484"><ele>28.73</ele></trkpt><trkpt lat="49.67464" lon="-1.74836"><ele>28.93</ele></trkpt><trkpt lat="49.67462" lon="-1.74832"><ele>30.28</ele></trkpt><trkpt lat="49.67461" lon="-1.7483"><ele>30.28</ele></trkpt><trkpt lat="49.67458" lon="-1.74826"><ele>31.64</ele></trkpt><trkpt lat="49.67456" lon="-1.74824"><ele>31.25</ele></trkpt><trkpt lat="49.67446" lon="-1.74821"><ele>36.73</ele></trkpt><trkpt lat="49.67445" lon="-1.74837"><ele>35.94</ele></trkpt><trkpt lat="49.67443" lon="-1.74848"><ele>36.56</ele></trkpt><trkpt lat="49.67443" lon="-1.74849"><ele>36.56</ele></trkpt><trkpt lat="49.67441" lon="-1.7486"><ele>37.76</ele></trkpt><trkpt lat="49.67439" lon="-1.74871"><ele>37.75</ele></trkpt><trkpt lat="49.67437" lon="-1.74882"><ele>38.68</ele></trkpt><trkpt lat="49.67436" lon="-1.74896"><ele>38.81</ele></trkpt><trkpt lat="49.67435" lon="-1.74928"><ele>38.84</ele></trkpt><trkpt lat="49.67435" lon="-1.74944"><ele>38.84</ele></trkpt><trkpt lat="49.67436" lon="-1.74955"><ele>38.94</ele></trkpt><trkpt lat="49.67437" lon="-1.74965"><ele>39.62</ele></trkpt><trkpt lat="49.67439" lon="-1.74981"><ele>38.8</ele></trkpt><trkpt lat="49.67444" lon="-1.75001"><ele>37.55</ele></trkpt><trkpt lat="49.67448" lon="-1.75018"><ele>37.44</ele></trkpt><trkpt lat="49.6745" lon="-1.75024"><ele>38.03</ele></trkpt><trkpt lat="49.67455" lon="-1.75044"><ele>38.13</ele></trkpt><trkpt lat="49.67456" lon="-1.7505"><ele>36.51</ele></trkpt><trkpt lat="49.67462" lon="-1.75065"><ele>37.11</ele></trkpt><trkpt lat="49.67463" lon="-1.75071"><ele>37.33</ele></trkpt><trkpt lat="49.67464" lon="-1.75077"><ele>36.21</ele></trkpt><trkpt lat="49.67464" lon="-1.75086"><ele>36.8</ele></trkpt><trkpt lat="49.67466" lon="-1.75107"><ele>37.11</ele></trkpt><trkpt lat="49.67467" lon="-1.75124"><ele>37.45</ele></trkpt><trkpt lat="49.67468" lon="-1.7513"><ele>37.53</ele></trkpt><trkpt lat="49.67469" lon="-1.75143"><ele>37.54</ele></trkpt><trkpt lat="49.67469" lon="-1.75151"><ele>37.71</ele></trkpt><trkpt lat="49.6747" lon="-1.75161"><ele>38.26</ele></trkpt><trkpt lat="49.6747" lon="-1.75173"><ele>38.98</ele></trkpt><trkpt lat="49.67485" lon="-1.75182"><ele>37.1</ele></trkpt><trkpt lat="49.6749" lon="-1.75185"><ele>35.93</ele></trkpt><trkpt lat="49.67499" lon="-1.75191"><ele>34.79</ele></trkpt><trkpt lat="49.67502" lon="-1.75193"><ele>34.79</ele></trkpt><trkpt lat="49.67518" lon="-1.75204"><ele>32.49</ele></trkpt><trkpt lat="49.67534" lon="-1.75216"><ele>30.55</ele></trkpt><trkpt lat="49.67577" lon="-1.75245"><ele>24.84</ele></trkpt><trkpt lat="49.6758" lon="-1.75246"><ele>24.26</ele></trkpt><trkpt lat="49.67583" lon="-1.75247"><ele>24.26</ele></trkpt><trkpt lat="49.67588" lon="-1.75247"><ele>23.7</ele></trkpt><trkpt lat="49.67601" lon="-1.75248"><ele>22</ele></trkpt><trkpt lat="49.67607" lon="-1.75248"><ele>20.89</ele></trkpt><trkpt lat="49.67619" lon="-1.75247"><ele>19.3</ele></trkpt><trkpt lat="49.67637" lon="-1.75247"><ele>17.3</ele></trkpt><trkpt lat="49.67652" lon="-1.75246"><ele>16.02</ele></trkpt><trkpt lat="49.67658" lon="-1.75248"><ele>14.77</ele></trkpt><trkpt lat="49.67658" lon="-1.75252"><ele>14.87</ele></trkpt><trkpt lat="49.67657" lon="-1.75255"><ele>15.79</ele></trkpt><trkpt lat="49.67657" lon="-1.75263"><ele>15.95</ele></trkpt><trkpt lat="49.67655" lon="-1.75285"><ele>16.21</ele></trkpt><trkpt lat="49.67686" lon="-1.7527"><ele>12.46</ele></trkpt><trkpt lat="49.67703" lon="-1.75262"><ele>11.41</ele></trkpt><trkpt lat="49.6771" lon="-1.75259"><ele>10.87</ele></trkpt><trkpt lat="49.6772" lon="-1.75254"><ele>10.34</ele></trkpt><trkpt lat="49.67761" lon="-1.75235"><ele>7.92</ele></trkpt><trkpt lat="49.67772" lon="-1.7523"><ele>7.57</ele></trkpt><trkpt lat="49.67801" lon="-1.75218"><ele>6.54</ele></trkpt><trkpt lat="49.67807" lon="-1.75217"><ele>6.44</ele></trkpt><trkpt lat="49.67826" lon="-1.75213"><ele>5.66</ele></trkpt><trkpt lat="49.67826" lon="-1.7522"><ele>6.17</ele></trkpt><trkpt lat="49.67823" lon="-1.75247"><ele>3.96</ele></trkpt><trkpt lat="49.67823" lon="-1.75284"><ele>4.64</ele></trkpt><trkpt lat="49.67823" lon="-1.75286"><ele>4.64</ele></trkpt><trkpt lat="49.67823" lon="-1.75295"><ele>4.7</ele></trkpt><trkpt lat="49.67824" lon="-1.75323"><ele>5.06</ele></trkpt><trkpt lat="49.67824" lon="-1.7533"><ele>5.18</ele></trkpt><trkpt lat="49.67824" lon="-1.75344"><ele>5.7</ele></trkpt><trkpt lat="49.67824" lon="-1.75351"><ele>6.06</ele></trkpt><trkpt lat="49.67825" lon="-1.75379"><ele>4.41</ele></trkpt><trkpt lat="49.67825" lon="-1.75382"><ele>4.41</ele></trkpt><trkpt lat="49.67828" lon="-1.75406"><ele>4.7</ele></trkpt><trkpt lat="49.67828" lon="-1.7541"><ele>4.69</ele></trkpt><trkpt lat="49.67828" lon="-1.75418"><ele>4.23</ele></trkpt><trkpt lat="49.67827" lon="-1.75434"><ele>4.52</ele></trkpt><trkpt lat="49.67826" lon="-1.75447"><ele>5.35</ele></trkpt><trkpt lat="49.67824" lon="-1.75461"><ele>7.12</ele></trkpt><trkpt lat="49.67823" lon="-1.75468"><ele>6.67</ele></trkpt><trkpt lat="49.67822" lon="-1.75489"><ele>6.01</ele></trkpt><trkpt lat="49.67821" lon="-1.75495"><ele>5.08</ele></trkpt><trkpt lat="49.6782" lon="-1.75516"><ele>7.99</ele></trkpt><trkpt lat="49.67818" lon="-1.75555"><ele>6.54</ele></trkpt><trkpt lat="49.6781" lon="-1.7561"><ele>8.69</ele></trkpt><trkpt lat="49.67805" lon="-1.75647"><ele>9.14</ele></trkpt><trkpt lat="49.67803" lon="-1.75676"><ele>9.3</ele></trkpt><trkpt lat="49.67802" lon="-1.75692"><ele>8.6</ele></trkpt><trkpt lat="49.67801" lon="-1.75701"><ele>8.52</ele></trkpt><trkpt lat="49.67801" lon="-1.75708"><ele>8.49</ele></trkpt><trkpt lat="49.67801" lon="-1.75715"><ele>9.69</ele></trkpt><trkpt lat="49.67801" lon="-1.75716"><ele>9.69</ele></trkpt><trkpt lat="49.67803" lon="-1.75729"><ele>10.44</ele></trkpt><trkpt lat="49.67804" lon="-1.75748"><ele>10.04</ele></trkpt><trkpt lat="49.67804" lon="-1.75756"><ele>10.29</ele></trkpt><trkpt lat="49.67803" lon="-1.75769"><ele>10.99</ele></trkpt><trkpt lat="49.67801" lon="-1.75779"><ele>11.17</ele></trkpt><trkpt lat="49.67799" lon="-1.75788"><ele>11.28</ele></trkpt><trkpt lat="49.67798" lon="-1.758"><ele>12.05</ele></trkpt><trkpt lat="49.67796" lon="-1.75814"><ele>12.37</ele></trkpt><trkpt lat="49.67795" lon="-1.75817"><ele>12.44</ele></trkpt><trkpt lat="49.67795" lon="-1.75824"><ele>12.22</ele></trkpt><trkpt lat="49.67793" lon="-1.75832"><ele>13.14</ele></trkpt><trkpt lat="49.67793" lon="-1.75839"><ele>13.39</ele></trkpt><trkpt lat="49.67793" lon="-1.75844"><ele>13.42</ele></trkpt><trkpt lat="49.67794" lon="-1.75848"><ele>13.48</ele></trkpt><trkpt lat="49.67795" lon="-1.75857"><ele>12.72</ele></trkpt><trkpt lat="49.67795" lon="-1.75867"><ele>12.59</ele></trkpt><trkpt lat="49.67795" lon="-1.75872"><ele>12.6</ele></trkpt><trkpt lat="49.67795" lon="-1.75889"><ele>12.48</ele></trkpt><trkpt lat="49.67797" lon="-1.759"><ele>12.85</ele></trkpt><trkpt lat="49.67798" lon="-1.75904"><ele>13.14</ele></trkpt><trkpt lat="49.678" lon="-1.75922"><ele>13.08</ele></trkpt><trkpt lat="49.678" lon="-1.75927"><ele>13.3</ele></trkpt><trkpt lat="49.67801" lon="-1.75938"><ele>13.95</ele></trkpt><trkpt lat="49.67801" lon="-1.7595"><ele>14.44</ele></trkpt><trkpt lat="49.67802" lon="-1.75951"><ele>14.44</ele></trkpt><trkpt lat="49.67803" lon="-1.75953"><ele>14.38</ele></trkpt><trkpt lat="49.67805" lon="-1.75956"><ele>13.46</ele></trkpt><trkpt lat="49.67806" lon="-1.7596"><ele>13.58</ele></trkpt><trkpt lat="49.67806" lon="-1.75964"><ele>13.82</ele></trkpt><trkpt lat="49.67798" lon="-1.75985"><ele>15.83</ele></trkpt><trkpt lat="49.67793" lon="-1.76001"><ele>17.71</ele></trkpt><trkpt lat="49.67788" lon="-1.76023"><ele>19.64</ele></trkpt><trkpt lat="49.67784" lon="-1.76024"><ele>20.24</ele></trkpt><trkpt lat="49.67784" lon="-1.7603"><ele>20.43</ele></trkpt><trkpt lat="49.67782" lon="-1.76058"><ele>21.24</ele></trkpt><trkpt lat="49.6778" lon="-1.76084"><ele>22.99</ele></trkpt><trkpt lat="49.67779" lon="-1.7611"><ele>24.12</ele></trkpt><trkpt lat="49.67773" lon="-1.76108"><ele>24.45</ele></trkpt><trkpt lat="49.6777" lon="-1.76129"><ele>25.71</ele></trkpt><trkpt lat="49.67768" lon="-1.76139"><ele>27.21</ele></trkpt><trkpt lat="49.67765" lon="-1.76152"><ele>26.62</ele></trkpt><trkpt lat="49.6776" lon="-1.76171"><ele>29.23</ele></trkpt><trkpt lat="49.67751" lon="-1.76189"><ele>30.7</ele></trkpt><trkpt lat="49.67743" lon="-1.76206"><ele>30.1</ele></trkpt><trkpt lat="49.6773" lon="-1.76228"><ele>32.47</ele></trkpt><trkpt lat="49.67719" lon="-1.76245"><ele>32.69</ele></trkpt><trkpt lat="49.67709" lon="-1.76263"><ele>33.7</ele></trkpt><trkpt lat="49.67701" lon="-1.76285"><ele>34.8</ele></trkpt><trkpt lat="49.67698" lon="-1.76296"><ele>35.54</ele></trkpt><trkpt lat="49.67689" lon="-1.76287"><ele>37.13</ele></trkpt><trkpt lat="49.67685" lon="-1.76281"><ele>37.99</ele></trkpt><trkpt lat="49.67683" lon="-1.76278"><ele>38.52</ele></trkpt><trkpt lat="49.67675" lon="-1.76266"><ele>40.27</ele></trkpt><trkpt lat="49.67672" lon="-1.76262"><ele>40.57</ele></trkpt><trkpt lat="49.67651" lon="-1.76232"><ele>45.21</ele></trkpt><trkpt lat="49.67649" lon="-1.76229"><ele>45.56</ele></trkpt><trkpt lat="49.67644" lon="-1.76226"><ele>46.67</ele></trkpt><trkpt lat="49.67642" lon="-1.76225"><ele>46.67</ele></trkpt><trkpt lat="49.67638" lon="-1.76224"><ele>47.2</ele></trkpt><trkpt lat="49.67632" lon="-1.76224"><ele>47.85</ele></trkpt><trkpt lat="49.67624" lon="-1.76225"><ele>49.21</ele></trkpt><trkpt lat="49.67623" lon="-1.76225"><ele>49.21</ele></trkpt><trkpt lat="49.67606" lon="-1.76228"><ele>51.4</ele></trkpt><trkpt lat="49.676" lon="-1.76229"><ele>52.84</ele></trkpt><trkpt lat="49.67595" lon="-1.76229"><ele>53.12</ele></trkpt><trkpt lat="49.67591" lon="-1.76229"><ele>53.32</ele></trkpt><trkpt lat="49.67586" lon="-1.76227"><ele>54.14</ele></trkpt><trkpt lat="49.67585" lon="-1.76226"><ele>54.14</ele></trkpt><trkpt lat="49.67582" lon="-1.76224"><ele>54.32</ele></trkpt><trkpt lat="49.67575" lon="-1.76217"><ele>55.48</ele></trkpt><trkpt lat="49.6757" lon="-1.76212"><ele>56.13</ele></trkpt><trkpt lat="49.67558" lon="-1.76203"><ele>57.99</ele></trkpt><trkpt lat="49.67551" lon="-1.76201"><ele>58.7</ele></trkpt><trkpt lat="49.67545" lon="-1.762"><ele>59.48</ele></trkpt><trkpt lat="49.67539" lon="-1.76198"><ele>59.96</ele></trkpt><trkpt lat="49.67522" lon="-1.76198"><ele>61.89</ele></trkpt><trkpt lat="49.67517" lon="-1.76199"><ele>62.31</ele></trkpt><trkpt lat="49.67509" lon="-1.762"><ele>63.07</ele></trkpt><trkpt lat="49.67499" lon="-1.76204"><ele>64.02</ele></trkpt><trkpt lat="49.67498" lon="-1.76205"><ele>64.4</ele></trkpt><trkpt lat="49.67489" lon="-1.76211"><ele>65.52</ele></trkpt><trkpt lat="49.67481" lon="-1.76221"><ele>66.42</ele></trkpt><trkpt lat="49.67469" lon="-1.76235"><ele>67.93</ele></trkpt><trkpt lat="49.67457" lon="-1.76249"><ele>70.05</ele></trkpt><trkpt lat="49.67454" lon="-1.76253"><ele>70.52</ele></trkpt><trkpt lat="49.67453" lon="-1.76254"><ele>70.04</ele></trkpt><trkpt lat="49.67446" lon="-1.76262"><ele>70.44</ele></trkpt><trkpt lat="49.67437" lon="-1.76269"><ele>71.1</ele></trkpt><trkpt lat="49.67427" lon="-1.76275"><ele>71.6</ele></trkpt><trkpt lat="49.67418" lon="-1.76278"><ele>72.3</ele></trkpt><trkpt lat="49.67411" lon="-1.76281"><ele>72.63</ele></trkpt><trkpt lat="49.67404" lon="-1.76282"><ele>72.93</ele></trkpt><trkpt lat="49.67396" lon="-1.76284"><ele>73.41</ele></trkpt><trkpt lat="49.6737" lon="-1.76289"><ele>75.07</ele></trkpt><trkpt lat="49.67369" lon="-1.76289"><ele>75.52</ele></trkpt><trkpt lat="49.67352" lon="-1.76292"><ele>76.5</ele></trkpt><trkpt lat="49.67351" lon="-1.76292"><ele>76.5</ele></trkpt><trkpt lat="49.67336" lon="-1.76295"><ele>77.69</ele></trkpt><trkpt lat="49.67334" lon="-1.76295"><ele>78.27</ele></trkpt><trkpt lat="49.67317" lon="-1.76298"><ele>79.67</ele></trkpt><trkpt lat="49.67315" lon="-1.76299"><ele>79.67</ele></trkpt><trkpt lat="49.67314" lon="-1.76299"><ele>79.67</ele></trkpt><trkpt lat="49.67304" lon="-1.76302"><ele>80.82</ele></trkpt><trkpt lat="49.67298" lon="-1.76306"><ele>81.2</ele></trkpt><trkpt lat="49.67295" lon="-1.76308"><ele>82.87</ele></trkpt><trkpt lat="49.67289" lon="-1.76311"><ele>82.73</ele></trkpt><trkpt lat="49.67265" lon="-1.7633"><ele>85.65</ele></trkpt><trkpt lat="49.67264" lon="-1.7633"><ele>85.65</ele></trkpt><trkpt lat="49.67249" lon="-1.76343"><ele>89.21</ele></trkpt><trkpt lat="49.67248" lon="-1.76343"><ele>89.21</ele></trkpt><trkpt lat="49.67232" lon="-1.76355"><ele>90.83</ele></trkpt><trkpt lat="49.67216" lon="-1.76368"><ele>90.97</ele></trkpt><trkpt lat="49.67205" lon="-1.76377"><ele>91.79</ele></trkpt><trkpt lat="49.672" lon="-1.76381"><ele>91.78</ele></trkpt><trkpt lat="49.67184" lon="-1.76394"><ele>93.99</ele></trkpt><trkpt lat="49.67169" lon="-1.76408"><ele>93.48</ele></trkpt><trkpt lat="49.67153" lon="-1.76421"><ele>94.47</ele></trkpt><trkpt lat="49.6715" lon="-1.76424"><ele>95.45</ele></trkpt><trkpt lat="49.67137" lon="-1.76435"><ele>96.01</ele></trkpt><trkpt lat="49.67126" lon="-1.76445"><ele>96.69</ele></trkpt><trkpt lat="49.67122" lon="-1.76451"><ele>96.78</ele></trkpt><trkpt lat="49.67119" lon="-1.76454"><ele>97.79</ele></trkpt><trkpt lat="49.67114" lon="-1.76463"><ele>97.93</ele></trkpt><trkpt lat="49.67098" lon="-1.76493"><ele>100.26</ele></trkpt><trkpt lat="49.67082" lon="-1.76518"><ele>101.77</ele></trkpt><trkpt lat="49.67073" lon="-1.76529"><ele>101.96</ele></trkpt><trkpt lat="49.67068" lon="-1.76535"><ele>102.11</ele></trkpt><trkpt lat="49.67066" lon="-1.76537"><ele>101.2</ele></trkpt><trkpt lat="49.67056" lon="-1.76546"><ele>102.43</ele></trkpt><trkpt lat="49.6705" lon="-1.7655"><ele>102.6</ele></trkpt><trkpt lat="49.67048" lon="-1.76552"><ele>102.6</ele></trkpt><trkpt lat="49.6704" lon="-1.76558"><ele>104.05</ele></trkpt><trkpt lat="49.67037" lon="-1.7656"><ele>103.49</ele></trkpt><trkpt lat="49.67034" lon="-1.76561"><ele>104.55</ele></trkpt><trkpt lat="49.67028" lon="-1.76564"><ele>104.33</ele></trkpt><trkpt lat="49.67021" lon="-1.76568"><ele>104.61</ele></trkpt><trkpt lat="49.67017" lon="-1.76569"><ele>105.23</ele></trkpt><trkpt lat="49.67017" lon="-1.7657"><ele>105.23</ele></trkpt><trkpt lat="49.67012" lon="-1.76571"><ele>104.79</ele></trkpt><trkpt lat="49.66992" lon="-1.76575"><ele>106.03</ele></trkpt><trkpt lat="49.66983" lon="-1.76576"><ele>105.58</ele></trkpt><trkpt lat="49.66984" lon="-1.76563"><ele>105.61</ele></trkpt><trkpt lat="49.66985" lon="-1.76557"><ele>105.35</ele></trkpt><trkpt lat="49.66986" lon="-1.7655"><ele>105.21</ele></trkpt><trkpt lat="49.66992" lon="-1.76516"><ele>104.19</ele></trkpt><trkpt lat="49.66994" lon="-1.76503"><ele>103.55</ele></trkpt><trkpt lat="49.66995" lon="-1.76496"><ele>103.29</ele></trkpt><trkpt lat="49.66996" lon="-1.76486"><ele>103.22</ele></trkpt><trkpt lat="49.66998" lon="-1.76475"><ele>102.43</ele></trkpt><trkpt lat="49.66999" lon="-1.76462"><ele>102.03</ele></trkpt><trkpt lat="49.66999" lon="-1.7646"><ele>102.03</ele></trkpt><trkpt lat="49.67" lon="-1.76439"><ele>101.18</ele></trkpt><trkpt lat="49.67" lon="-1.76434"><ele>101</ele></trkpt><trkpt lat="49.67" lon="-1.76423"><ele>100.49</ele></trkpt><trkpt lat="49.67" lon="-1.76409"><ele>99.7</ele></trkpt><trkpt lat="49.67" lon="-1.76406"><ele>99.4</ele></trkpt><trkpt lat="49.66999" lon="-1.76398"><ele>98.78</ele></trkpt><trkpt lat="49.66995" lon="-1.76377"><ele>97.55</ele></trkpt><trkpt lat="49.66994" lon="-1.76363"><ele>96.32</ele></trkpt><trkpt lat="49.66992" lon="-1.76348"><ele>95.35</ele></trkpt><trkpt lat="49.66991" lon="-1.76335"><ele>95.23</ele></trkpt><trkpt lat="49.66991" lon="-1.76324"><ele>94.34</ele></trkpt><trkpt lat="49.66991" lon="-1.76319"><ele>93.94</ele></trkpt><trkpt lat="49.66992" lon="-1.76304"><ele>92.56</ele></trkpt><trkpt lat="49.66993" lon="-1.76297"><ele>92.28</ele></trkpt><trkpt lat="49.66993" lon="-1.76292"><ele>92.07</ele></trkpt><trkpt lat="49.66997" lon="-1.76271"><ele>90.97</ele></trkpt><trkpt lat="49.66997" lon="-1.7627"><ele>90.72</ele></trkpt><trkpt lat="49.67004" lon="-1.76234"><ele>89.04</ele></trkpt><trkpt lat="49.67006" lon="-1.76225"><ele>88.44</ele></trkpt><trkpt lat="49.67007" lon="-1.7622"><ele>88.26</ele></trkpt><trkpt lat="49.67008" lon="-1.76212"><ele>87.86</ele></trkpt><trkpt lat="49.67009" lon="-1.76194"><ele>87.07</ele></trkpt><trkpt lat="49.67009" lon="-1.7619"><ele>86.86</ele></trkpt><trkpt lat="49.67009" lon="-1.76189"><ele>86.86</ele></trkpt><trkpt lat="49.67009" lon="-1.76161"><ele>84.91</ele></trkpt><trkpt lat="49.67009" lon="-1.76157"><ele>84.62</ele></trkpt><trkpt lat="49.67008" lon="-1.76133"><ele>82.71</ele></trkpt><trkpt lat="49.67007" lon="-1.76105"><ele>80.79</ele></trkpt><trkpt lat="49.67001" lon="-1.76072"><ele>78.6</ele></trkpt><trkpt lat="49.66997" lon="-1.76048"><ele>77.55</ele></trkpt><trkpt lat="49.6699" lon="-1.76025"><ele>76.88</ele></trkpt><trkpt lat="49.66989" lon="-1.76022"><ele>76.88</ele></trkpt><trkpt lat="49.66986" lon="-1.76013"><ele>76.74</ele></trkpt><trkpt lat="49.66985" lon="-1.76009"><ele>76.94</ele></trkpt><trkpt lat="49.66981" lon="-1.75998"><ele>77.27</ele></trkpt><trkpt lat="49.66977" lon="-1.75987"><ele>77.72</ele></trkpt><trkpt lat="49.66973" lon="-1.75976"><ele>78.32</ele></trkpt><trkpt lat="49.66959" lon="-1.75939"><ele>79.92</ele></trkpt><trkpt lat="49.66953" lon="-1.75926"><ele>81.83</ele></trkpt><trkpt lat="49.66944" lon="-1.75903"><ele>80.25</ele></trkpt><trkpt lat="49.66928" lon="-1.75869"><ele>79.88</ele></trkpt><trkpt lat="49.66925" lon="-1.75864"><ele>80.01</ele></trkpt><trkpt lat="49.6692" lon="-1.75856"><ele>79.71</ele></trkpt><trkpt lat="49.66917" lon="-1.75851"><ele>79.75</ele></trkpt><trkpt lat="49.66903" lon="-1.75827"><ele>80.43</ele></trkpt><trkpt lat="49.66895" lon="-1.75813"><ele>80.9</ele></trkpt><trkpt lat="49.66888" lon="-1.75802"><ele>81.48</ele></trkpt><trkpt lat="49.66883" lon="-1.75795"><ele>81.77</ele></trkpt><trkpt lat="49.66886" lon="-1.75783"><ele>81.6</ele></trkpt><trkpt lat="49.66886" lon="-1.75775"><ele>81.5</ele></trkpt><trkpt lat="49.66886" lon="-1.75761"><ele>81.43</ele></trkpt><trkpt lat="49.66887" lon="-1.7575"><ele>81.44</ele></trkpt><trkpt lat="49.66889" lon="-1.75742"><ele>81.67</ele></trkpt><trkpt lat="49.66892" lon="-1.75734"><ele>82.48</ele></trkpt><trkpt lat="49.66895" lon="-1.75728"><ele>82.34</ele></trkpt><trkpt lat="49.66894" lon="-1.75722"><ele>82.57</ele></trkpt><trkpt lat="49.66892" lon="-1.75713"><ele>83.05</ele></trkpt><trkpt lat="49.66887" lon="-1.75701"><ele>83.26</ele></trkpt><trkpt lat="49.66882" lon="-1.75689"><ele>83.45</ele></trkpt><trkpt lat="49.66876" lon="-1.7568"><ele>84.08</ele></trkpt><trkpt lat="49.66872" lon="-1.75675"><ele>84.03</ele></trkpt><trkpt lat="49.6687" lon="-1.75665"><ele>84.32</ele></trkpt><trkpt lat="49.66846" lon="-1.75657"><ele>85.24</ele></trkpt><trkpt lat="49.6682" lon="-1.75643"><ele>86.52</ele></trkpt><trkpt lat="49.66806" lon="-1.75635"><ele>87.24</ele></trkpt><trkpt lat="49.66789" lon="-1.75625"><ele>88.41</ele></trkpt><trkpt lat="49.66757" lon="-1.75608"><ele>90.51</ele></trkpt><trkpt lat="49.66737" lon="-1.75598"><ele>91.02</ele></trkpt><trkpt lat="49.66721" lon="-1.75588"><ele>89.94</ele></trkpt><trkpt lat="49.66707" lon="-1.75578"><ele>89.04</ele></trkpt><trkpt lat="49.66701" lon="-1.75574"><ele>88.78</ele></trkpt><trkpt lat="49.66686" lon="-1.75566"><ele>87.5</ele></trkpt><trkpt lat="49.66671" lon="-1.7558"><ele>89.03</ele></trkpt><trkpt lat="49.66649" lon="-1.75604"><ele>89.47</ele></trkpt><trkpt lat="49.6664" lon="-1.75616"><ele>89.89</ele></trkpt><trkpt lat="49.66628" lon="-1.75633"><ele>90.55</ele></trkpt><trkpt lat="49.66608" lon="-1.75679"><ele>91.86</ele></trkpt><trkpt lat="49.66585" lon="-1.75726"><ele>93.87</ele></trkpt><trkpt lat="49.66583" lon="-1.7573"><ele>93.83</ele></trkpt><trkpt lat="49.66566" lon="-1.75774"><ele>95.73</ele></trkpt><trkpt lat="49.66565" lon="-1.75779"><ele>95.79</ele></trkpt><trkpt lat="49.66551" lon="-1.75829"><ele>98.38</ele></trkpt><trkpt lat="49.66545" lon="-1.7586"><ele>100.49</ele></trkpt><trkpt lat="49.66539" lon="-1.75893"><ele>103.11</ele></trkpt><trkpt lat="49.6653" lon="-1.75934"><ele>104.62</ele></trkpt><trkpt lat="49.66516" lon="-1.76011"><ele>107.15</ele></trkpt><trkpt lat="49.66515" lon="-1.76014"><ele>107.68</ele></trkpt><trkpt lat="49.66507" lon="-1.76064"><ele>108.43</ele></trkpt><trkpt lat="49.66501" lon="-1.76103"><ele>108.57</ele></trkpt><trkpt lat="49.665" lon="-1.76103"><ele>108.57</ele></trkpt><trkpt lat="49.66497" lon="-1.76126"><ele>108.08</ele></trkpt><trkpt lat="49.66514" lon="-1.76131"><ele>107.64</ele></trkpt><trkpt lat="49.66539" lon="-1.7614"><ele>103.97</ele></trkpt><trkpt lat="49.6655" lon="-1.76144"><ele>102.27</ele></trkpt><trkpt lat="49.66556" lon="-1.76151"><ele>102.42</ele></trkpt><trkpt lat="49.66558" lon="-1.76159"><ele>102.88</ele></trkpt><trkpt lat="49.66563" lon="-1.7617"><ele>103.28</ele></trkpt><trkpt lat="49.66565" lon="-1.76176"><ele>103.55</ele></trkpt><trkpt lat="49.6658" lon="-1.76205"><ele>106.12</ele></trkpt><trkpt lat="49.66588" lon="-1.76219"><ele>108.09</ele></trkpt><trkpt lat="49.66607" lon="-1.76252"><ele>108.17</ele></trkpt><trkpt lat="49.66608" lon="-1.76256"><ele>108.53</ele></trkpt><trkpt lat="49.6661" lon="-1.7626"><ele>108.31</ele></trkpt><trkpt lat="49.6661" lon="-1.76262"><ele>108.47</ele></trkpt><trkpt lat="49.6661" lon="-1.76265"><ele>108.47</ele></trkpt><trkpt lat="49.66611" lon="-1.76268"><ele>108.6</ele></trkpt><trkpt lat="49.6661" lon="-1.76273"><ele>108.75</ele></trkpt><trkpt lat="49.66608" lon="-1.76307"><ele>109.96</ele></trkpt><trkpt lat="49.66608" lon="-1.76318"><ele>110.29</ele></trkpt><trkpt lat="49.66607" lon="-1.76345"><ele>110.78</ele></trkpt><trkpt lat="49.66606" lon="-1.76373"><ele>111.2</ele></trkpt><trkpt lat="49.66606" lon="-1.76374"><ele>111.3</ele></trkpt><trkpt lat="49.66607" lon="-1.76392"><ele>111.55</ele></trkpt><trkpt lat="49.66608" lon="-1.76401"><ele>111.55</ele></trkpt><trkpt lat="49.66608" lon="-1.76409"><ele>111.57</ele></trkpt><trkpt lat="49.6661" lon="-1.76421"><ele>111.49</ele></trkpt><trkpt lat="49.66612" lon="-1.76428"><ele>111.5</ele></trkpt><trkpt lat="49.66614" lon="-1.76435"><ele>111.66</ele></trkpt><trkpt lat="49.6662" lon="-1.76451"><ele>111.26</ele></trkpt><trkpt lat="49.66637" lon="-1.76501"><ele>110.46</ele></trkpt><trkpt lat="49.66657" lon="-1.76558"><ele>110.05</ele></trkpt><trkpt lat="49.66662" lon="-1.7657"><ele>107.85</ele></trkpt><trkpt lat="49.66665" lon="-1.76581"><ele>107.91</ele></trkpt><trkpt lat="49.66669" lon="-1.76596"><ele>107.17</ele></trkpt><trkpt lat="49.6667" lon="-1.76604"><ele>107.06</ele></trkpt><trkpt lat="49.6667" lon="-1.76623"><ele>106.27</ele></trkpt><trkpt lat="49.66669" lon="-1.76641"><ele>105.43</ele></trkpt><trkpt lat="49.66669" lon="-1.76692"><ele>104.64</ele></trkpt><trkpt lat="49.66669" lon="-1.76697"><ele>104.55</ele></trkpt><trkpt lat="49.66668" lon="-1.7672"><ele>103.73</ele></trkpt><trkpt lat="49.66667" lon="-1.76725"><ele>103.57</ele></trkpt><trkpt lat="49.66667" lon="-1.76741"><ele>103.01</ele></trkpt><trkpt lat="49.66667" lon="-1.76748"><ele>102.92</ele></trkpt><trkpt lat="49.66667" lon="-1.76752"><ele>102.9</ele></trkpt><trkpt lat="49.66668" lon="-1.76757"><ele>102.9</ele></trkpt><trkpt lat="49.66672" lon="-1.76779"><ele>103.24</ele></trkpt><trkpt lat="49.66673" lon="-1.76784"><ele>103.35</ele></trkpt><trkpt lat="49.66674" lon="-1.7679"><ele>103.61</ele></trkpt><trkpt lat="49.66674" lon="-1.76806"><ele>104.3</ele></trkpt><trkpt lat="49.66674" lon="-1.76811"><ele>104.5</ele></trkpt><trkpt lat="49.66674" lon="-1.7682"><ele>105.17</ele></trkpt><trkpt lat="49.66676" lon="-1.76829"><ele>105.99</ele></trkpt><trkpt lat="49.66678" lon="-1.76833"><ele>106.6</ele></trkpt><trkpt lat="49.66681" lon="-1.76839"><ele>107.13</ele></trkpt><trkpt lat="49.66691" lon="-1.7685"><ele>108.84</ele></trkpt><trkpt lat="49.66707" lon="-1.76866"><ele>110.45</ele></trkpt><trkpt lat="49.66722" lon="-1.76881"><ele>112.65</ele></trkpt><trkpt lat="49.66734" lon="-1.76891"><ele>113.3</ele></trkpt><trkpt lat="49.66741" lon="-1.76897"><ele>114.03</ele></trkpt><trkpt lat="49.6673" lon="-1.76926"><ele>114.5</ele></trkpt><trkpt lat="49.66724" lon="-1.7695"><ele>115.74</ele></trkpt><trkpt lat="49.66718" lon="-1.76979"><ele>116.95</ele></trkpt><trkpt lat="49.66714" lon="-1.76999"><ele>117.16</ele></trkpt><trkpt lat="49.66709" lon="-1.77022"><ele>117.89</ele></trkpt><trkpt lat="49.66709" lon="-1.77023"><ele>117.89</ele></trkpt><trkpt lat="49.66704" lon="-1.7705"><ele>118.2</ele></trkpt><trkpt lat="49.66697" lon="-1.77085"><ele>119.87</ele></trkpt><trkpt lat="49.66695" lon="-1.77095"><ele>120.36</ele></trkpt><trkpt lat="49.66689" lon="-1.77116"><ele>121.22</ele></trkpt><trkpt lat="49.66685" lon="-1.77129"><ele>121.49</ele></trkpt><trkpt lat="49.66683" lon="-1.77138"><ele>122.13</ele></trkpt><trkpt lat="49.66659" lon="-1.77202"><ele>123.98</ele></trkpt><trkpt lat="49.66655" lon="-1.77214"><ele>124.13</ele></trkpt><trkpt lat="49.66653" lon="-1.7722"><ele>124.97</ele></trkpt><trkpt lat="49.66651" lon="-1.77227"><ele>124.7</ele></trkpt><trkpt lat="49.6664" lon="-1.77257"><ele>126.88</ele></trkpt><trkpt lat="49.66633" lon="-1.77279"><ele>128.01</ele></trkpt><trkpt lat="49.66625" lon="-1.773"><ele>127.54</ele></trkpt><trkpt lat="49.66619" lon="-1.77294"><ele>127.7</ele></trkpt><trkpt lat="49.66572" lon="-1.77399"><ele>131.61</ele></trkpt><trkpt lat="49.6657" lon="-1.77404"><ele>131.95</ele></trkpt><trkpt lat="49.66565" lon="-1.77414"><ele>132.17</ele></trkpt><trkpt lat="49.66561" lon="-1.77425"><ele>132.28</ele></trkpt><trkpt lat="49.6656" lon="-1.77428"><ele>132.28</ele></trkpt><trkpt lat="49.66557" lon="-1.77438"><ele>132.62</ele></trkpt><trkpt lat="49.6655" lon="-1.77463"><ele>132.64</ele></trkpt><trkpt lat="49.66546" lon="-1.77479"><ele>133.06</ele></trkpt><trkpt lat="49.66543" lon="-1.77498"><ele>133.69</ele></trkpt><trkpt lat="49.66542" lon="-1.77508"><ele>133.71</ele></trkpt><trkpt lat="49.66539" lon="-1.77537"><ele>135.25</ele></trkpt><trkpt lat="49.66536" lon="-1.77591"><ele>136.81</ele></trkpt><trkpt lat="49.66533" lon="-1.77641"><ele>136.36</ele></trkpt><trkpt lat="49.6653" lon="-1.7767"><ele>137.43</ele></trkpt><trkpt lat="49.6653" lon="-1.77674"><ele>137.49</ele></trkpt><trkpt lat="49.66528" lon="-1.77702"><ele>138.93</ele></trkpt><trkpt lat="49.66528" lon="-1.77707"><ele>139.01</ele></trkpt><trkpt lat="49.66526" lon="-1.77757"><ele>139.92</ele></trkpt><trkpt lat="49.66525" lon="-1.77783"><ele>140.79</ele></trkpt><trkpt lat="49.66525" lon="-1.77784"><ele>140.79</ele></trkpt><trkpt lat="49.66522" lon="-1.7782"><ele>143.4</ele></trkpt><trkpt lat="49.66521" lon="-1.7782"><ele>143.4</ele></trkpt><trkpt lat="49.6652" lon="-1.77834"><ele>143.27</ele></trkpt><trkpt lat="49.66519" lon="-1.77845"><ele>143.54</ele></trkpt><trkpt lat="49.66514" lon="-1.77844"><ele>144.04</ele></trkpt><trkpt lat="49.6651" lon="-1.77844"><ele>145.02</ele></trkpt><trkpt lat="49.66496" lon="-1.77838"><ele>144.75</ele></trkpt><trkpt lat="49.66479" lon="-1.77832"><ele>143.13</ele></trkpt><trkpt lat="49.66478" lon="-1.77832"><ele>143.13</ele></trkpt><trkpt lat="49.66472" lon="-1.77829"><ele>142.8</ele></trkpt><trkpt lat="49.66462" lon="-1.77825"><ele>142</ele></trkpt><trkpt lat="49.66451" lon="-1.7782"><ele>141.28</ele></trkpt><trkpt lat="49.66439" lon="-1.77814"><ele>138.93</ele></trkpt><trkpt lat="49.66431" lon="-1.77809"><ele>137.61</ele></trkpt><trkpt lat="49.66418" lon="-1.77801"><ele>137.24</ele></trkpt><trkpt lat="49.66412" lon="-1.77797"><ele>136.7</ele></trkpt><trkpt lat="49.66405" lon="-1.77793"><ele>136.46</ele></trkpt><trkpt lat="49.66393" lon="-1.77786"><ele>136.68</ele></trkpt><trkpt lat="49.66379" lon="-1.77776"><ele>135.72</ele></trkpt><trkpt lat="49.66376" lon="-1.77774"><ele>135.74</ele></trkpt><trkpt lat="49.66369" lon="-1.77768"><ele>134.8</ele></trkpt><trkpt lat="49.66362" lon="-1.77762"><ele>133.73</ele></trkpt><trkpt lat="49.6636" lon="-1.77761"><ele>134.23</ele></trkpt><trkpt lat="49.66357" lon="-1.77758"><ele>132.83</ele></trkpt><trkpt lat="49.6635" lon="-1.77752"><ele>131.4</ele></trkpt><trkpt lat="49.66341" lon="-1.77744"><ele>130.42</ele></trkpt><trkpt lat="49.66333" lon="-1.77738"><ele>130.12</ele></trkpt><trkpt lat="49.66329" lon="-1.77736"><ele>130.11</ele></trkpt><trkpt lat="49.66325" lon="-1.77733"><ele>129.97</ele></trkpt><trkpt lat="49.66309" lon="-1.77722"><ele>129.91</ele></trkpt><trkpt lat="49.663" lon="-1.77714"><ele>130.21</ele></trkpt><trkpt lat="49.66298" lon="-1.77713"><ele>130.21</ele></trkpt><trkpt lat="49.66272" lon="-1.77694"><ele>130.66</ele></trkpt><trkpt lat="49.66269" lon="-1.77689"><ele>130.52</ele></trkpt><trkpt lat="49.66267" lon="-1.77684"><ele>130.31</ele></trkpt><trkpt lat="49.66265" lon="-1.77678"><ele>130.52</ele></trkpt><trkpt lat="49.66263" lon="-1.77672"><ele>130.48</ele></trkpt><trkpt lat="49.66263" lon="-1.77666"><ele>130.48</ele></trkpt><trkpt lat="49.66263" lon="-1.7766"><ele>130.54</ele></trkpt><trkpt lat="49.66263" lon="-1.77653"><ele>130.55</ele></trkpt><trkpt lat="49.66264" lon="-1.77624"><ele>130.48</ele></trkpt><trkpt lat="49.66247" lon="-1.77619"><ele>131.83</ele></trkpt><trkpt lat="49.6623" lon="-1.77614"><ele>133.66</ele></trkpt><trkpt lat="49.66212" lon="-1.77608"><ele>133.21</ele></trkpt><trkpt lat="49.66194" lon="-1.77603"><ele>135.8</ele></trkpt><trkpt lat="49.66177" lon="-1.77597"><ele>138.19</ele></trkpt><trkpt lat="49.66152" lon="-1.77589"><ele>139.52</ele></trkpt><trkpt lat="49.66141" lon="-1.77587"><ele>140.52</ele></trkpt><trkpt lat="49.66142" lon="-1.77619"><ele>139.85</ele></trkpt><trkpt lat="49.66143" lon="-1.77626"><ele>139.13</ele></trkpt><trkpt lat="49.66143" lon="-1.77647"><ele>138.33</ele></trkpt><trkpt lat="49.66144" lon="-1.77673"><ele>137.29</ele></trkpt><trkpt lat="49.66147" lon="-1.7773"><ele>134.97</ele></trkpt><trkpt lat="49.66148" lon="-1.77758"><ele>134.31</ele></trkpt><trkpt lat="49.66148" lon="-1.77767"><ele>134.18</ele></trkpt><trkpt lat="49.66153" lon="-1.77813"><ele>134.24</ele></trkpt><trkpt lat="49.66162" lon="-1.77886"><ele>134.97</ele></trkpt><trkpt lat="49.66166" lon="-1.77913"><ele>135.12</ele></trkpt><trkpt lat="49.66166" lon="-1.77915"><ele>135.2</ele></trkpt><trkpt lat="49.66168" lon="-1.77933"><ele>135.64</ele></trkpt><trkpt lat="49.66169" lon="-1.7794"><ele>135.76</ele></trkpt><trkpt lat="49.66169" lon="-1.77942"><ele>135.76</ele></trkpt><trkpt lat="49.6617" lon="-1.77951"><ele>135.9</ele></trkpt><trkpt lat="49.6617" lon="-1.77959"><ele>136.02</ele></trkpt><trkpt lat="49.6617" lon="-1.77968"><ele>136.24</ele></trkpt><trkpt lat="49.6617" lon="-1.7797"><ele>136.35</ele></trkpt><trkpt lat="49.66169" lon="-1.7798"><ele>136.67</ele></trkpt><trkpt lat="49.66159" lon="-1.78057"><ele>139.91</ele></trkpt><trkpt lat="49.66153" lon="-1.78094"><ele>141.3</ele></trkpt><trkpt lat="49.66152" lon="-1.78104"><ele>141.62</ele></trkpt><trkpt lat="49.66149" lon="-1.78117"><ele>141.86</ele></trkpt><trkpt lat="49.66147" lon="-1.78131"><ele>141.77</ele></trkpt><trkpt lat="49.66146" lon="-1.78135"><ele>141.82</ele></trkpt><trkpt lat="49.66136" lon="-1.78192"><ele>140.96</ele></trkpt><trkpt lat="49.66131" lon="-1.78227"><ele>140.81</ele></trkpt><trkpt lat="49.66129" lon="-1.78238"><ele>140.84</ele></trkpt><trkpt lat="49.66128" lon="-1.78247"><ele>140.76</ele></trkpt><trkpt lat="49.66127" lon="-1.78252"><ele>140.78</ele></trkpt><trkpt lat="49.66124" lon="-1.78263"><ele>140.64</ele></trkpt><trkpt lat="49.66122" lon="-1.78264"><ele>140.64</ele></trkpt><trkpt lat="49.66111" lon="-1.78267"><ele>140.71</ele></trkpt><trkpt lat="49.66086" lon="-1.78275"><ele>141.02</ele></trkpt><trkpt lat="49.66069" lon="-1.78284"><ele>141.21</ele></trkpt><trkpt lat="49.66052" lon="-1.78292"><ele>141.84</ele></trkpt><trkpt lat="49.66046" lon="-1.78295"><ele>142.42</ele></trkpt><trkpt lat="49.6604" lon="-1.78297"><ele>142.1</ele></trkpt><trkpt lat="49.66031" lon="-1.78301"><ele>141.92</ele></trkpt><trkpt lat="49.66021" lon="-1.78303"><ele>142.67</ele></trkpt><trkpt lat="49.65973" lon="-1.78308"><ele>143.03</ele></trkpt><trkpt lat="49.65967" lon="-1.78309"><ele>142.7</ele></trkpt><trkpt lat="49.65964" lon="-1.78308"><ele>143.22</ele></trkpt><trkpt lat="49.65962" lon="-1.78308"><ele>143.22</ele></trkpt><trkpt lat="49.6596" lon="-1.78307"><ele>143.01</ele></trkpt><trkpt lat="49.65956" lon="-1.78305"><ele>142.91</ele></trkpt><trkpt lat="49.65949" lon="-1.783"><ele>143.29</ele></trkpt><trkpt lat="49.65945" lon="-1.78296"><ele>143.94</ele></trkpt><trkpt lat="49.65934" lon="-1.78287"><ele>143.92</ele></trkpt><trkpt lat="49.65931" lon="-1.78285"><ele>143.56</ele></trkpt><trkpt lat="49.65918" lon="-1.78273"><ele>144.22</ele></trkpt><trkpt lat="49.65903" lon="-1.78259"><ele>144.81</ele></trkpt><trkpt lat="49.65901" lon="-1.78257"><ele>144.91</ele></trkpt><trkpt lat="49.65896" lon="-1.78253"><ele>145.18</ele></trkpt><trkpt lat="49.65892" lon="-1.7825"><ele>145</ele></trkpt><trkpt lat="49.65888" lon="-1.78249"><ele>145.25</ele></trkpt><trkpt lat="49.65884" lon="-1.7825"><ele>145.52</ele></trkpt><trkpt lat="49.65881" lon="-1.78251"><ele>145.52</ele></trkpt><trkpt lat="49.65877" lon="-1.78253"><ele>145.79</ele></trkpt><trkpt lat="49.65873" lon="-1.78257"><ele>146.14</ele></trkpt><trkpt lat="49.65866" lon="-1.78261"><ele>147.22</ele></trkpt><trkpt lat="49.65862" lon="-1.78263"><ele>147.23</ele></trkpt><trkpt lat="49.65861" lon="-1.78263"><ele>147.23</ele></trkpt><trkpt lat="49.65858" lon="-1.78262"><ele>147.48</ele></trkpt><trkpt lat="49.65855" lon="-1.7826"><ele>147.9</ele></trkpt><trkpt lat="49.65848" lon="-1.78254"><ele>148.29</ele></trkpt><trkpt lat="49.65801" lon="-1.78216"><ele>149.69</ele></trkpt><trkpt lat="49.6577" lon="-1.7819"><ele>149.56</ele></trkpt><trkpt lat="49.6575" lon="-1.78173"><ele>150.25</ele></trkpt><trkpt lat="49.6573" lon="-1.78161"><ele>150.28</ele></trkpt><trkpt lat="49.65719" lon="-1.78156"><ele>150.19</ele></trkpt><trkpt lat="49.65699" lon="-1.78146"><ele>149.7</ele></trkpt><trkpt lat="49.65634" lon="-1.78109"><ele>149.13</ele></trkpt><trkpt lat="49.65631" lon="-1.78108"><ele>149.24</ele></trkpt><trkpt lat="49.65616" lon="-1.78102"><ele>149.32</ele></trkpt><trkpt lat="49.65601" lon="-1.78096"><ele>149.36</ele></trkpt><trkpt lat="49.6555" lon="-1.78076"><ele>146.47</ele></trkpt><trkpt lat="49.65541" lon="-1.78073"><ele>145.47</ele></trkpt><trkpt lat="49.6554" lon="-1.78068"><ele>145.44</ele></trkpt><trkpt lat="49.65539" lon="-1.78057"><ele>145.54</ele></trkpt><trkpt lat="49.65538" lon="-1.78051"><ele>145.49</ele></trkpt><trkpt lat="49.65537" lon="-1.78042"><ele>145.18</ele></trkpt><trkpt lat="49.65535" lon="-1.78028"><ele>144.82</ele></trkpt><trkpt lat="49.65534" lon="-1.78024"><ele>144.68</ele></trkpt><trkpt lat="49.65529" lon="-1.77998"><ele>143.75</ele></trkpt><trkpt lat="49.65525" lon="-1.77971"><ele>142.73</ele></trkpt><trkpt lat="49.65523" lon="-1.77963"><ele>142.3</ele></trkpt><trkpt lat="49.6552" lon="-1.77944"><ele>141.54</ele></trkpt><trkpt lat="49.65515" lon="-1.77917"><ele>140.39</ele></trkpt><trkpt lat="49.65505" lon="-1.77864"><ele>138.1</ele></trkpt><trkpt lat="49.655" lon="-1.77837"><ele>135.1</ele></trkpt><trkpt lat="49.655" lon="-1.77836"><ele>134.48</ele></trkpt><trkpt lat="49.65493" lon="-1.77811"><ele>134.89</ele></trkpt><trkpt lat="49.6549" lon="-1.77797"><ele>134.91</ele></trkpt><trkpt lat="49.65487" lon="-1.77786"><ele>134.68</ele></trkpt><trkpt lat="49.65479" lon="-1.7776"><ele>133.24</ele></trkpt><trkpt lat="49.65478" lon="-1.77757"><ele>132.94</ele></trkpt><trkpt lat="49.65473" lon="-1.77735"><ele>132.8</ele></trkpt><trkpt lat="49.65468" lon="-1.77725"><ele>132.53</ele></trkpt><trkpt lat="49.65455" lon="-1.77707"><ele>131.67</ele></trkpt><trkpt lat="49.65447" lon="-1.77698"><ele>131.21</ele></trkpt><trkpt lat="49.65441" lon="-1.77691"><ele>130.48</ele></trkpt><trkpt lat="49.65436" lon="-1.77685"><ele>129.82</ele></trkpt><trkpt lat="49.65432" lon="-1.77682"><ele>129.35</ele></trkpt><trkpt lat="49.65431" lon="-1.77681"><ele>129.35</ele></trkpt><trkpt lat="49.65416" lon="-1.77671"><ele>127.81</ele></trkpt><trkpt lat="49.65399" lon="-1.7766"><ele>125.74</ele></trkpt><trkpt lat="49.65383" lon="-1.7765"><ele>124.15</ele></trkpt><trkpt lat="49.65376" lon="-1.77647"><ele>122.88</ele></trkpt><trkpt lat="49.65367" lon="-1.77642"><ele>121.34</ele></trkpt><trkpt lat="49.65365" lon="-1.77642"><ele>120.63</ele></trkpt><trkpt lat="49.65353" lon="-1.77637"><ele>119.02</ele></trkpt><trkpt lat="49.65348" lon="-1.77635"><ele>117.68</ele></trkpt><trkpt lat="49.65335" lon="-1.77631"><ele>116.53</ele></trkpt><trkpt lat="49.65332" lon="-1.7763"><ele>116.41</ele></trkpt><trkpt lat="49.6533" lon="-1.77629"><ele>116.23</ele></trkpt><trkpt lat="49.65319" lon="-1.77626"><ele>116.07</ele></trkpt><trkpt lat="49.65315" lon="-1.77624"><ele>116.17</ele></trkpt><trkpt lat="49.65313" lon="-1.77622"><ele>116.37</ele></trkpt><trkpt lat="49.65307" lon="-1.77617"><ele>116.71</ele></trkpt><trkpt lat="49.65306" lon="-1.7761"><ele>116.72</ele></trkpt><trkpt lat="49.65305" lon="-1.776"><ele>117.21</ele></trkpt><trkpt lat="49.65305" lon="-1.77595"><ele>117.16</ele></trkpt><trkpt lat="49.65303" lon="-1.77578"><ele>116.98</ele></trkpt><trkpt lat="49.65303" lon="-1.77572"><ele>116.94</ele></trkpt><trkpt lat="49.65302" lon="-1.77544"><ele>116.68</ele></trkpt><trkpt lat="49.65302" lon="-1.77536"><ele>116.59</ele></trkpt><trkpt lat="49.65301" lon="-1.77517"><ele>116.97</ele></trkpt><trkpt lat="49.65299" lon="-1.77489"><ele>116.46</ele></trkpt><trkpt lat="49.65297" lon="-1.77463"><ele>116.18</ele></trkpt><trkpt lat="49.65297" lon="-1.77461"><ele>116.18</ele></trkpt><trkpt lat="49.65296" lon="-1.77434"><ele>117.42</ele></trkpt><trkpt lat="49.65295" lon="-1.77406"><ele>117.98</ele></trkpt><trkpt lat="49.65294" lon="-1.77378"><ele>118.58</ele></trkpt><trkpt lat="49.65294" lon="-1.77361"><ele>118.92</ele></trkpt><trkpt lat="49.65293" lon="-1.7735"><ele>119.03</ele></trkpt><trkpt lat="49.65292" lon="-1.77338"><ele>120.14</ele></trkpt><trkpt lat="49.65291" lon="-1.77329"><ele>119.97</ele></trkpt><trkpt lat="49.65289" lon="-1.77324"><ele>119.87</ele></trkpt><trkpt lat="49.65287" lon="-1.77319"><ele>120.9</ele></trkpt><trkpt lat="49.65285" lon="-1.77305"><ele>120.66</ele></trkpt><trkpt lat="49.65284" lon="-1.77297"><ele>120.73</ele></trkpt><trkpt lat="49.65283" lon="-1.77289"><ele>122.03</ele></trkpt><trkpt lat="49.65282" lon="-1.7727"><ele>123.19</ele></trkpt><trkpt lat="49.65282" lon="-1.77245"><ele>123.99</ele></trkpt><trkpt lat="49.65282" lon="-1.77242"><ele>124.04</ele></trkpt><trkpt lat="49.65282" lon="-1.77214"><ele>123.54</ele></trkpt><trkpt lat="49.65282" lon="-1.77186"><ele>122.44</ele></trkpt><trkpt lat="49.65282" lon="-1.77174"><ele>121.84</ele></trkpt><trkpt lat="49.65283" lon="-1.77159"><ele>121.21</ele></trkpt><trkpt lat="49.65283" lon="-1.77138"><ele>120.32</ele></trkpt><trkpt lat="49.65283" lon="-1.77131"><ele>120.01</ele></trkpt><trkpt lat="49.65283" lon="-1.77129"><ele>120.01</ele></trkpt><trkpt lat="49.65283" lon="-1.77103"><ele>118.83</ele></trkpt><trkpt lat="49.65283" lon="-1.77091"><ele>118.4</ele></trkpt><trkpt lat="49.65281" lon="-1.77076"><ele>117.43</ele></trkpt><trkpt lat="49.6528" lon="-1.77074"><ele>117.43</ele></trkpt><trkpt lat="49.65275" lon="-1.77052"><ele>117.56</ele></trkpt><trkpt lat="49.65275" lon="-1.7705"><ele>117.41</ele></trkpt><trkpt lat="49.65274" lon="-1.77047"><ele>117.3</ele></trkpt><trkpt lat="49.65272" lon="-1.77022"><ele>117.23</ele></trkpt><trkpt lat="49.65268" lon="-1.76997"><ele>118.53</ele></trkpt><trkpt lat="49.65268" lon="-1.76995"><ele>118.77</ele></trkpt><trkpt lat="49.65263" lon="-1.76968"><ele>120.84</ele></trkpt><trkpt lat="49.65261" lon="-1.76954"><ele>121.57</ele></trkpt><trkpt lat="49.65257" lon="-1.76914"><ele>124.88</ele></trkpt><trkpt lat="49.65257" lon="-1.76886"><ele>126.05</ele></trkpt><trkpt lat="49.65257" lon="-1.76879"><ele>126.45</ele></trkpt><trkpt lat="49.65257" lon="-1.76864"><ele>127.14</ele></trkpt><trkpt lat="49.65256" lon="-1.7686"><ele>126.93</ele></trkpt><trkpt lat="49.65253" lon="-1.76854"><ele>126.72</ele></trkpt><trkpt lat="49.65256" lon="-1.76846"><ele>126.71</ele></trkpt><trkpt lat="49.65258" lon="-1.76839"><ele>127.1</ele></trkpt><trkpt lat="49.6526" lon="-1.7683"><ele>127.39</ele></trkpt><trkpt lat="49.6526" lon="-1.76828"><ele>127.56</ele></trkpt><trkpt lat="49.65261" lon="-1.76818"><ele>127.88</ele></trkpt><trkpt lat="49.65262" lon="-1.768"><ele>128.26</ele></trkpt><trkpt lat="49.65262" lon="-1.76792"><ele>128.46</ele></trkpt><trkpt lat="49.65263" lon="-1.76773"><ele>128.64</ele></trkpt><trkpt lat="49.65264" lon="-1.76758"><ele>128.98</ele></trkpt><trkpt lat="49.65264" lon="-1.76755"><ele>129.04</ele></trkpt><trkpt lat="49.65275" lon="-1.76692"><ele>128.2</ele></trkpt><trkpt lat="49.6528" lon="-1.76673"><ele>127.89</ele></trkpt><trkpt lat="49.65282" lon="-1.76667"><ele>128.07</ele></trkpt><trkpt lat="49.65282" lon="-1.76666"><ele>128.07</ele></trkpt><trkpt lat="49.65292" lon="-1.76637"><ele>128.84</ele></trkpt><trkpt lat="49.65299" lon="-1.76617"><ele>128.8</ele></trkpt><trkpt lat="49.65302" lon="-1.76605"><ele>129.04</ele></trkpt><trkpt lat="49.65306" lon="-1.76592"><ele>129.27</ele></trkpt><trkpt lat="49.6531" lon="-1.76581"><ele>129.28</ele></trkpt><trkpt lat="49.65315" lon="-1.76567"><ele>129.48</ele></trkpt><trkpt lat="49.65315" lon="-1.76566"><ele>129.57</ele></trkpt><trkpt lat="49.65317" lon="-1.76563"><ele>129.57</ele></trkpt><trkpt lat="49.65319" lon="-1.76561"><ele>129.48</ele></trkpt><trkpt lat="49.65322" lon="-1.76557"><ele>129.49</ele></trkpt><trkpt lat="49.65327" lon="-1.76554"><ele>130.04</ele></trkpt><trkpt lat="49.65332" lon="-1.76553"><ele>129.16</ele></trkpt><trkpt lat="49.65345" lon="-1.7655"><ele>128.67</ele></trkpt><trkpt lat="49.65348" lon="-1.7655"><ele>128.67</ele></trkpt><trkpt lat="49.65357" lon="-1.76548"><ele>127.81</ele></trkpt><trkpt lat="49.65359" lon="-1.76546"><ele>127.81</ele></trkpt><trkpt lat="49.6536" lon="-1.76544"><ele>128.16</ele></trkpt><trkpt lat="49.65362" lon="-1.76537"><ele>128.08</ele></trkpt><trkpt lat="49.65363" lon="-1.76534"><ele>128.37</ele></trkpt><trkpt lat="49.65364" lon="-1.76528"><ele>128.92</ele></trkpt><trkpt lat="49.65365" lon="-1.7651"><ele>130.77</ele></trkpt><trkpt lat="49.65369" lon="-1.76461"><ele>133.24</ele></trkpt><trkpt lat="49.65369" lon="-1.76455"><ele>133.56</ele></trkpt><trkpt lat="49.6537" lon="-1.76427"><ele>134.09</ele></trkpt><trkpt lat="49.65371" lon="-1.7642"><ele>134.27</ele></trkpt><trkpt lat="49.65371" lon="-1.76408"><ele>134.43</ele></trkpt><trkpt lat="49.65371" lon="-1.764"><ele>134.54</ele></trkpt><trkpt lat="49.65372" lon="-1.76372"><ele>134.37</ele></trkpt><trkpt lat="49.65373" lon="-1.76344"><ele>133.92</ele></trkpt><trkpt lat="49.65373" lon="-1.76336"><ele>133.74</ele></trkpt><trkpt lat="49.65372" lon="-1.76281"><ele>133.39</ele></trkpt><trkpt lat="49.65372" lon="-1.76276"><ele>133.28</ele></trkpt><trkpt lat="49.65372" lon="-1.76273"><ele>133.02</ele></trkpt><trkpt lat="49.65371" lon="-1.76261"><ele>132.69</ele></trkpt><trkpt lat="49.65371" lon="-1.76233"><ele>132.34</ele></trkpt><trkpt lat="49.65371" lon="-1.76205"><ele>132</ele></trkpt><trkpt lat="49.65371" lon="-1.76153"><ele>131.82</ele></trkpt><trkpt lat="49.65371" lon="-1.7615"><ele>131.78</ele></trkpt><trkpt lat="49.65372" lon="-1.76136"><ele>131.7</ele></trkpt><trkpt lat="49.65372" lon="-1.76122"><ele>131.72</ele></trkpt><trkpt lat="49.65373" lon="-1.76094"><ele>131.53</ele></trkpt><trkpt lat="49.65374" lon="-1.76074"><ele>129.34</ele></trkpt><trkpt lat="49.65376" lon="-1.76039"><ele>128.4</ele></trkpt><trkpt lat="49.65377" lon="-1.76009"><ele>128.66</ele></trkpt><trkpt lat="49.6538" lon="-1.75965"><ele>126.54</ele></trkpt><trkpt lat="49.65382" lon="-1.75909"><ele>125.9</ele></trkpt><trkpt lat="49.65383" lon="-1.759"><ele>124.76</ele></trkpt><trkpt lat="49.65384" lon="-1.75895"><ele>124.58</ele></trkpt><trkpt lat="49.65386" lon="-1.75882"><ele>124.29</ele></trkpt><trkpt lat="49.65386" lon="-1.75881"><ele>124.29</ele></trkpt><trkpt lat="49.6539" lon="-1.75863"><ele>123.62</ele></trkpt><trkpt lat="49.65392" lon="-1.75856"><ele>123.14</ele></trkpt><trkpt lat="49.65399" lon="-1.75831"><ele>121.46</ele></trkpt><trkpt lat="49.65401" lon="-1.75825"><ele>121.14</ele></trkpt><trkpt lat="49.65402" lon="-1.75821"><ele>120.92</ele></trkpt><trkpt lat="49.65403" lon="-1.75814"><ele>120.49</ele></trkpt><trkpt lat="49.65404" lon="-1.75804"><ele>119.89</ele></trkpt><trkpt lat="49.65407" lon="-1.75782"><ele>118.72</ele></trkpt><trkpt lat="49.65407" lon="-1.75779"><ele>118.39</ele></trkpt><trkpt lat="49.65408" lon="-1.75777"><ele>118.39</ele></trkpt><trkpt lat="49.65409" lon="-1.75749"><ele>116.7</ele></trkpt><trkpt lat="49.65411" lon="-1.75722"><ele>116.04</ele></trkpt><trkpt lat="49.65411" lon="-1.75718"><ele>116</ele></trkpt><trkpt lat="49.65412" lon="-1.75706"><ele>115.71</ele></trkpt><trkpt lat="49.65413" lon="-1.75694"><ele>115.94</ele></trkpt><trkpt lat="49.65414" lon="-1.75687"><ele>116.04</ele></trkpt><trkpt lat="49.65416" lon="-1.75677"><ele>116.16</ele></trkpt><trkpt lat="49.65418" lon="-1.75667"><ele>116.37</ele></trkpt><trkpt lat="49.65426" lon="-1.75642"><ele>117.38</ele></trkpt><trkpt lat="49.65438" lon="-1.75604"><ele>119.68</ele></trkpt><trkpt lat="49.6545" lon="-1.75568"><ele>121.73</ele></trkpt><trkpt lat="49.65457" lon="-1.75543"><ele>122.53</ele></trkpt><trkpt lat="49.65459" lon="-1.75536"><ele>123.27</ele></trkpt><trkpt lat="49.65463" lon="-1.75519"><ele>123.48</ele></trkpt><trkpt lat="49.65464" lon="-1.75517"><ele>123.48</ele></trkpt><trkpt lat="49.65468" lon="-1.7549"><ele>124.26</ele></trkpt><trkpt lat="49.6547" lon="-1.75478"><ele>124.44</ele></trkpt><trkpt lat="49.65471" lon="-1.75469"><ele>124.62</ele></trkpt><trkpt lat="49.65472" lon="-1.75462"><ele>124.91</ele></trkpt><trkpt lat="49.65472" lon="-1.75461"><ele>124.91</ele></trkpt><trkpt lat="49.65472" lon="-1.75452"><ele>125.17</ele></trkpt><trkpt lat="49.65472" lon="-1.75445"><ele>125.49</ele></trkpt><trkpt lat="49.65473" lon="-1.75379"><ele>126.47</ele></trkpt><trkpt lat="49.65473" lon="-1.75365"><ele>126.87</ele></trkpt><trkpt lat="49.65473" lon="-1.75352"><ele>127.48</ele></trkpt><trkpt lat="49.65473" lon="-1.75351"><ele>127.48</ele></trkpt><trkpt lat="49.65475" lon="-1.75296"><ele>128.44</ele></trkpt><trkpt lat="49.65476" lon="-1.75268"><ele>128.29</ele></trkpt><trkpt lat="49.65477" lon="-1.75263"><ele>128.63</ele></trkpt><trkpt lat="49.65478" lon="-1.75252"><ele>128.19</ele></trkpt><trkpt lat="49.65479" lon="-1.75242"><ele>127.84</ele></trkpt><trkpt lat="49.6548" lon="-1.75241"><ele>127.84</ele></trkpt><trkpt lat="49.65487" lon="-1.75206"><ele>126.6</ele></trkpt><trkpt lat="49.65487" lon="-1.75204"><ele>126.6</ele></trkpt><trkpt lat="49.65491" lon="-1.75186"><ele>125.96</ele></trkpt><trkpt lat="49.65494" lon="-1.75176"><ele>125.99</ele></trkpt><trkpt lat="49.65496" lon="-1.75165"><ele>125.38</ele></trkpt><trkpt lat="49.65507" lon="-1.75115"><ele>124.04</ele></trkpt><trkpt lat="49.65508" lon="-1.75106"><ele>123.51</ele></trkpt><trkpt lat="49.65508" lon="-1.75102"><ele>123.44</ele></trkpt><trkpt lat="49.65508" lon="-1.75097"><ele>123.33</ele></trkpt><trkpt lat="49.65507" lon="-1.75087"><ele>123.32</ele></trkpt><trkpt lat="49.65534" lon="-1.7506"><ele>122</ele></trkpt><trkpt lat="49.65554" lon="-1.75033"><ele>121.57</ele></trkpt><trkpt lat="49.65561" lon="-1.75024"><ele>121.11</ele></trkpt><trkpt lat="49.65571" lon="-1.7501"><ele>120.79</ele></trkpt><trkpt lat="49.65572" lon="-1.75008"><ele>120.62</ele></trkpt><trkpt lat="49.65592" lon="-1.74976"><ele>120.06</ele></trkpt><trkpt lat="49.65609" lon="-1.74947"><ele>119.13</ele></trkpt><trkpt lat="49.65627" lon="-1.74914"><ele>118.31</ele></trkpt><trkpt lat="49.65649" lon="-1.74876"><ele>116.5</ele></trkpt><trkpt lat="49.65656" lon="-1.74864"><ele>116.7</ele></trkpt><trkpt lat="49.65665" lon="-1.74849"><ele>116.72</ele></trkpt><trkpt lat="49.65669" lon="-1.74844"><ele>116.02</ele></trkpt><trkpt lat="49.65685" lon="-1.7482"><ele>115.32</ele></trkpt><trkpt lat="49.65693" lon="-1.74809"><ele>115.3</ele></trkpt><trkpt lat="49.65739" lon="-1.74741"><ele>114.19</ele></trkpt><trkpt lat="49.65763" lon="-1.74712"><ele>113.99</ele></trkpt><trkpt lat="49.65793" lon="-1.74682"><ele>113.8</ele></trkpt><trkpt lat="49.65801" lon="-1.74674"><ele>113.33</ele></trkpt><trkpt lat="49.65817" lon="-1.74654"><ele>112.54</ele></trkpt><trkpt lat="49.65835" lon="-1.74632"><ele>111.73</ele></trkpt><trkpt lat="49.65843" lon="-1.74634"><ele>111.71</ele></trkpt><trkpt lat="49.65851" lon="-1.74633"><ele>111.6</ele></trkpt><trkpt lat="49.65855" lon="-1.74632"><ele>111.73</ele></trkpt><trkpt lat="49.65862" lon="-1.74631"><ele>110.64</ele></trkpt><trkpt lat="49.65868" lon="-1.74631"><ele>109.57</ele></trkpt><trkpt lat="49.65879" lon="-1.74632"><ele>110.65</ele></trkpt><trkpt lat="49.65891" lon="-1.74635"><ele>107.65</ele></trkpt><trkpt lat="49.65896" lon="-1.74636"><ele>108.47</ele></trkpt><trkpt lat="49.65904" lon="-1.74638"><ele>106.23</ele></trkpt><trkpt lat="49.65906" lon="-1.74639"><ele>106.23</ele></trkpt><trkpt lat="49.65908" lon="-1.74641"><ele>106.72</ele></trkpt><trkpt lat="49.65911" lon="-1.74643"><ele>105.31</ele></trkpt><trkpt lat="49.65917" lon="-1.74648"><ele>105.23</ele></trkpt><trkpt lat="49.65924" lon="-1.74654"><ele>103.77</ele></trkpt><trkpt lat="49.65928" lon="-1.74659"><ele>103.19</ele></trkpt><trkpt lat="49.65932" lon="-1.74661"><ele>102.9</ele></trkpt><trkpt lat="49.65937" lon="-1.74664"><ele>102.22</ele></trkpt><trkpt lat="49.6594" lon="-1.74664"><ele>102.22</ele></trkpt><trkpt lat="49.65942" lon="-1.74665"><ele>101.59</ele></trkpt><trkpt lat="49.6595" lon="-1.74663"><ele>100.99</ele></trkpt><trkpt lat="49.65959" lon="-1.74658"><ele>99.46</ele></trkpt><trkpt lat="49.65975" lon="-1.74653"><ele>97.55</ele></trkpt><trkpt lat="49.65985" lon="-1.74649"><ele>97.12</ele></trkpt><trkpt lat="49.65996" lon="-1.74648"><ele>95.71</ele></trkpt><trkpt lat="49.65997" lon="-1.74659"><ele>95.58</ele></trkpt><trkpt lat="49.65996" lon="-1.74648"><ele>95.71</ele></trkpt><trkpt lat="49.65996" lon="-1.7464"><ele>95.75</ele></trkpt><trkpt lat="49.65997" lon="-1.74634"><ele>95.76</ele></trkpt><trkpt lat="49.65998" lon="-1.74626"><ele>95.83</ele></trkpt><trkpt lat="49.66" lon="-1.74617"><ele>95.97</ele></trkpt><trkpt lat="49.66001" lon="-1.74611"><ele>96.01</ele></trkpt><trkpt lat="49.66002" lon="-1.74609"><ele>96.1</ele></trkpt><trkpt lat="49.66003" lon="-1.74604"><ele>96.23</ele></trkpt><trkpt lat="49.66005" lon="-1.7459"><ele>96.59</ele></trkpt><trkpt lat="49.66006" lon="-1.74581"><ele>96.76</ele></trkpt><trkpt lat="49.66009" lon="-1.74563"><ele>97.56</ele></trkpt><trkpt lat="49.6601" lon="-1.74554"><ele>97.86</ele></trkpt><trkpt lat="49.66013" lon="-1.74525"><ele>99.5</ele></trkpt><trkpt lat="49.66015" lon="-1.74504"><ele>99.74</ele></trkpt><trkpt lat="49.66015" lon="-1.745"><ele>100</ele></trkpt><trkpt lat="49.66015" lon="-1.74485"><ele>100.83</ele></trkpt><trkpt lat="49.66015" lon="-1.74473"><ele>101.27</ele></trkpt><trkpt lat="49.66015" lon="-1.74469"><ele>101.5</ele></trkpt><trkpt lat="49.66006" lon="-1.74448"><ele>103.05</ele></trkpt><trkpt lat="49.66002" lon="-1.74444"><ele>103.53</ele></trkpt><trkpt lat="49.66003" lon="-1.74443"><ele>103.53</ele></trkpt><trkpt lat="49.66" lon="-1.74435"><ele>103.95</ele></trkpt><trkpt lat="49.66002" lon="-1.74433"><ele>103.89</ele></trkpt><trkpt lat="49.66013" lon="-1.74424"><ele>104.21</ele></trkpt><trkpt lat="49.66033" lon="-1.74408"><ele>103.73</ele></trkpt><trkpt lat="49.66071" lon="-1.74377"><ele>104.02</ele></trkpt><trkpt lat="49.66077" lon="-1.74372"><ele>104.08</ele></trkpt><trkpt lat="49.66125" lon="-1.74337"><ele>103.39</ele></trkpt><trkpt lat="49.66147" lon="-1.7432"><ele>103.13</ele></trkpt><trkpt lat="49.66165" lon="-1.74305"><ele>103.03</ele></trkpt><trkpt lat="49.66172" lon="-1.74301"><ele>102.96</ele></trkpt><trkpt lat="49.66184" lon="-1.74298"><ele>102.86</ele></trkpt><trkpt lat="49.66186" lon="-1.74296"><ele>102.78</ele></trkpt><trkpt lat="49.66189" lon="-1.74289"><ele>102.71</ele></trkpt><trkpt lat="49.6619" lon="-1.74287"><ele>102.81</ele></trkpt><trkpt lat="49.66212" lon="-1.74255"><ele>102.31</ele></trkpt><trkpt lat="49.6623" lon="-1.74229"><ele>102.1</ele></trkpt><trkpt lat="49.66234" lon="-1.74223"><ele>102.03</ele></trkpt><trkpt lat="49.66242" lon="-1.74211"><ele>102.25</ele></trkpt><trkpt lat="49.66273" lon="-1.74159"><ele>103.77</ele></trkpt><trkpt lat="49.66286" lon="-1.74134"><ele>104.49</ele></trkpt><trkpt lat="49.66288" lon="-1.7413"><ele>104.49</ele></trkpt><trkpt lat="49.66291" lon="-1.74123"><ele>104.65</ele></trkpt><trkpt lat="49.66303" lon="-1.74096"><ele>105.13</ele></trkpt><trkpt lat="49.66309" lon="-1.74083"><ele>105.31</ele></trkpt><trkpt lat="49.66321" lon="-1.74056"><ele>105.57</ele></trkpt><trkpt lat="49.66324" lon="-1.7405"><ele>105.45</ele></trkpt><trkpt lat="49.66334" lon="-1.74028"><ele>105.14</ele></trkpt><trkpt lat="49.66349" lon="-1.73998"><ele>104.35</ele></trkpt><trkpt lat="49.66364" lon="-1.73967"><ele>103.38</ele></trkpt><trkpt lat="49.66375" lon="-1.73942"><ele>102.94</ele></trkpt><trkpt lat="49.66378" lon="-1.73934"><ele>102.63</ele></trkpt><trkpt lat="49.66394" lon="-1.73897"><ele>102.12</ele></trkpt><trkpt lat="49.66397" lon="-1.73892"><ele>101.81</ele></trkpt><trkpt lat="49.66401" lon="-1.73886"><ele>101.71</ele></trkpt><trkpt lat="49.6641" lon="-1.73873"><ele>101.43</ele></trkpt><trkpt lat="49.66423" lon="-1.73854"><ele>100.85</ele></trkpt><trkpt lat="49.66439" lon="-1.73831"><ele>101.33</ele></trkpt><trkpt lat="49.66441" lon="-1.73828"><ele>101.18</ele></trkpt><trkpt lat="49.66447" lon="-1.7382"><ele>101.61</ele></trkpt><trkpt lat="49.66457" lon="-1.73807"><ele>101.85</ele></trkpt><trkpt lat="49.6649" lon="-1.73765"><ele>101.99</ele></trkpt><trkpt lat="49.66492" lon="-1.73764"><ele>101.89</ele></trkpt><trkpt lat="49.66493" lon="-1.73761"><ele>101.89</ele></trkpt><trkpt lat="49.66496" lon="-1.73757"><ele>102</ele></trkpt><trkpt lat="49.66504" lon="-1.73739"><ele>102</ele></trkpt><trkpt lat="49.66506" lon="-1.73736"><ele>101.74</ele></trkpt><trkpt lat="49.66508" lon="-1.73734"><ele>101.64</ele></trkpt><trkpt lat="49.66512" lon="-1.73732"><ele>101.81</ele></trkpt><trkpt lat="49.66518" lon="-1.73729"><ele>101.51</ele></trkpt><trkpt lat="49.66519" lon="-1.73728"><ele>101.51</ele></trkpt><trkpt lat="49.66538" lon="-1.73717"><ele>100.86</ele></trkpt><trkpt lat="49.66557" lon="-1.73708"><ele>100.09</ele></trkpt><trkpt lat="49.66556" lon="-1.73696"><ele>100.09</ele></trkpt><trkpt lat="49.66556" lon="-1.73685"><ele>99.86</ele></trkpt><trkpt lat="49.66553" lon="-1.73662"><ele>99.76</ele></trkpt><trkpt lat="49.66552" lon="-1.73653"><ele>99.59</ele></trkpt><trkpt lat="49.66552" lon="-1.73645"><ele>99.53</ele></trkpt><trkpt lat="49.66553" lon="-1.73639"><ele>99.45</ele></trkpt><trkpt lat="49.66555" lon="-1.73633"><ele>99.24</ele></trkpt><trkpt lat="49.6656" lon="-1.73606"><ele>99.25</ele></trkpt><trkpt lat="49.66562" lon="-1.73589"><ele>99.44</ele></trkpt><trkpt lat="49.66564" lon="-1.73565"><ele>99.04</ele></trkpt><trkpt lat="49.66572" lon="-1.73556"><ele>99.22</ele></trkpt><trkpt lat="49.66581" lon="-1.73559"><ele>100.07</ele></trkpt><trkpt lat="49.66611" lon="-1.73562"><ele>100.29</ele></trkpt><trkpt lat="49.66626" lon="-1.73561"><ele>100.11</ele></trkpt><trkpt lat="49.66647" lon="-1.73556"><ele>99.8</ele></trkpt><trkpt lat="49.66658" lon="-1.73552"><ele>99.33</ele></trkpt><trkpt lat="49.66663" lon="-1.73563"><ele>98.72</ele></trkpt><trkpt lat="49.6667" lon="-1.73584"><ele>98.57</ele></trkpt><trkpt lat="49.66678" lon="-1.73609"><ele>97.67</ele></trkpt><trkpt lat="49.66682" lon="-1.7362"><ele>96.93</ele></trkpt><trkpt lat="49.66698" lon="-1.73655"><ele>96.05</ele></trkpt><trkpt lat="49.667" lon="-1.73658"><ele>96.05</ele></trkpt><trkpt lat="49.66709" lon="-1.73677"><ele>96.06</ele></trkpt><trkpt lat="49.66733" lon="-1.73721"><ele>96.79</ele></trkpt><trkpt lat="49.66742" lon="-1.73737"><ele>96.34</ele></trkpt><trkpt lat="49.66744" lon="-1.7374"><ele>96.38</ele></trkpt><trkpt lat="49.66746" lon="-1.73743"><ele>96.47</ele></trkpt><trkpt lat="49.66754" lon="-1.73754"><ele>95.99</ele></trkpt><trkpt lat="49.66756" lon="-1.73757"><ele>95.88</ele></trkpt><trkpt lat="49.66758" lon="-1.73758"><ele>95.88</ele></trkpt><trkpt lat="49.66761" lon="-1.73761"><ele>95.7</ele></trkpt><trkpt lat="49.66773" lon="-1.73772"><ele>95.55</ele></trkpt><trkpt lat="49.66789" lon="-1.73785"><ele>95.16</ele></trkpt><trkpt lat="49.66803" lon="-1.73795"><ele>94.6</ele></trkpt><trkpt lat="49.66804" lon="-1.73796"><ele>94.48</ele></trkpt><trkpt lat="49.66806" lon="-1.73796"><ele>94.48</ele></trkpt><trkpt lat="49.66819" lon="-1.73797"><ele>94.04</ele></trkpt><trkpt lat="49.66825" lon="-1.73799"><ele>93.26</ele></trkpt><trkpt lat="49.66828" lon="-1.738"><ele>93.26</ele></trkpt><trkpt lat="49.66829" lon="-1.738"><ele>92.88</ele></trkpt><trkpt lat="49.66831" lon="-1.73802"><ele>92.88</ele></trkpt><trkpt lat="49.66831" lon="-1.73803"><ele>92.74</ele></trkpt><trkpt lat="49.66858" lon="-1.73826"><ele>90.46</ele></trkpt><trkpt lat="49.66871" lon="-1.73838"><ele>89.76</ele></trkpt><trkpt lat="49.66878" lon="-1.73843"><ele>89</ele></trkpt><trkpt lat="49.66887" lon="-1.7385"><ele>88.93</ele></trkpt><trkpt lat="49.66896" lon="-1.73856"><ele>88.74</ele></trkpt><trkpt lat="49.66902" lon="-1.73861"><ele>88.52</ele></trkpt><trkpt lat="49.66905" lon="-1.73863"><ele>88.39</ele></trkpt><trkpt lat="49.66907" lon="-1.73865"><ele>88.51</ele></trkpt><trkpt lat="49.66914" lon="-1.73874"><ele>88.37</ele></trkpt><trkpt lat="49.66929" lon="-1.73891"><ele>88.67</ele></trkpt><trkpt lat="49.66939" lon="-1.73902"><ele>89.08</ele></trkpt><trkpt lat="49.66947" lon="-1.73911"><ele>89.09</ele></trkpt><trkpt lat="49.66948" lon="-1.73919"><ele>89.07</ele></trkpt><trkpt lat="49.66947" lon="-1.73924"><ele>88.98</ele></trkpt><trkpt lat="49.66948" lon="-1.73933"><ele>88.93</ele></trkpt><trkpt lat="49.6695" lon="-1.73992"><ele>87.55</ele></trkpt><trkpt lat="49.66952" lon="-1.74012"><ele>87.07</ele></trkpt><trkpt lat="49.66954" lon="-1.74018"><ele>86.65</ele></trkpt><trkpt lat="49.66955" lon="-1.74022"><ele>86.63</ele></trkpt><trkpt lat="49.66959" lon="-1.7403"><ele>86.38</ele></trkpt><trkpt lat="49.66961" lon="-1.74032"><ele>86.55</ele></trkpt><trkpt lat="49.66964" lon="-1.74037"><ele>86.4</ele></trkpt><trkpt lat="49.66965" lon="-1.7404"><ele>86.34</ele></trkpt><trkpt lat="49.66972" lon="-1.74046"><ele>86.02</ele></trkpt><trkpt lat="49.66982" lon="-1.74056"><ele>85.82</ele></trkpt><trkpt lat="49.66988" lon="-1.74061"><ele>85.23</ele></trkpt><trkpt lat="49.66993" lon="-1.74064"><ele>85.61</ele></trkpt><trkpt lat="49.67" lon="-1.74072"><ele>85.42</ele></trkpt><trkpt lat="49.6701" lon="-1.74082"><ele>84.82</ele></trkpt><trkpt lat="49.67011" lon="-1.74083"><ele>84.82</ele></trkpt><trkpt lat="49.67013" lon="-1.74084"><ele>84.82</ele></trkpt><trkpt lat="49.67016" lon="-1.74086"><ele>84.59</ele></trkpt><trkpt lat="49.67021" lon="-1.74088"><ele>84.52</ele></trkpt><trkpt lat="49.67033" lon="-1.74094"><ele>84.08</ele></trkpt><trkpt lat="49.67036" lon="-1.74096"><ele>83.73</ele></trkpt><trkpt lat="49.67037" lon="-1.74097"><ele>83.73</ele></trkpt><trkpt lat="49.67039" lon="-1.74098"><ele>83.73</ele></trkpt><trkpt lat="49.6704" lon="-1.74101"><ele>83.12</ele></trkpt><trkpt lat="49.67041" lon="-1.74104"><ele>83.14</ele></trkpt><trkpt lat="49.67044" lon="-1.74114"><ele>82.24</ele></trkpt><trkpt lat="49.67048" lon="-1.74143"><ele>80.5</ele></trkpt><trkpt lat="49.67049" lon="-1.74155"><ele>79.64</ele></trkpt><trkpt lat="49.6705" lon="-1.7416"><ele>79.33</ele></trkpt><trkpt lat="49.67053" lon="-1.74191"><ele>76.6</ele></trkpt><trkpt lat="49.67053" lon="-1.74198"><ele>75.89</ele></trkpt><trkpt lat="49.67058" lon="-1.74251"><ele>70.76</ele></trkpt><trkpt lat="49.67058" lon="-1.74253"><ele>70.76</ele></trkpt><trkpt lat="49.67059" lon="-1.74257"><ele>70.31</ele></trkpt><trkpt lat="49.6706" lon="-1.74261"><ele>69.86</ele></trkpt><trkpt lat="49.67062" lon="-1.7427"><ele>69.36</ele></trkpt><trkpt lat="49.67062" lon="-1.74272"><ele>68.89</ele></trkpt><trkpt lat="49.67062" lon="-1.74274"><ele>68.89</ele></trkpt><trkpt lat="49.67062" lon="-1.74275"><ele>68.26</ele></trkpt><trkpt lat="49.67061" lon="-1.74278"><ele>68.26</ele></trkpt><trkpt lat="49.67061" lon="-1.74279"><ele>68.26</ele></trkpt><trkpt lat="49.67051" lon="-1.74303"><ele>64.58</ele></trkpt><trkpt lat="49.67042" lon="-1.74326"><ele>62.34</ele></trkpt><trkpt lat="49.67042" lon="-1.74327"><ele>62.03</ele></trkpt><trkpt lat="49.67037" lon="-1.7434"><ele>59.91</ele></trkpt><trkpt lat="49.67034" lon="-1.74346"><ele>59.17</ele></trkpt><trkpt lat="49.67041" lon="-1.74348"><ele>58.46</ele></trkpt><trkpt lat="49.67048" lon="-1.74349"><ele>57.91</ele></trkpt><trkpt lat="49.67052" lon="-1.7435"><ele>57.75</ele></trkpt><trkpt lat="49.67059" lon="-1.74351"><ele>57.58</ele></trkpt><trkpt lat="49.67075" lon="-1.74355"><ele>56.78</ele></trkpt><trkpt lat="49.67077" lon="-1.74356"><ele>56.78</ele></trkpt><trkpt lat="49.67088" lon="-1.74359"><ele>56.02</ele></trkpt><trkpt lat="49.67095" lon="-1.74362"><ele>55.2</ele></trkpt><trkpt lat="49.67096" lon="-1.74363"><ele>55.2</ele></trkpt><trkpt lat="49.67097" lon="-1.74363"><ele>55.2</ele></trkpt><trkpt lat="49.67111" lon="-1.74369"><ele>54.13</ele></trkpt><trkpt lat="49.67112" lon="-1.74369"><ele>54.13</ele></trkpt><trkpt lat="49.67114" lon="-1.7437"><ele>53.02</ele></trkpt><trkpt lat="49.67117" lon="-1.74371"><ele>52.78</ele></trkpt><trkpt lat="49.67122" lon="-1.74372"><ele>52.61</ele></trkpt><trkpt lat="49.67127" lon="-1.74372"><ele>52.23</ele></trkpt><trkpt lat="49.67129" lon="-1.74372"><ele>52.23</ele></trkpt><trkpt lat="49.67132" lon="-1.74372"><ele>51.63</ele></trkpt><trkpt lat="49.67136" lon="-1.74371"><ele>50.93</ele></trkpt><trkpt lat="49.67146" lon="-1.74369"><ele>50.04</ele></trkpt><trkpt lat="49.67148" lon="-1.74369"><ele>49.23</ele></trkpt><trkpt lat="49.67154" lon="-1.74367"><ele>48.6</ele></trkpt><trkpt lat="49.67166" lon="-1.74364"><ele>47.19</ele></trkpt><trkpt lat="49.67177" lon="-1.74361"><ele>45.15</ele></trkpt><trkpt lat="49.67182" lon="-1.7436"><ele>44.45</ele></trkpt><trkpt lat="49.67186" lon="-1.74357"><ele>43.81</ele></trkpt><trkpt lat="49.6719" lon="-1.74354"><ele>43.17</ele></trkpt><trkpt lat="49.67194" lon="-1.7435"><ele>42.48</ele></trkpt><trkpt lat="49.67196" lon="-1.74347"><ele>42.39</ele></trkpt><trkpt lat="49.67198" lon="-1.74345"><ele>41.84</ele></trkpt><trkpt lat="49.67204" lon="-1.74335"><ele>40.91</ele></trkpt><trkpt lat="49.67207" lon="-1.74329"><ele>40.36</ele></trkpt><trkpt lat="49.67208" lon="-1.74325"><ele>40.04</ele></trkpt><trkpt lat="49.67208" lon="-1.74324"><ele>40.04</ele></trkpt><trkpt lat="49.67209" lon="-1.7432"><ele>39.78</ele></trkpt><trkpt lat="49.6721" lon="-1.74314"><ele>39.59</ele></trkpt><trkpt lat="49.67211" lon="-1.74304"><ele>38.37</ele></trkpt><trkpt lat="49.67212" lon="-1.74296"><ele>37.48</ele></trkpt><trkpt lat="49.67211" lon="-1.74285"><ele>36.65</ele></trkpt><trkpt lat="49.6721" lon="-1.74273"><ele>36.08</ele></trkpt><trkpt lat="49.67209" lon="-1.74266"><ele>35.06</ele></trkpt><trkpt lat="49.67207" lon="-1.74255"><ele>34.17</ele></trkpt><trkpt lat="49.67206" lon="-1.74245"><ele>34.77</ele></trkpt><trkpt lat="49.67206" lon="-1.74233"><ele>34.03</ele></trkpt><trkpt lat="49.67208" lon="-1.74222"><ele>31.79</ele></trkpt><trkpt lat="49.67209" lon="-1.74216"><ele>31.75</ele></trkpt><trkpt lat="49.6721" lon="-1.74212"><ele>31.88</ele></trkpt><trkpt lat="49.67214" lon="-1.74197"><ele>31.49</ele></trkpt><trkpt lat="49.6722" lon="-1.74187"><ele>29.16</ele></trkpt><trkpt lat="49.67223" lon="-1.74182"><ele>29.61</ele></trkpt><trkpt lat="49.67227" lon="-1.74177"><ele>28.54</ele></trkpt><trkpt lat="49.67227" lon="-1.74176"><ele>29.07</ele></trkpt><trkpt lat="49.6723" lon="-1.74173"><ele>27.88</ele></trkpt><trkpt lat="49.67238" lon="-1.74166"><ele>27.3</ele></trkpt><trkpt lat="49.67248" lon="-1.74161"><ele>26.78</ele></trkpt><trkpt lat="49.6726" lon="-1.74155"><ele>25.12</ele></trkpt><trkpt lat="49.67268" lon="-1.74151"><ele>24.26</ele></trkpt><trkpt lat="49.67308" lon="-1.74151"><ele>20.56</ele></trkpt><trkpt lat="49.67325" lon="-1.74152"><ele>19.05</ele></trkpt><trkpt lat="49.67343" lon="-1.74153"><ele>17.75</ele></trkpt><trkpt lat="49.67364" lon="-1.74154"><ele>16.27</ele></trkpt><trkpt lat="49.67366" lon="-1.74154"><ele>16</ele></trkpt><trkpt lat="49.67375" lon="-1.74151"><ele>15.58</ele></trkpt><trkpt lat="49.67381" lon="-1.74149"><ele>15.3</ele></trkpt><trkpt lat="49.67382" lon="-1.74153"><ele>15.33</ele></trkpt><trkpt lat="49.67385" lon="-1.74166"><ele>15.27</ele></trkpt><trkpt lat="49.67392" lon="-1.74168"><ele>14.72</ele></trkpt><trkpt lat="49.67398" lon="-1.74171"><ele>14.26</ele></trkpt><trkpt lat="49.67405" lon="-1.74176"><ele>13.87</ele></trkpt><trkpt lat="49.6741" lon="-1.74179"><ele>13.73</ele></trkpt><trkpt lat="49.67413" lon="-1.74177"><ele>13.55</ele></trkpt><trkpt lat="49.67418" lon="-1.74175"><ele>13.33</ele></trkpt><trkpt lat="49.67425" lon="-1.7417"><ele>13.12</ele></trkpt><trkpt lat="49.67429" lon="-1.74168"><ele>12.89</ele></trkpt><trkpt lat="49.67443" lon="-1.74161"><ele>12.13</ele></trkpt><trkpt lat="49.67443" lon="-1.7416"><ele>12.13</ele></trkpt><trkpt lat="49.67461" lon="-1.74151"><ele>11.55</ele></trkpt><trkpt lat="49.67512" lon="-1.74123"><ele>10.08</ele></trkpt><trkpt lat="49.67577" lon="-1.74087"><ele>8.84</ele></trkpt><trkpt lat="49.67608" lon="-1.74069"><ele>8.44</ele></trkpt><trkpt lat="49.67631" lon="-1.74057"><ele>7.78</ele></trkpt><trkpt lat="49.67651" lon="-1.74047"><ele>7.28</ele></trkpt><trkpt lat="49.67672" lon="-1.74039"><ele>7.34</ele></trkpt><trkpt lat="49.677" lon="-1.74028"><ele>6.82</ele></trkpt><trkpt lat="49.67703" lon="-1.74039"><ele>6.85</ele></trkpt><trkpt lat="49.67705" lon="-1.74047"><ele>6.7</ele></trkpt><trkpt lat="49.67723" lon="-1.74106"><ele>5.86</ele></trkpt><trkpt lat="49.67731" lon="-1.7414"><ele>5.95</ele></trkpt><trkpt lat="49.67747" lon="-1.74132"><ele>5.46</ele></trkpt><trkpt lat="49.67754" lon="-1.74134"><ele>5.16</ele></trkpt><trkpt lat="49.6776" lon="-1.7414"><ele>5.06</ele></trkpt><trkpt lat="49.67764" lon="-1.74176"><ele>5.06</ele></trkpt><trkpt lat="49.67766" lon="-1.74177"><ele>5.03</ele></trkpt><trkpt lat="49.67773" lon="-1.74179"><ele>4.9</ele></trkpt><trkpt lat="49.67775" lon="-1.7418"><ele>4.9</ele></trkpt><trkpt lat="49.67777" lon="-1.74182"><ele>4.95</ele></trkpt><trkpt lat="49.67782" lon="-1.74229"><ele>5.14</ele></trkpt><trkpt lat="49.67784" lon="-1.74239"><ele>5.21</ele></trkpt><trkpt lat="49.67785" lon="-1.74243"><ele>5.31</ele></trkpt><trkpt lat="49.67786" lon="-1.74248"><ele>5.38</ele></trkpt><trkpt lat="49.67747" lon="-1.74263"><ele>5.84</ele></trkpt><trkpt lat="49.67738" lon="-1.74266"><ele>5.89</ele></trkpt><trkpt lat="49.67693" lon="-1.74286"><ele>6.61</ele></trkpt><trkpt lat="49.67692" lon="-1.7429"><ele>6.65</ele></trkpt><trkpt lat="49.67692" lon="-1.74319"><ele>6.95</ele></trkpt><trkpt lat="49.67675" lon="-1.74326"><ele>7.01</ele></trkpt><trkpt lat="49.67668" lon="-1.74332"><ele>7.19</ele></trkpt><trkpt lat="49.67658" lon="-1.74336"><ele>7.35</ele></trkpt><trkpt lat="49.67657" lon="-1.74338"><ele>7.41</ele></trkpt><trkpt lat="49.67656" lon="-1.74338"><ele>7.41</ele></trkpt><trkpt lat="49.67655" lon="-1.7434"><ele>7.43</ele></trkpt><trkpt lat="49.67653" lon="-1.74344"><ele>7.45</ele></trkpt><trkpt lat="49.67644" lon="-1.74371"><ele>7.96</ele></trkpt><trkpt lat="49.67637" lon="-1.74388"><ele>8.12</ele></trkpt><trkpt lat="49.67604" lon="-1.74404"><ele>9.06</ele></trkpt><trkpt lat="49.67581" lon="-1.74413"><ele>9.58</ele></trkpt><trkpt lat="49.67578" lon="-1.74412"><ele>9.69</ele></trkpt><trkpt lat="49.67554" lon="-1.74395"><ele>10.39</ele></trkpt><trkpt lat="49.67551" lon="-1.74394"><ele>10.39</ele></trkpt><trkpt lat="49.67548" lon="-1.74394"><ele>10.5</ele></trkpt><trkpt lat="49.67533" lon="-1.74402"><ele>10.84</ele></trkpt><trkpt lat="49.67518" lon="-1.7441"><ele>11.41</ele></trkpt><trkpt lat="49.67471" lon="-1.74431"><ele>13.16</ele></trkpt><trkpt lat="49.67473" lon="-1.74435"><ele>13.09</ele></trkpt></trkseg></trk></gpx>
