<?xml version="1.0" encoding="UTF-8" standalone="no"?>
<gpx xmlns="http://www.topografix.com/GPX/1/1" version="1.1" xmlns:xsi="http://www.w3.org/2001/XMLSchema-instance" xsi:schemaLocation="http://www.topografix.com/GPX/1/1 http://www.topografix.com/GPX/1/1/gpx.xsd" creator="Cirkwi"><metadata><name><![CDATA[Sentier du poète - n°103]]></name><desc><![CDATA[Jacques Prévert (1900 - 1977) aimait la Hague, aujourd’hui, elle le lui rend bien. Cette balade vous emmène sur les lieux qu’il affectionnait, depuis le Port Racine jusqu’à sa maison en passant par la Vallée des Moulins où se trouvent aujourd’hui des Jardins en son hommage. Partez du parking de l'église, suivez la route vers la Maison Jacques Prévert en longeant le parc (Omonville-la-Petite).  Coordonnées GPS : 49°40'29.4"N, 1°44'38.7"W Suivez le circuit selon le sens inverse des aiguilles d'une montre. Le balisage est de couleur jaune. Le long du littoral, suivez le balisage du GR223 (rouge et blanc). Vous retrouverez ce circuit dans le topoguide "La Hague - Des Pieux et autour de Martinvast "de l'Office de tourisme du Cotentin.   Passage plus difficile sur un cordon de sable et galets au niveau de l'anse Saint-Martin. Départ accessible en bus avec le réseau Cap Cotentin les week-ends et pendant les vacances scolaires aux arrêts " Saint-Germain-des-Vaux - Port Racine", "Omonville-la-Petite - Hameau Les Mesnils" et "Saint-Germain-des-Vaux - Le Bourg" (possibilité de rejoindre le circuit en cours) - (plus d'infos sur capcotentin.fr)]]></desc><author><name><![CDATA[Cotentin unique]]></name></author><link href="http://fichier0.cirkwi.com/image/photo/circuit/1300x1300/60169/fr/0.jpg"><text><![CDATA[|]]></text></link><link href="http://fichier0.cirkwi.com/image/photo/circuit/1300x1300/60169/fr/1.jpg"><text><![CDATA[|© B. Almodovar]]></text></link><link href="http://fichier0.cirkwi.com/image/photo/circuit/1300x1300/60169/fr/2.jpg"><text><![CDATA[|© B. Almodovar]]></text></link><link href="http://fichier0.cirkwi.com/image/photo/circuit/1300x1300/60169/fr/3.jpg"><text><![CDATA[|© B. Almodovar]]></text></link><link href="http://fichier0.cirkwi.com/image/photo/circuit/1300x1300/60169/fr/4.jpg"><text><![CDATA[|© BIPLAN]]></text></link><link href="http://fichier0.cirkwi.com/image/photo/circuit/1300x1300/60169/fr/5.jpg"><text><![CDATA[|© Cap Cotentin]]></text></link><link href="http://fichier0.cirkwi.com/image/photo/circuit/1300x1300/60169/fr/6.jpg"><text><![CDATA[|© Cap Cotentin]]></text></link><time>2026-08-17T08:55:24Z</time></metadata><trk><trkseg><trkpt lat="49.69871" lon="-1.8846"><ele>44.15</ele></trkpt><trkpt lat="49.69859" lon="-1.88462"><ele>44.88</ele></trkpt><trkpt lat="49.69831" lon="-1.88463"><ele>48.21</ele></trkpt><trkpt lat="49.69804" lon="-1.88461"><ele>51.28</ele></trkpt><trkpt lat="49.6978" lon="-1.88458"><ele>53.79</ele></trkpt><trkpt lat="49.69767" lon="-1.88457"><ele>54.89</ele></trkpt><trkpt lat="49.69764" lon="-1.88456"><ele>55.23</ele></trkpt><trkpt lat="49.69746" lon="-1.8845"><ele>56.19</ele></trkpt><trkpt lat="49.69734" lon="-1.88444"><ele>57.35</ele></trkpt><trkpt lat="49.69728" lon="-1.88442"><ele>57.55</ele></trkpt><trkpt lat="49.6968" lon="-1.88419"><ele>59.6</ele></trkpt><trkpt lat="49.69678" lon="-1.88418"><ele>59.65</ele></trkpt><trkpt lat="49.69663" lon="-1.8841"><ele>60.41</ele></trkpt><trkpt lat="49.69642" lon="-1.88397"><ele>61.49</ele></trkpt><trkpt lat="49.69637" lon="-1.88396"><ele>61.68</ele></trkpt><trkpt lat="49.69631" lon="-1.88399"><ele>62.2</ele></trkpt><trkpt lat="49.69623" lon="-1.88413"><ele>62.53</ele></trkpt><trkpt lat="49.69609" lon="-1.88428"><ele>63.91</ele></trkpt><trkpt lat="49.69591" lon="-1.88429"><ele>65.42</ele></trkpt><trkpt lat="49.69585" lon="-1.88431"><ele>65.43</ele></trkpt><trkpt lat="49.69581" lon="-1.88434"><ele>65.92</ele></trkpt><trkpt lat="49.69574" lon="-1.88445"><ele>66.76</ele></trkpt><trkpt lat="49.69563" lon="-1.88449"><ele>66.95</ele></trkpt><trkpt lat="49.69559" lon="-1.88451"><ele>67.11</ele></trkpt><trkpt lat="49.69555" lon="-1.88449"><ele>67.17</ele></trkpt><trkpt lat="49.6955" lon="-1.88443"><ele>67.35</ele></trkpt><trkpt lat="49.69539" lon="-1.88419"><ele>68.52</ele></trkpt><trkpt lat="49.69529" lon="-1.88396"><ele>70.03</ele></trkpt><trkpt lat="49.69521" lon="-1.88383"><ele>71.63</ele></trkpt><trkpt lat="49.69513" lon="-1.88375"><ele>72.99</ele></trkpt><trkpt lat="49.69484" lon="-1.88345"><ele>78.81</ele></trkpt><trkpt lat="49.69479" lon="-1.88339"><ele>79.87</ele></trkpt><trkpt lat="49.69474" lon="-1.88332"><ele>80.93</ele></trkpt><trkpt lat="49.69471" lon="-1.88323"><ele>82.19</ele></trkpt><trkpt lat="49.69469" lon="-1.88313"><ele>83.44</ele></trkpt><trkpt lat="49.69463" lon="-1.88271"><ele>88.1</ele></trkpt><trkpt lat="49.69461" lon="-1.88238"><ele>90.31</ele></trkpt><trkpt lat="49.6946" lon="-1.88223"><ele>90.86</ele></trkpt><trkpt lat="49.6946" lon="-1.88199"><ele>92.29</ele></trkpt><trkpt lat="49.69458" lon="-1.88164"><ele>92.51</ele></trkpt><trkpt lat="49.69454" lon="-1.88099"><ele>91.91</ele></trkpt><trkpt lat="49.69471" lon="-1.88094"><ele>92.31</ele></trkpt><trkpt lat="49.69485" lon="-1.88092"><ele>92.39</ele></trkpt><trkpt lat="49.69482" lon="-1.88053"><ele>92.17</ele></trkpt><trkpt lat="49.69477" lon="-1.88023"><ele>91.01</ele></trkpt><trkpt lat="49.69465" lon="-1.87985"><ele>88.89</ele></trkpt><trkpt lat="49.6946" lon="-1.87951"><ele>86.43</ele></trkpt><trkpt lat="49.69459" lon="-1.87941"><ele>86.24</ele></trkpt><trkpt lat="49.69457" lon="-1.8793"><ele>84.62</ele></trkpt><trkpt lat="49.69457" lon="-1.87876"><ele>80.98</ele></trkpt><trkpt lat="49.6946" lon="-1.87846"><ele>80.69</ele></trkpt><trkpt lat="49.69455" lon="-1.87806"><ele>78.65</ele></trkpt><trkpt lat="49.69449" lon="-1.87795"><ele>78.54</ele></trkpt><trkpt lat="49.69458" lon="-1.8778"><ele>78.98</ele></trkpt><trkpt lat="49.69466" lon="-1.87766"><ele>79.69</ele></trkpt><trkpt lat="49.6947" lon="-1.87758"><ele>80.08</ele></trkpt><trkpt lat="49.69474" lon="-1.87742"><ele>80.17</ele></trkpt><trkpt lat="49.69476" lon="-1.87724"><ele>78.29</ele></trkpt><trkpt lat="49.69491" lon="-1.8769"><ele>76.5</ele></trkpt><trkpt lat="49.69492" lon="-1.87683"><ele>76.44</ele></trkpt><trkpt lat="49.69492" lon="-1.87656"><ele>77.07</ele></trkpt><trkpt lat="49.69493" lon="-1.87649"><ele>77.64</ele></trkpt><trkpt lat="49.69496" lon="-1.87644"><ele>78.21</ele></trkpt><trkpt lat="49.69503" lon="-1.87639"><ele>79.26</ele></trkpt><trkpt lat="49.69515" lon="-1.87635"><ele>80.69</ele></trkpt><trkpt lat="49.69532" lon="-1.87631"><ele>81.53</ele></trkpt><trkpt lat="49.69536" lon="-1.8764"><ele>81.4</ele></trkpt><trkpt lat="49.69548" lon="-1.87663"><ele>81.01</ele></trkpt><trkpt lat="49.69559" lon="-1.87671"><ele>81.44</ele></trkpt><trkpt lat="49.69565" lon="-1.87672"><ele>81.84</ele></trkpt><trkpt lat="49.69596" lon="-1.87668"><ele>84.08</ele></trkpt><trkpt lat="49.69606" lon="-1.87667"><ele>82.98</ele></trkpt><trkpt lat="49.69627" lon="-1.87666"><ele>80.47</ele></trkpt><trkpt lat="49.69634" lon="-1.87665"><ele>79.9</ele></trkpt><trkpt lat="49.69662" lon="-1.87662"><ele>78.56</ele></trkpt><trkpt lat="49.69667" lon="-1.87663"><ele>78.41</ele></trkpt><trkpt lat="49.6968" lon="-1.87666"><ele>76.79</ele></trkpt><trkpt lat="49.69688" lon="-1.8767"><ele>75.14</ele></trkpt><trkpt lat="49.69698" lon="-1.87674"><ele>73.93</ele></trkpt><trkpt lat="49.69713" lon="-1.87679"><ele>73.34</ele></trkpt><trkpt lat="49.69718" lon="-1.87679"><ele>73.97</ele></trkpt><trkpt lat="49.6973" lon="-1.87681"><ele>74.64</ele></trkpt><trkpt lat="49.69734" lon="-1.87679"><ele>74.64</ele></trkpt><trkpt lat="49.69741" lon="-1.87675"><ele>75.42</ele></trkpt><trkpt lat="49.69746" lon="-1.87671"><ele>76.13</ele></trkpt><trkpt lat="49.69749" lon="-1.8767"><ele>76.57</ele></trkpt><trkpt lat="49.69752" lon="-1.87669"><ele>77.13</ele></trkpt><trkpt lat="49.69759" lon="-1.87669"><ele>77.72</ele></trkpt><trkpt lat="49.69793" lon="-1.87679"><ele>77.43</ele></trkpt><trkpt lat="49.69809" lon="-1.87687"><ele>76.33</ele></trkpt><trkpt lat="49.69811" lon="-1.87688"><ele>76.33</ele></trkpt><trkpt lat="49.69819" lon="-1.8769"><ele>75.33</ele></trkpt><trkpt lat="49.69826" lon="-1.87694"><ele>74.68</ele></trkpt><trkpt lat="49.69838" lon="-1.87696"><ele>72.49</ele></trkpt><trkpt lat="49.69851" lon="-1.87691"><ele>71.12</ele></trkpt><trkpt lat="49.69854" lon="-1.87691"><ele>71.12</ele></trkpt><trkpt lat="49.69865" lon="-1.87688"><ele>71</ele></trkpt><trkpt lat="49.69886" lon="-1.8769"><ele>71.17</ele></trkpt><trkpt lat="49.69895" lon="-1.87691"><ele>70.9</ele></trkpt><trkpt lat="49.6991" lon="-1.87693"><ele>70.51</ele></trkpt><trkpt lat="49.69937" lon="-1.87695"><ele>68.64</ele></trkpt><trkpt lat="49.69939" lon="-1.87694"><ele>69.2</ele></trkpt><trkpt lat="49.69937" lon="-1.87695"><ele>68.64</ele></trkpt><trkpt lat="49.69947" lon="-1.87696"><ele>67.73</ele></trkpt><trkpt lat="49.69972" lon="-1.8769"><ele>64.55</ele></trkpt><trkpt lat="49.69986" lon="-1.87693"><ele>63.32</ele></trkpt><trkpt lat="49.69992" lon="-1.87699"><ele>61.78</ele></trkpt><trkpt lat="49.70005" lon="-1.87716"><ele>60.08</ele></trkpt><trkpt lat="49.70012" lon="-1.87724"><ele>58.4</ele></trkpt><trkpt lat="49.70046" lon="-1.87758"><ele>47.48</ele></trkpt><trkpt lat="49.70047" lon="-1.8776"><ele>46.83</ele></trkpt><trkpt lat="49.70055" lon="-1.87762"><ele>44.69</ele></trkpt><trkpt lat="49.70066" lon="-1.87763"><ele>41.53</ele></trkpt><trkpt lat="49.70095" lon="-1.87758"><ele>34.91</ele></trkpt><trkpt lat="49.701" lon="-1.87757"><ele>34.07</ele></trkpt><trkpt lat="49.70106" lon="-1.87754"><ele>32.63</ele></trkpt><trkpt lat="49.70109" lon="-1.87751"><ele>30.29</ele></trkpt><trkpt lat="49.70111" lon="-1.87736"><ele>30.26</ele></trkpt><trkpt lat="49.70112" lon="-1.87728"><ele>28.68</ele></trkpt><trkpt lat="49.7011" lon="-1.87694"><ele>27.6</ele></trkpt><trkpt lat="49.70112" lon="-1.87673"><ele>26.03</ele></trkpt><trkpt lat="49.70119" lon="-1.87628"><ele>26.06</ele></trkpt><trkpt lat="49.70124" lon="-1.87613"><ele>25.27</ele></trkpt><trkpt lat="49.70125" lon="-1.87607"><ele>24.56</ele></trkpt><trkpt lat="49.70126" lon="-1.87601"><ele>24.62</ele></trkpt><trkpt lat="49.70125" lon="-1.87584"><ele>23.81</ele></trkpt><trkpt lat="49.70125" lon="-1.87573"><ele>23.8</ele></trkpt><trkpt lat="49.7012" lon="-1.87562"><ele>24.93</ele></trkpt><trkpt lat="49.70115" lon="-1.87541"><ele>25.24</ele></trkpt><trkpt lat="49.70114" lon="-1.87537"><ele>25.12</ele></trkpt><trkpt lat="49.70103" lon="-1.87498"><ele>27.24</ele></trkpt><trkpt lat="49.70092" lon="-1.87455"><ele>27.79</ele></trkpt><trkpt lat="49.70084" lon="-1.87431"><ele>28.62</ele></trkpt><trkpt lat="49.70078" lon="-1.87415"><ele>28.86</ele></trkpt><trkpt lat="49.70077" lon="-1.87411"><ele>29.04</ele></trkpt><trkpt lat="49.70075" lon="-1.87405"><ele>29.04</ele></trkpt><trkpt lat="49.7007" lon="-1.87391"><ele>29.3</ele></trkpt><trkpt lat="49.70066" lon="-1.87378"><ele>29.65</ele></trkpt><trkpt lat="49.70063" lon="-1.87368"><ele>29.83</ele></trkpt><trkpt lat="49.70059" lon="-1.87358"><ele>30.06</ele></trkpt><trkpt lat="49.70056" lon="-1.87349"><ele>30.21</ele></trkpt><trkpt lat="49.70052" lon="-1.8734"><ele>30.21</ele></trkpt><trkpt lat="49.70048" lon="-1.87333"><ele>30.45</ele></trkpt><trkpt lat="49.70043" lon="-1.87325"><ele>30.64</ele></trkpt><trkpt lat="49.70038" lon="-1.87317"><ele>30.74</ele></trkpt><trkpt lat="49.70033" lon="-1.87309"><ele>30.8</ele></trkpt><trkpt lat="49.70028" lon="-1.87302"><ele>30.73</ele></trkpt><trkpt lat="49.70023" lon="-1.87294"><ele>30.66</ele></trkpt><trkpt lat="49.70018" lon="-1.87285"><ele>30.75</ele></trkpt><trkpt lat="49.70014" lon="-1.87276"><ele>30.79</ele></trkpt><trkpt lat="49.70009" lon="-1.8726"><ele>29.98</ele></trkpt><trkpt lat="49.70005" lon="-1.87246"><ele>29.12</ele></trkpt><trkpt lat="49.70004" lon="-1.87239"><ele>28.95</ele></trkpt><trkpt lat="49.70002" lon="-1.87232"><ele>28.47</ele></trkpt><trkpt lat="49.69994" lon="-1.87195"><ele>25.3</ele></trkpt><trkpt lat="49.69993" lon="-1.8719"><ele>24.89</ele></trkpt><trkpt lat="49.69995" lon="-1.87184"><ele>24.44</ele></trkpt><trkpt lat="49.69998" lon="-1.87181"><ele>24.16</ele></trkpt><trkpt lat="49.70002" lon="-1.87178"><ele>23.57</ele></trkpt><trkpt lat="49.70008" lon="-1.87174"><ele>23.03</ele></trkpt><trkpt lat="49.70015" lon="-1.87169"><ele>22.39</ele></trkpt><trkpt lat="49.70021" lon="-1.87165"><ele>21.94</ele></trkpt><trkpt lat="49.70029" lon="-1.87155"><ele>20.93</ele></trkpt><trkpt lat="49.70041" lon="-1.87138"><ele>19.11</ele></trkpt><trkpt lat="49.70042" lon="-1.87136"><ele>18.89</ele></trkpt><trkpt lat="49.70048" lon="-1.87128"><ele>18.53</ele></trkpt><trkpt lat="49.70055" lon="-1.87117"><ele>18.7</ele></trkpt><trkpt lat="49.70059" lon="-1.87111"><ele>18.86</ele></trkpt><trkpt lat="49.70064" lon="-1.8711"><ele>19</ele></trkpt><trkpt lat="49.70071" lon="-1.87111"><ele>18.96</ele></trkpt><trkpt lat="49.70093" lon="-1.87122"><ele>20.68</ele></trkpt><trkpt lat="49.70102" lon="-1.87128"><ele>20.88</ele></trkpt><trkpt lat="49.70105" lon="-1.87133"><ele>20.4</ele></trkpt><trkpt lat="49.70108" lon="-1.87138"><ele>20.07</ele></trkpt><trkpt lat="49.70111" lon="-1.87141"><ele>19.3</ele></trkpt><trkpt lat="49.70116" lon="-1.87149"><ele>19.45</ele></trkpt><trkpt lat="49.70121" lon="-1.87157"><ele>19.84</ele></trkpt><trkpt lat="49.70131" lon="-1.87178"><ele>19.86</ele></trkpt><trkpt lat="49.70144" lon="-1.87198"><ele>20.93</ele></trkpt><trkpt lat="49.70149" lon="-1.87206"><ele>20.99</ele></trkpt><trkpt lat="49.70167" lon="-1.87236"><ele>22.07</ele></trkpt><trkpt lat="49.70183" lon="-1.87253"><ele>22.55</ele></trkpt><trkpt lat="49.70194" lon="-1.87268"><ele>21.93</ele></trkpt><trkpt lat="49.70203" lon="-1.87272"><ele>22.8</ele></trkpt><trkpt lat="49.70209" lon="-1.87278"><ele>21.76</ele></trkpt><trkpt lat="49.70218" lon="-1.87288"><ele>20.29</ele></trkpt><trkpt lat="49.70226" lon="-1.87295"><ele>20.97</ele></trkpt><trkpt lat="49.70232" lon="-1.87304"><ele>20.74</ele></trkpt><trkpt lat="49.70237" lon="-1.87311"><ele>21.53</ele></trkpt><trkpt lat="49.70248" lon="-1.8733"><ele>21.22</ele></trkpt><trkpt lat="49.70259" lon="-1.87343"><ele>20.63</ele></trkpt><trkpt lat="49.70271" lon="-1.87354"><ele>20.32</ele></trkpt><trkpt lat="49.70294" lon="-1.8737"><ele>17.99</ele></trkpt><trkpt lat="49.70308" lon="-1.87384"><ele>15.61</ele></trkpt><trkpt lat="49.70314" lon="-1.8739"><ele>15.07</ele></trkpt><trkpt lat="49.70326" lon="-1.87392"><ele>15.3</ele></trkpt><trkpt lat="49.70336" lon="-1.8739"><ele>13.64</ele></trkpt><trkpt lat="49.70344" lon="-1.87386"><ele>12.91</ele></trkpt><trkpt lat="49.70346" lon="-1.87384"><ele>14.29</ele></trkpt><trkpt lat="49.70354" lon="-1.87383"><ele>12.26</ele></trkpt><trkpt lat="49.7036" lon="-1.87387"><ele>11.75</ele></trkpt><trkpt lat="49.70368" lon="-1.87376"><ele>12.23</ele></trkpt><trkpt lat="49.70385" lon="-1.87353"><ele>12.93</ele></trkpt><trkpt lat="49.704" lon="-1.8733"><ele>13.2</ele></trkpt><trkpt lat="49.70411" lon="-1.87318"><ele>13.45</ele></trkpt><trkpt lat="49.70425" lon="-1.87307"><ele>13.95</ele></trkpt><trkpt lat="49.70438" lon="-1.87302"><ele>14.27</ele></trkpt><trkpt lat="49.70454" lon="-1.87296"><ele>14.67</ele></trkpt><trkpt lat="49.70463" lon="-1.87292"><ele>14.73</ele></trkpt><trkpt lat="49.70471" lon="-1.87289"><ele>14.67</ele></trkpt><trkpt lat="49.70488" lon="-1.8728"><ele>14.47</ele></trkpt><trkpt lat="49.70531" lon="-1.87256"><ele>13.87</ele></trkpt><trkpt lat="49.70539" lon="-1.87252"><ele>13.72</ele></trkpt><trkpt lat="49.70549" lon="-1.87243"><ele>13.76</ele></trkpt><trkpt lat="49.70554" lon="-1.87237"><ele>13.55</ele></trkpt><trkpt lat="49.70561" lon="-1.8723"><ele>13.68</ele></trkpt><trkpt lat="49.70571" lon="-1.87214"><ele>14.14</ele></trkpt><trkpt lat="49.70582" lon="-1.87188"><ele>15.52</ele></trkpt><trkpt lat="49.70587" lon="-1.87168"><ele>16.26</ele></trkpt><trkpt lat="49.70594" lon="-1.8716"><ele>16.01</ele></trkpt><trkpt lat="49.70605" lon="-1.87132"><ele>16.74</ele></trkpt><trkpt lat="49.70615" lon="-1.87108"><ele>15.85</ele></trkpt><trkpt lat="49.70638" lon="-1.87052"><ele>16.49</ele></trkpt><trkpt lat="49.70642" lon="-1.87041"><ele>16.72</ele></trkpt><trkpt lat="49.7065" lon="-1.87023"><ele>16.31</ele></trkpt><trkpt lat="49.70656" lon="-1.87015"><ele>16.07</ele></trkpt><trkpt lat="49.7066" lon="-1.87017"><ele>15.63</ele></trkpt><trkpt lat="49.70677" lon="-1.8703"><ele>13.47</ele></trkpt><trkpt lat="49.70697" lon="-1.87042"><ele>11.41</ele></trkpt><trkpt lat="49.70748" lon="-1.87071"><ele>7.47</ele></trkpt><trkpt lat="49.70758" lon="-1.87078"><ele>7.21</ele></trkpt><trkpt lat="49.70778" lon="-1.87098"><ele>6.11</ele></trkpt><trkpt lat="49.7078" lon="-1.87102"><ele>6.28</ele></trkpt><trkpt lat="49.70797" lon="-1.87128"><ele>5.6</ele></trkpt><trkpt lat="49.70807" lon="-1.87144"><ele>5.51</ele></trkpt><trkpt lat="49.7081" lon="-1.87154"><ele>5.54</ele></trkpt><trkpt lat="49.70813" lon="-1.87152"><ele>5.53</ele></trkpt><trkpt lat="49.7081" lon="-1.87154"><ele>5.54</ele></trkpt><trkpt lat="49.70809" lon="-1.87163"><ele>5.55</ele></trkpt><trkpt lat="49.70791" lon="-1.87197"><ele>5.85</ele></trkpt><trkpt lat="49.70785" lon="-1.87214"><ele>5.76</ele></trkpt><trkpt lat="49.70769" lon="-1.87247"><ele>5.64</ele></trkpt><trkpt lat="49.70753" lon="-1.87287"><ele>5.23</ele></trkpt><trkpt lat="49.70752" lon="-1.8729"><ele>5.23</ele></trkpt><trkpt lat="49.70717" lon="-1.87379"><ele>5.17</ele></trkpt><trkpt lat="49.7071" lon="-1.87407"><ele>5.11</ele></trkpt><trkpt lat="49.70691" lon="-1.87465"><ele>5.33</ele></trkpt><trkpt lat="49.70689" lon="-1.87472"><ele>5.25</ele></trkpt><trkpt lat="49.70681" lon="-1.87507"><ele>5.16</ele></trkpt><trkpt lat="49.70677" lon="-1.87523"><ele>5.27</ele></trkpt><trkpt lat="49.70669" lon="-1.8755"><ele>5.37</ele></trkpt><trkpt lat="49.70662" lon="-1.87568"><ele>5.6</ele></trkpt><trkpt lat="49.70659" lon="-1.87579"><ele>5.42</ele></trkpt><trkpt lat="49.70659" lon="-1.87585"><ele>5.41</ele></trkpt><trkpt lat="49.70659" lon="-1.87592"><ele>5.65</ele></trkpt><trkpt lat="49.70656" lon="-1.87604"><ele>5.85</ele></trkpt><trkpt lat="49.70651" lon="-1.87615"><ele>5.78</ele></trkpt><trkpt lat="49.70643" lon="-1.87652"><ele>5.69</ele></trkpt><trkpt lat="49.7064" lon="-1.87671"><ele>5.41</ele></trkpt><trkpt lat="49.70633" lon="-1.87719"><ele>5.6</ele></trkpt><trkpt lat="49.70628" lon="-1.87741"><ele>5.94</ele></trkpt><trkpt lat="49.70626" lon="-1.87753"><ele>6.12</ele></trkpt><trkpt lat="49.70611" lon="-1.87842"><ele>6.2</ele></trkpt><trkpt lat="49.70604" lon="-1.87897"><ele>5.74</ele></trkpt><trkpt lat="49.70599" lon="-1.87914"><ele>5.42</ele></trkpt><trkpt lat="49.706" lon="-1.87924"><ele>5.58</ele></trkpt><trkpt lat="49.70599" lon="-1.87936"><ele>5.79</ele></trkpt><trkpt lat="49.70596" lon="-1.87958"><ele>5.53</ele></trkpt><trkpt lat="49.70596" lon="-1.87972"><ele>5.67</ele></trkpt><trkpt lat="49.70596" lon="-1.87978"><ele>5.96</ele></trkpt><trkpt lat="49.70593" lon="-1.87992"><ele>5.89</ele></trkpt><trkpt lat="49.70591" lon="-1.88027"><ele>6.38</ele></trkpt><trkpt lat="49.70588" lon="-1.88053"><ele>6.49</ele></trkpt><trkpt lat="49.70589" lon="-1.88073"><ele>5.66</ele></trkpt><trkpt lat="49.7058" lon="-1.88126"><ele>6.52</ele></trkpt><trkpt lat="49.70578" lon="-1.88174"><ele>5.84</ele></trkpt><trkpt lat="49.70576" lon="-1.88196"><ele>5.22</ele></trkpt><trkpt lat="49.70573" lon="-1.88217"><ele>4.97</ele></trkpt><trkpt lat="49.70573" lon="-1.88233"><ele>5.17</ele></trkpt><trkpt lat="49.70574" lon="-1.88241"><ele>5.22</ele></trkpt><trkpt lat="49.70574" lon="-1.88271"><ele>5.33</ele></trkpt><trkpt lat="49.70575" lon="-1.88318"><ele>5.36</ele></trkpt><trkpt lat="49.70579" lon="-1.88407"><ele>5.16</ele></trkpt><trkpt lat="49.70587" lon="-1.88528"><ele>5.14</ele></trkpt><trkpt lat="49.70596" lon="-1.88668"><ele>5.22</ele></trkpt><trkpt lat="49.706" lon="-1.88738"><ele>4.99</ele></trkpt><trkpt lat="49.70607" lon="-1.88777"><ele>5.2</ele></trkpt><trkpt lat="49.70614" lon="-1.88827"><ele>5.14</ele></trkpt><trkpt lat="49.70617" lon="-1.88852"><ele>4.82</ele></trkpt><trkpt lat="49.70617" lon="-1.88863"><ele>4.59</ele></trkpt><trkpt lat="49.7062" lon="-1.88875"><ele>4.77</ele></trkpt><trkpt lat="49.70622" lon="-1.8888"><ele>4.81</ele></trkpt><trkpt lat="49.70628" lon="-1.88895"><ele>5.08</ele></trkpt><trkpt lat="49.70637" lon="-1.88919"><ele>4.63</ele></trkpt><trkpt lat="49.70649" lon="-1.8894"><ele>6.16</ele></trkpt><trkpt lat="49.7065" lon="-1.88957"><ele>6.75</ele></trkpt><trkpt lat="49.7065" lon="-1.88978"><ele>7.32</ele></trkpt><trkpt lat="49.7066" lon="-1.88985"><ele>7.16</ele></trkpt><trkpt lat="49.70669" lon="-1.88995"><ele>7.4</ele></trkpt><trkpt lat="49.7067" lon="-1.88996"><ele>7.17</ele></trkpt><trkpt lat="49.70688" lon="-1.89024"><ele>7.89</ele></trkpt><trkpt lat="49.7069" lon="-1.89027"><ele>8.15</ele></trkpt><trkpt lat="49.7071" lon="-1.89061"><ele>9.64</ele></trkpt><trkpt lat="49.70727" lon="-1.89086"><ele>11.1</ele></trkpt><trkpt lat="49.7073" lon="-1.89088"><ele>11.08</ele></trkpt><trkpt lat="49.70751" lon="-1.89099"><ele>11.6</ele></trkpt><trkpt lat="49.70761" lon="-1.89103"><ele>11.61</ele></trkpt><trkpt lat="49.70778" lon="-1.89108"><ele>11.92</ele></trkpt><trkpt lat="49.70782" lon="-1.89109"><ele>11.93</ele></trkpt><trkpt lat="49.70806" lon="-1.89114"><ele>12.35</ele></trkpt><trkpt lat="49.70809" lon="-1.89116"><ele>12.63</ele></trkpt><trkpt lat="49.7081" lon="-1.89111"><ele>12.41</ele></trkpt><trkpt lat="49.70812" lon="-1.89109"><ele>11.99</ele></trkpt><trkpt lat="49.70816" lon="-1.89107"><ele>11.73</ele></trkpt><trkpt lat="49.7082" lon="-1.89105"><ele>11.11</ele></trkpt><trkpt lat="49.70823" lon="-1.89104"><ele>11.11</ele></trkpt><trkpt lat="49.70829" lon="-1.89095"><ele>10.3</ele></trkpt><trkpt lat="49.7084" lon="-1.89083"><ele>9.67</ele></trkpt><trkpt lat="49.70846" lon="-1.89078"><ele>9.43</ele></trkpt><trkpt lat="49.70855" lon="-1.89074"><ele>9.38</ele></trkpt><trkpt lat="49.70863" lon="-1.89071"><ele>9.25</ele></trkpt><trkpt lat="49.70866" lon="-1.8907"><ele>9.25</ele></trkpt><trkpt lat="49.70869" lon="-1.89067"><ele>8.85</ele></trkpt><trkpt lat="49.70872" lon="-1.89067"><ele>8.78</ele></trkpt><trkpt lat="49.70879" lon="-1.89062"><ele>8.68</ele></trkpt><trkpt lat="49.70883" lon="-1.8906"><ele>8.39</ele></trkpt><trkpt lat="49.70888" lon="-1.89057"><ele>8.22</ele></trkpt><trkpt lat="49.70892" lon="-1.89058"><ele>8.15</ele></trkpt><trkpt lat="49.70895" lon="-1.89061"><ele>8.22</ele></trkpt><trkpt lat="49.70898" lon="-1.89062"><ele>8.39</ele></trkpt><trkpt lat="49.709" lon="-1.89062"><ele>8.39</ele></trkpt><trkpt lat="49.70902" lon="-1.89061"><ele>8.66</ele></trkpt><trkpt lat="49.70906" lon="-1.89061"><ele>8.91</ele></trkpt><trkpt lat="49.70909" lon="-1.89062"><ele>8.91</ele></trkpt><trkpt lat="49.70913" lon="-1.89061"><ele>9.18</ele></trkpt><trkpt lat="49.70914" lon="-1.89062"><ele>9.18</ele></trkpt><trkpt lat="49.70917" lon="-1.89062"><ele>9.15</ele></trkpt><trkpt lat="49.7092" lon="-1.89061"><ele>9.24</ele></trkpt><trkpt lat="49.70924" lon="-1.89057"><ele>9.12</ele></trkpt><trkpt lat="49.70926" lon="-1.89049"><ele>7.27</ele></trkpt><trkpt lat="49.70929" lon="-1.89045"><ele>8.64</ele></trkpt><trkpt lat="49.70931" lon="-1.89041"><ele>8.38</ele></trkpt><trkpt lat="49.70934" lon="-1.89039"><ele>8.19</ele></trkpt><trkpt lat="49.70938" lon="-1.89038"><ele>8.14</ele></trkpt><trkpt lat="49.70943" lon="-1.8904"><ele>7.96</ele></trkpt><trkpt lat="49.70944" lon="-1.89043"><ele>8.34</ele></trkpt><trkpt lat="49.70946" lon="-1.8905"><ele>8.09</ele></trkpt><trkpt lat="49.70948" lon="-1.89056"><ele>8.33</ele></trkpt><trkpt lat="49.70947" lon="-1.89061"><ele>8.43</ele></trkpt><trkpt lat="49.70947" lon="-1.89067"><ele>8.52</ele></trkpt><trkpt lat="49.70948" lon="-1.89072"><ele>8.74</ele></trkpt><trkpt lat="49.70949" lon="-1.89078"><ele>8.7</ele></trkpt><trkpt lat="49.70949" lon="-1.89082"><ele>8.81</ele></trkpt><trkpt lat="49.70948" lon="-1.89087"><ele>9.21</ele></trkpt><trkpt lat="49.70948" lon="-1.8909"><ele>9.33</ele></trkpt><trkpt lat="49.70948" lon="-1.89093"><ele>9.33</ele></trkpt><trkpt lat="49.70947" lon="-1.89098"><ele>9.5</ele></trkpt><trkpt lat="49.70944" lon="-1.89105"><ele>9.89</ele></trkpt><trkpt lat="49.70941" lon="-1.89109"><ele>10.06</ele></trkpt><trkpt lat="49.70938" lon="-1.89116"><ele>10.41</ele></trkpt><trkpt lat="49.70937" lon="-1.89119"><ele>10.41</ele></trkpt><trkpt lat="49.70936" lon="-1.89125"><ele>10.79</ele></trkpt><trkpt lat="49.70935" lon="-1.89129"><ele>10.92</ele></trkpt><trkpt lat="49.70934" lon="-1.89138"><ele>11.25</ele></trkpt><trkpt lat="49.7093" lon="-1.89161"><ele>12.42</ele></trkpt><trkpt lat="49.70928" lon="-1.89171"><ele>12.92</ele></trkpt><trkpt lat="49.70929" lon="-1.89177"><ele>12.99</ele></trkpt><trkpt lat="49.70929" lon="-1.89181"><ele>13.21</ele></trkpt><trkpt lat="49.70931" lon="-1.89188"><ele>13.51</ele></trkpt><trkpt lat="49.70934" lon="-1.89193"><ele>13.39</ele></trkpt><trkpt lat="49.70937" lon="-1.89202"><ele>13.28</ele></trkpt><trkpt lat="49.70938" lon="-1.89206"><ele>13.33</ele></trkpt><trkpt lat="49.70938" lon="-1.8921"><ele>13.41</ele></trkpt><trkpt lat="49.70937" lon="-1.89216"><ele>13.54</ele></trkpt><trkpt lat="49.70937" lon="-1.89217"><ele>13.54</ele></trkpt><trkpt lat="49.70937" lon="-1.89224"><ele>14.07</ele></trkpt><trkpt lat="49.70939" lon="-1.8923"><ele>14.67</ele></trkpt><trkpt lat="49.70937" lon="-1.89232"><ele>15.23</ele></trkpt><trkpt lat="49.70935" lon="-1.89235"><ele>16.19</ele></trkpt><trkpt lat="49.70938" lon="-1.89242"><ele>15.91</ele></trkpt><trkpt lat="49.70945" lon="-1.89266"><ele>15.93</ele></trkpt><trkpt lat="49.70948" lon="-1.89281"><ele>16.5</ele></trkpt><trkpt lat="49.70953" lon="-1.89346"><ele>16.92</ele></trkpt><trkpt lat="49.70959" lon="-1.89375"><ele>16.44</ele></trkpt><trkpt lat="49.70962" lon="-1.89387"><ele>16.26</ele></trkpt><trkpt lat="49.70966" lon="-1.89395"><ele>15.99</ele></trkpt><trkpt lat="49.70976" lon="-1.89419"><ele>15.19</ele></trkpt><trkpt lat="49.70998" lon="-1.89469"><ele>13.59</ele></trkpt><trkpt lat="49.71003" lon="-1.89477"><ele>13.31</ele></trkpt><trkpt lat="49.71006" lon="-1.89482"><ele>12.98</ele></trkpt><trkpt lat="49.71038" lon="-1.89536"><ele>10.93</ele></trkpt><trkpt lat="49.71048" lon="-1.89549"><ele>10.06</ele></trkpt><trkpt lat="49.71055" lon="-1.89556"><ele>9.79</ele></trkpt><trkpt lat="49.71063" lon="-1.89568"><ele>9.13</ele></trkpt><trkpt lat="49.71076" lon="-1.89588"><ele>8.04</ele></trkpt><trkpt lat="49.71087" lon="-1.8961"><ele>7.08</ele></trkpt><trkpt lat="49.71087" lon="-1.89611"><ele>7.08</ele></trkpt><trkpt lat="49.71099" lon="-1.89634"><ele>6.65</ele></trkpt><trkpt lat="49.71122" lon="-1.89676"><ele>8.48</ele></trkpt><trkpt lat="49.71125" lon="-1.8968"><ele>8.82</ele></trkpt><trkpt lat="49.71144" lon="-1.89701"><ele>10.78</ele></trkpt><trkpt lat="49.71175" lon="-1.89728"><ele>13.83</ele></trkpt><trkpt lat="49.71178" lon="-1.89724"><ele>13.8</ele></trkpt><trkpt lat="49.71175" lon="-1.89728"><ele>13.83</ele></trkpt><trkpt lat="49.71214" lon="-1.89763"><ele>18.18</ele></trkpt><trkpt lat="49.71228" lon="-1.89774"><ele>20.09</ele></trkpt><trkpt lat="49.71236" lon="-1.8978"><ele>20.66</ele></trkpt><trkpt lat="49.71244" lon="-1.89782"><ele>21.5</ele></trkpt><trkpt lat="49.71245" lon="-1.89782"><ele>21.83</ele></trkpt><trkpt lat="49.71261" lon="-1.89784"><ele>22.98</ele></trkpt><trkpt lat="49.71311" lon="-1.8978"><ele>27.77</ele></trkpt><trkpt lat="49.71341" lon="-1.89776"><ele>30.98</ele></trkpt><trkpt lat="49.71354" lon="-1.89776"><ele>32.17</ele></trkpt><trkpt lat="49.71364" lon="-1.89779"><ele>33.06</ele></trkpt><trkpt lat="49.71365" lon="-1.8978"><ele>33.5</ele></trkpt><trkpt lat="49.7138" lon="-1.89767"><ele>33.57</ele></trkpt><trkpt lat="49.71382" lon="-1.89761"><ele>32.59</ele></trkpt><trkpt lat="49.71379" lon="-1.89752"><ele>31.12</ele></trkpt><trkpt lat="49.71375" lon="-1.89742"><ele>28.9</ele></trkpt><trkpt lat="49.71372" lon="-1.89733"><ele>26.17</ele></trkpt><trkpt lat="49.71369" lon="-1.89725"><ele>25.26</ele></trkpt><trkpt lat="49.71366" lon="-1.8972"><ele>22.86</ele></trkpt><trkpt lat="49.71365" lon="-1.89715"><ele>21.71</ele></trkpt><trkpt lat="49.71368" lon="-1.89712"><ele>21.71</ele></trkpt><trkpt lat="49.71372" lon="-1.89708"><ele>21.53</ele></trkpt><trkpt lat="49.71376" lon="-1.89705"><ele>21.18</ele></trkpt><trkpt lat="49.71379" lon="-1.89703"><ele>21.91</ele></trkpt><trkpt lat="49.71383" lon="-1.89698"><ele>21.11</ele></trkpt><trkpt lat="49.71387" lon="-1.89693"><ele>20.9</ele></trkpt><trkpt lat="49.71389" lon="-1.89688"><ele>20.51</ele></trkpt><trkpt lat="49.71391" lon="-1.89684"><ele>20.11</ele></trkpt><trkpt lat="49.71394" lon="-1.89681"><ele>19.49</ele></trkpt><trkpt lat="49.714" lon="-1.89677"><ele>19.32</ele></trkpt><trkpt lat="49.71406" lon="-1.89673"><ele>19.64</ele></trkpt><trkpt lat="49.71414" lon="-1.8967"><ele>18.84</ele></trkpt><trkpt lat="49.71421" lon="-1.89667"><ele>18.97</ele></trkpt><trkpt lat="49.71426" lon="-1.89664"><ele>18.59</ele></trkpt><trkpt lat="49.71431" lon="-1.89658"><ele>18.27</ele></trkpt><trkpt lat="49.71435" lon="-1.89652"><ele>17.87</ele></trkpt><trkpt lat="49.7144" lon="-1.89648"><ele>16.99</ele></trkpt><trkpt lat="49.71445" lon="-1.89645"><ele>15.7</ele></trkpt><trkpt lat="49.71448" lon="-1.89642"><ele>14.83</ele></trkpt><trkpt lat="49.71451" lon="-1.89639"><ele>16.38</ele></trkpt><trkpt lat="49.71456" lon="-1.89639"><ele>17.06</ele></trkpt><trkpt lat="49.7146" lon="-1.89637"><ele>15.73</ele></trkpt><trkpt lat="49.71463" lon="-1.89634"><ele>14.79</ele></trkpt><trkpt lat="49.71467" lon="-1.8963"><ele>13.63</ele></trkpt><trkpt lat="49.71469" lon="-1.89627"><ele>14.97</ele></trkpt><trkpt lat="49.71472" lon="-1.89622"><ele>13.87</ele></trkpt><trkpt lat="49.71475" lon="-1.89617"><ele>12.88</ele></trkpt><trkpt lat="49.71479" lon="-1.89613"><ele>14.29</ele></trkpt><trkpt lat="49.71484" lon="-1.89611"><ele>14.24</ele></trkpt><trkpt lat="49.71495" lon="-1.89609"><ele>15.18</ele></trkpt><trkpt lat="49.71508" lon="-1.89605"><ele>15.3</ele></trkpt><trkpt lat="49.7152" lon="-1.89602"><ele>15.17</ele></trkpt><trkpt lat="49.71538" lon="-1.89599"><ele>14.13</ele></trkpt><trkpt lat="49.71554" lon="-1.89596"><ele>14.41</ele></trkpt><trkpt lat="49.71559" lon="-1.89597"><ele>14.49</ele></trkpt><trkpt lat="49.71562" lon="-1.89592"><ele>13.75</ele></trkpt><trkpt lat="49.71564" lon="-1.89586"><ele>13.69</ele></trkpt><trkpt lat="49.71566" lon="-1.89577"><ele>13.18</ele></trkpt><trkpt lat="49.71569" lon="-1.8957"><ele>13.92</ele></trkpt><trkpt lat="49.71572" lon="-1.89566"><ele>13.18</ele></trkpt><trkpt lat="49.71577" lon="-1.89567"><ele>12.61</ele></trkpt><trkpt lat="49.71582" lon="-1.89569"><ele>12.14</ele></trkpt><trkpt lat="49.71588" lon="-1.89573"><ele>12.52</ele></trkpt><trkpt lat="49.71593" lon="-1.89576"><ele>11.98</ele></trkpt><trkpt lat="49.71598" lon="-1.89579"><ele>12.35</ele></trkpt><trkpt lat="49.71601" lon="-1.89582"><ele>12.35</ele></trkpt><trkpt lat="49.71604" lon="-1.89587"><ele>12.06</ele></trkpt><trkpt lat="49.71606" lon="-1.8959"><ele>11.78</ele></trkpt><trkpt lat="49.7161" lon="-1.89592"><ele>11.54</ele></trkpt><trkpt lat="49.71614" lon="-1.89594"><ele>10.92</ele></trkpt><trkpt lat="49.7162" lon="-1.89599"><ele>10.5</ele></trkpt><trkpt lat="49.71627" lon="-1.89604"><ele>9.71</ele></trkpt><trkpt lat="49.7163" lon="-1.89605"><ele>9.96</ele></trkpt><trkpt lat="49.71632" lon="-1.89607"><ele>9.56</ele></trkpt><trkpt lat="49.71637" lon="-1.89611"><ele>9.78</ele></trkpt><trkpt lat="49.71641" lon="-1.89615"><ele>10.04</ele></trkpt><trkpt lat="49.71646" lon="-1.89621"><ele>10.2</ele></trkpt><trkpt lat="49.71651" lon="-1.89629"><ele>10.41</ele></trkpt><trkpt lat="49.71654" lon="-1.89634"><ele>10.2</ele></trkpt><trkpt lat="49.71657" lon="-1.89642"><ele>10.3</ele></trkpt><trkpt lat="49.71661" lon="-1.8965"><ele>10.45</ele></trkpt><trkpt lat="49.71665" lon="-1.89656"><ele>10.28</ele></trkpt><trkpt lat="49.71668" lon="-1.89661"><ele>10.09</ele></trkpt><trkpt lat="49.71671" lon="-1.89666"><ele>9.94</ele></trkpt><trkpt lat="49.71673" lon="-1.89671"><ele>9.87</ele></trkpt><trkpt lat="49.71675" lon="-1.89677"><ele>9.84</ele></trkpt><trkpt lat="49.71677" lon="-1.89682"><ele>9.96</ele></trkpt><trkpt lat="49.71677" lon="-1.89687"><ele>9.76</ele></trkpt><trkpt lat="49.71679" lon="-1.89696"><ele>9.54</ele></trkpt><trkpt lat="49.71679" lon="-1.89706"><ele>9.73</ele></trkpt><trkpt lat="49.71678" lon="-1.89718"><ele>10.09</ele></trkpt><trkpt lat="49.71678" lon="-1.89733"><ele>10.22</ele></trkpt><trkpt lat="49.71678" lon="-1.8975"><ele>10.48</ele></trkpt><trkpt lat="49.71679" lon="-1.8976"><ele>10.1</ele></trkpt><trkpt lat="49.71679" lon="-1.8977"><ele>10.36</ele></trkpt><trkpt lat="49.71681" lon="-1.89778"><ele>10.62</ele></trkpt><trkpt lat="49.71681" lon="-1.89779"><ele>10.62</ele></trkpt><trkpt lat="49.71684" lon="-1.89789"><ele>10.53</ele></trkpt><trkpt lat="49.71687" lon="-1.89799"><ele>9.64</ele></trkpt><trkpt lat="49.71692" lon="-1.89811"><ele>9.99</ele></trkpt><trkpt lat="49.71698" lon="-1.89824"><ele>10.38</ele></trkpt><trkpt lat="49.71703" lon="-1.89826"><ele>9.59</ele></trkpt><trkpt lat="49.7171" lon="-1.8983"><ele>9.15</ele></trkpt><trkpt lat="49.71715" lon="-1.89835"><ele>8.43</ele></trkpt><trkpt lat="49.7172" lon="-1.89842"><ele>8.52</ele></trkpt><trkpt lat="49.71724" lon="-1.89846"><ele>8.26</ele></trkpt><trkpt lat="49.7173" lon="-1.89854"><ele>7.49</ele></trkpt><trkpt lat="49.71736" lon="-1.8986"><ele>7.55</ele></trkpt><trkpt lat="49.71743" lon="-1.89868"><ele>7.96</ele></trkpt><trkpt lat="49.7175" lon="-1.89879"><ele>8.24</ele></trkpt><trkpt lat="49.71757" lon="-1.89888"><ele>8.33</ele></trkpt><trkpt lat="49.71761" lon="-1.89898"><ele>8.12</ele></trkpt><trkpt lat="49.71761" lon="-1.89902"><ele>8.33</ele></trkpt><trkpt lat="49.71762" lon="-1.89914"><ele>8.67</ele></trkpt><trkpt lat="49.71764" lon="-1.8992"><ele>8.48</ele></trkpt><trkpt lat="49.71766" lon="-1.89932"><ele>8.21</ele></trkpt><trkpt lat="49.71767" lon="-1.89934"><ele>8.21</ele></trkpt><trkpt lat="49.71768" lon="-1.89942"><ele>9.07</ele></trkpt><trkpt lat="49.71771" lon="-1.89944"><ele>8.79</ele></trkpt><trkpt lat="49.71776" lon="-1.89949"><ele>8.88</ele></trkpt><trkpt lat="49.71785" lon="-1.89958"><ele>8.93</ele></trkpt><trkpt lat="49.71798" lon="-1.89974"><ele>9.55</ele></trkpt><trkpt lat="49.71811" lon="-1.89989"><ele>9.75</ele></trkpt><trkpt lat="49.71826" lon="-1.90009"><ele>10.16</ele></trkpt><trkpt lat="49.71834" lon="-1.90018"><ele>10.25</ele></trkpt><trkpt lat="49.71836" lon="-1.90024"><ele>10.5</ele></trkpt><trkpt lat="49.71838" lon="-1.90043"><ele>10.6</ele></trkpt><trkpt lat="49.71841" lon="-1.901"><ele>11.97</ele></trkpt><trkpt lat="49.71841" lon="-1.90144"><ele>12.52</ele></trkpt><trkpt lat="49.71841" lon="-1.9015"><ele>12.23</ele></trkpt><trkpt lat="49.71844" lon="-1.90184"><ele>10.94</ele></trkpt><trkpt lat="49.71848" lon="-1.90207"><ele>10.09</ele></trkpt><trkpt lat="49.71863" lon="-1.90277"><ele>7.86</ele></trkpt><trkpt lat="49.71867" lon="-1.90295"><ele>7.77</ele></trkpt><trkpt lat="49.71871" lon="-1.90318"><ele>6.81</ele></trkpt><trkpt lat="49.71873" lon="-1.90322"><ele>6.59</ele></trkpt><trkpt lat="49.7188" lon="-1.90323"><ele>7.03</ele></trkpt><trkpt lat="49.71884" lon="-1.90328"><ele>7.07</ele></trkpt><trkpt lat="49.71888" lon="-1.90334"><ele>7.71</ele></trkpt><trkpt lat="49.71897" lon="-1.90339"><ele>7.53</ele></trkpt><trkpt lat="49.71898" lon="-1.90344"><ele>7.52</ele></trkpt><trkpt lat="49.71905" lon="-1.90355"><ele>7.81</ele></trkpt><trkpt lat="49.71916" lon="-1.9037"><ele>8.24</ele></trkpt><trkpt lat="49.71924" lon="-1.9038"><ele>8.36</ele></trkpt><trkpt lat="49.7193" lon="-1.90387"><ele>8.78</ele></trkpt><trkpt lat="49.71936" lon="-1.90392"><ele>8.42</ele></trkpt><trkpt lat="49.71944" lon="-1.90404"><ele>9.09</ele></trkpt><trkpt lat="49.71949" lon="-1.90409"><ele>9.25</ele></trkpt><trkpt lat="49.71955" lon="-1.90411"><ele>9.3</ele></trkpt><trkpt lat="49.7197" lon="-1.90409"><ele>8.98</ele></trkpt><trkpt lat="49.71981" lon="-1.90406"><ele>8.22</ele></trkpt><trkpt lat="49.71983" lon="-1.90405"><ele>8.09</ele></trkpt><trkpt lat="49.71992" lon="-1.90405"><ele>7.81</ele></trkpt><trkpt lat="49.72006" lon="-1.90405"><ele>7.4</ele></trkpt><trkpt lat="49.72024" lon="-1.90408"><ele>7.1</ele></trkpt><trkpt lat="49.72039" lon="-1.90413"><ele>6.66</ele></trkpt><trkpt lat="49.72045" lon="-1.90418"><ele>6.8</ele></trkpt><trkpt lat="49.72054" lon="-1.90429"><ele>6.85</ele></trkpt><trkpt lat="49.72064" lon="-1.90433"><ele>6.62</ele></trkpt><trkpt lat="49.72072" lon="-1.90435"><ele>6.36</ele></trkpt><trkpt lat="49.72082" lon="-1.90437"><ele>6.13</ele></trkpt><trkpt lat="49.72086" lon="-1.90442"><ele>5.94</ele></trkpt><trkpt lat="49.72088" lon="-1.90446"><ele>6.12</ele></trkpt><trkpt lat="49.72091" lon="-1.90456"><ele>5.74</ele></trkpt><trkpt lat="49.72092" lon="-1.90463"><ele>6.07</ele></trkpt><trkpt lat="49.72094" lon="-1.90477"><ele>6.15</ele></trkpt><trkpt lat="49.72095" lon="-1.90481"><ele>5.53</ele></trkpt><trkpt lat="49.72095" lon="-1.9049"><ele>5.93</ele></trkpt><trkpt lat="49.72097" lon="-1.90509"><ele>6.12</ele></trkpt><trkpt lat="49.721" lon="-1.90525"><ele>5.67</ele></trkpt><trkpt lat="49.72102" lon="-1.90535"><ele>6.07</ele></trkpt><trkpt lat="49.7211" lon="-1.9056"><ele>5.86</ele></trkpt><trkpt lat="49.72117" lon="-1.90583"><ele>6.14</ele></trkpt><trkpt lat="49.72126" lon="-1.90592"><ele>6.01</ele></trkpt><trkpt lat="49.72134" lon="-1.90631"><ele>7.31</ele></trkpt><trkpt lat="49.72137" lon="-1.90651"><ele>8.11</ele></trkpt><trkpt lat="49.72139" lon="-1.90661"><ele>8.4</ele></trkpt><trkpt lat="49.72142" lon="-1.90679"><ele>8.77</ele></trkpt><trkpt lat="49.72143" lon="-1.90681"><ele>8.77</ele></trkpt><trkpt lat="49.72143" lon="-1.90698"><ele>9</ele></trkpt><trkpt lat="49.72143" lon="-1.90718"><ele>8.92</ele></trkpt><trkpt lat="49.72141" lon="-1.90738"><ele>8.68</ele></trkpt><trkpt lat="49.7214" lon="-1.90745"><ele>8.56</ele></trkpt><trkpt lat="49.72131" lon="-1.90781"><ele>5.62</ele></trkpt><trkpt lat="49.72122" lon="-1.90805"><ele>5.99</ele></trkpt><trkpt lat="49.72114" lon="-1.90852"><ele>5.06</ele></trkpt><trkpt lat="49.72109" lon="-1.9088"><ele>5.26</ele></trkpt><trkpt lat="49.72106" lon="-1.909"><ele>5.15</ele></trkpt><trkpt lat="49.72105" lon="-1.90913"><ele>5.27</ele></trkpt><trkpt lat="49.72107" lon="-1.90969"><ele>6.17</ele></trkpt><trkpt lat="49.72116" lon="-1.91032"><ele>5.17</ele></trkpt><trkpt lat="49.72118" lon="-1.91043"><ele>5.19</ele></trkpt><trkpt lat="49.72121" lon="-1.9107"><ele>4.69</ele></trkpt><trkpt lat="49.72124" lon="-1.91086"><ele>5.04</ele></trkpt><trkpt lat="49.72129" lon="-1.91102"><ele>4.34</ele></trkpt><trkpt lat="49.72131" lon="-1.91115"><ele>5.04</ele></trkpt><trkpt lat="49.72135" lon="-1.91131"><ele>4.85</ele></trkpt><trkpt lat="49.72137" lon="-1.91149"><ele>4.8</ele></trkpt><trkpt lat="49.72143" lon="-1.91189"><ele>5.13</ele></trkpt><trkpt lat="49.72147" lon="-1.91201"><ele>5.55</ele></trkpt><trkpt lat="49.72155" lon="-1.91213"><ele>5.41</ele></trkpt><trkpt lat="49.72172" lon="-1.91234"><ele>4.72</ele></trkpt><trkpt lat="49.72179" lon="-1.9124"><ele>4.79</ele></trkpt><trkpt lat="49.72193" lon="-1.91247"><ele>4.44</ele></trkpt><trkpt lat="49.72215" lon="-1.91253"><ele>4.05</ele></trkpt><trkpt lat="49.72227" lon="-1.91258"><ele>4.11</ele></trkpt><trkpt lat="49.72231" lon="-1.91262"><ele>4.68</ele></trkpt><trkpt lat="49.72236" lon="-1.91266"><ele>5.13</ele></trkpt><trkpt lat="49.72258" lon="-1.91291"><ele>6.23</ele></trkpt><trkpt lat="49.72269" lon="-1.91302"><ele>6.38</ele></trkpt><trkpt lat="49.72295" lon="-1.91324"><ele>7.21</ele></trkpt><trkpt lat="49.72302" lon="-1.9133"><ele>7.59</ele></trkpt><trkpt lat="49.72331" lon="-1.91364"><ele>8.36</ele></trkpt><trkpt lat="49.72348" lon="-1.91385"><ele>8.04</ele></trkpt><trkpt lat="49.7237" lon="-1.91416"><ele>6.62</ele></trkpt><trkpt lat="49.72374" lon="-1.91421"><ele>6.38</ele></trkpt><trkpt lat="49.72382" lon="-1.91449"><ele>6.63</ele></trkpt><trkpt lat="49.72388" lon="-1.91473"><ele>5.94</ele></trkpt><trkpt lat="49.72405" lon="-1.9153"><ele>5.94</ele></trkpt><trkpt lat="49.72406" lon="-1.91533"><ele>6.17</ele></trkpt><trkpt lat="49.7243" lon="-1.91575"><ele>4.86</ele></trkpt><trkpt lat="49.72434" lon="-1.91583"><ele>5.09</ele></trkpt><trkpt lat="49.72443" lon="-1.91598"><ele>5.11</ele></trkpt><trkpt lat="49.72446" lon="-1.91612"><ele>5.7</ele></trkpt><trkpt lat="49.72409" lon="-1.91635"><ele>6.47</ele></trkpt><trkpt lat="49.72373" lon="-1.91658"><ele>8.16</ele></trkpt><trkpt lat="49.72365" lon="-1.91662"><ele>8.32</ele></trkpt><trkpt lat="49.72352" lon="-1.9167"><ele>9.12</ele></trkpt><trkpt lat="49.72339" lon="-1.91678"><ele>9.77</ele></trkpt><trkpt lat="49.72303" lon="-1.91698"><ele>11.58</ele></trkpt><trkpt lat="49.72295" lon="-1.917"><ele>11.95</ele></trkpt><trkpt lat="49.72274" lon="-1.91698"><ele>13.28</ele></trkpt><trkpt lat="49.72254" lon="-1.91696"><ele>14.62</ele></trkpt><trkpt lat="49.7224" lon="-1.917"><ele>15.57</ele></trkpt><trkpt lat="49.72232" lon="-1.91703"><ele>15.92</ele></trkpt><trkpt lat="49.72195" lon="-1.91723"><ele>17.65</ele></trkpt><trkpt lat="49.72188" lon="-1.91725"><ele>18.01</ele></trkpt><trkpt lat="49.72182" lon="-1.91724"><ele>18.37</ele></trkpt><trkpt lat="49.72179" lon="-1.91721"><ele>18.48</ele></trkpt><trkpt lat="49.72169" lon="-1.91706"><ele>18.81</ele></trkpt><trkpt lat="49.72163" lon="-1.91702"><ele>18.88</ele></trkpt><trkpt lat="49.72156" lon="-1.91701"><ele>18.95</ele></trkpt><trkpt lat="49.72146" lon="-1.91706"><ele>19.18</ele></trkpt><trkpt lat="49.72133" lon="-1.91713"><ele>19.61</ele></trkpt><trkpt lat="49.72123" lon="-1.91718"><ele>19.75</ele></trkpt><trkpt lat="49.72095" lon="-1.91733"><ele>20.1</ele></trkpt><trkpt lat="49.72086" lon="-1.91738"><ele>20.22</ele></trkpt><trkpt lat="49.72071" lon="-1.91746"><ele>20.47</ele></trkpt><trkpt lat="49.7206" lon="-1.91752"><ele>20.66</ele></trkpt><trkpt lat="49.72049" lon="-1.91759"><ele>20.7</ele></trkpt><trkpt lat="49.72036" lon="-1.91767"><ele>20.63</ele></trkpt><trkpt lat="49.72006" lon="-1.91785"><ele>20.72</ele></trkpt><trkpt lat="49.72001" lon="-1.91788"><ele>20.74</ele></trkpt><trkpt lat="49.71993" lon="-1.91793"><ele>20.9</ele></trkpt><trkpt lat="49.71988" lon="-1.91795"><ele>20.77</ele></trkpt><trkpt lat="49.71973" lon="-1.91804"><ele>20.8</ele></trkpt><trkpt lat="49.71947" lon="-1.91817"><ele>20.97</ele></trkpt><trkpt lat="49.7194" lon="-1.91821"><ele>21.08</ele></trkpt><trkpt lat="49.71928" lon="-1.91827"><ele>21.19</ele></trkpt><trkpt lat="49.71913" lon="-1.91837"><ele>21.28</ele></trkpt><trkpt lat="49.71894" lon="-1.9185"><ele>21.51</ele></trkpt><trkpt lat="49.71889" lon="-1.91853"><ele>21.59</ele></trkpt><trkpt lat="49.71873" lon="-1.91869"><ele>22</ele></trkpt><trkpt lat="49.71863" lon="-1.9188"><ele>22.34</ele></trkpt><trkpt lat="49.71861" lon="-1.91882"><ele>22.27</ele></trkpt><trkpt lat="49.71852" lon="-1.91898"><ele>22.61</ele></trkpt><trkpt lat="49.71828" lon="-1.91937"><ele>23.29</ele></trkpt><trkpt lat="49.71823" lon="-1.91947"><ele>23.47</ele></trkpt><trkpt lat="49.71813" lon="-1.91968"><ele>23.62</ele></trkpt><trkpt lat="49.7181" lon="-1.91971"><ele>23.8</ele></trkpt><trkpt lat="49.71809" lon="-1.91973"><ele>23.8</ele></trkpt><trkpt lat="49.71803" lon="-1.91974"><ele>23.88</ele></trkpt><trkpt lat="49.71795" lon="-1.91971"><ele>24.14</ele></trkpt><trkpt lat="49.71791" lon="-1.91968"><ele>24.45</ele></trkpt><trkpt lat="49.71787" lon="-1.91965"><ele>24.34</ele></trkpt><trkpt lat="49.71758" lon="-1.91941"><ele>24.68</ele></trkpt><trkpt lat="49.71739" lon="-1.91924"><ele>24.75</ele></trkpt><trkpt lat="49.71724" lon="-1.91912"><ele>24.82</ele></trkpt><trkpt lat="49.71691" lon="-1.91884"><ele>25.06</ele></trkpt><trkpt lat="49.71679" lon="-1.91877"><ele>24.99</ele></trkpt><trkpt lat="49.71665" lon="-1.9187"><ele>25.23</ele></trkpt><trkpt lat="49.7164" lon="-1.91859"><ele>25.51</ele></trkpt><trkpt lat="49.71629" lon="-1.91855"><ele>25.75</ele></trkpt><trkpt lat="49.71604" lon="-1.91839"><ele>26.52</ele></trkpt><trkpt lat="49.71596" lon="-1.91834"><ele>26.77</ele></trkpt><trkpt lat="49.71568" lon="-1.91813"><ele>28</ele></trkpt><trkpt lat="49.71553" lon="-1.91803"><ele>28.98</ele></trkpt><trkpt lat="49.71537" lon="-1.91794"><ele>29.93</ele></trkpt><trkpt lat="49.71534" lon="-1.91794"><ele>30.2</ele></trkpt><trkpt lat="49.71525" lon="-1.91792"><ele>30.87</ele></trkpt><trkpt lat="49.71522" lon="-1.91792"><ele>31.21</ele></trkpt><trkpt lat="49.71512" lon="-1.91791"><ele>32.06</ele></trkpt><trkpt lat="49.71482" lon="-1.91794"><ele>34.93</ele></trkpt><trkpt lat="49.71483" lon="-1.91786"><ele>35.68</ele></trkpt><trkpt lat="49.71482" lon="-1.91794"><ele>34.93</ele></trkpt><trkpt lat="49.71469" lon="-1.91836"><ele>34.2</ele></trkpt><trkpt lat="49.71464" lon="-1.91852"><ele>33.99</ele></trkpt><trkpt lat="49.71463" lon="-1.91867"><ele>34.08</ele></trkpt><trkpt lat="49.71459" lon="-1.91936"><ele>33.14</ele></trkpt><trkpt lat="49.71455" lon="-1.91956"><ele>33.22</ele></trkpt><trkpt lat="49.71449" lon="-1.91983"><ele>32.76</ele></trkpt><trkpt lat="49.71446" lon="-1.9201"><ele>32.49</ele></trkpt><trkpt lat="49.71445" lon="-1.92036"><ele>33.03</ele></trkpt><trkpt lat="49.71445" lon="-1.92045"><ele>33.11</ele></trkpt><trkpt lat="49.71437" lon="-1.9213"><ele>32.35</ele></trkpt><trkpt lat="49.71435" lon="-1.92174"><ele>31.62</ele></trkpt><trkpt lat="49.71435" lon="-1.92204"><ele>31.14</ele></trkpt><trkpt lat="49.71431" lon="-1.92205"><ele>31.27</ele></trkpt><trkpt lat="49.71426" lon="-1.92208"><ele>31.43</ele></trkpt><trkpt lat="49.71409" lon="-1.92209"><ele>31.73</ele></trkpt><trkpt lat="49.71387" lon="-1.92206"><ele>32.44</ele></trkpt><trkpt lat="49.7137" lon="-1.92204"><ele>33.29</ele></trkpt><trkpt lat="49.71334" lon="-1.92199"><ele>35.84</ele></trkpt><trkpt lat="49.71324" lon="-1.92199"><ele>36.47</ele></trkpt><trkpt lat="49.71311" lon="-1.92199"><ele>37.43</ele></trkpt><trkpt lat="49.71299" lon="-1.92199"><ele>38.59</ele></trkpt><trkpt lat="49.71296" lon="-1.92199"><ele>38.98</ele></trkpt><trkpt lat="49.71273" lon="-1.92201"><ele>41.36</ele></trkpt><trkpt lat="49.71225" lon="-1.9221"><ele>47.2</ele></trkpt><trkpt lat="49.71216" lon="-1.92212"><ele>48.03</ele></trkpt><trkpt lat="49.71191" lon="-1.92211"><ele>50.76</ele></trkpt><trkpt lat="49.71171" lon="-1.922"><ele>53.43</ele></trkpt><trkpt lat="49.71154" lon="-1.92197"><ele>54.7</ele></trkpt><trkpt lat="49.71138" lon="-1.92196"><ele>55.81</ele></trkpt><trkpt lat="49.71122" lon="-1.92199"><ele>57.26</ele></trkpt><trkpt lat="49.7112" lon="-1.92191"><ele>57.43</ele></trkpt><trkpt lat="49.71101" lon="-1.9216"><ele>58.11</ele></trkpt><trkpt lat="49.71094" lon="-1.92139"><ele>57.93</ele></trkpt><trkpt lat="49.71091" lon="-1.92126"><ele>57.52</ele></trkpt><trkpt lat="49.71089" lon="-1.92102"><ele>56.81</ele></trkpt><trkpt lat="49.71089" lon="-1.92101"><ele>56.67</ele></trkpt><trkpt lat="49.71091" lon="-1.92091"><ele>56.22</ele></trkpt><trkpt lat="49.71099" lon="-1.92063"><ele>55.02</ele></trkpt><trkpt lat="49.71103" lon="-1.92041"><ele>53.99</ele></trkpt><trkpt lat="49.71104" lon="-1.9203"><ele>53.87</ele></trkpt><trkpt lat="49.71104" lon="-1.92026"><ele>53.9</ele></trkpt><trkpt lat="49.71103" lon="-1.9202"><ele>54.01</ele></trkpt><trkpt lat="49.71102" lon="-1.9201"><ele>54.22</ele></trkpt><trkpt lat="49.71078" lon="-1.9191"><ele>57.42</ele></trkpt><trkpt lat="49.71077" lon="-1.91902"><ele>57.99</ele></trkpt><trkpt lat="49.7108" lon="-1.91878"><ele>59.51</ele></trkpt><trkpt lat="49.71081" lon="-1.9187"><ele>60.14</ele></trkpt><trkpt lat="49.71082" lon="-1.91849"><ele>61.06</ele></trkpt><trkpt lat="49.71082" lon="-1.91828"><ele>62.6</ele></trkpt><trkpt lat="49.71083" lon="-1.91775"><ele>65.07</ele></trkpt><trkpt lat="49.71083" lon="-1.91771"><ele>65.12</ele></trkpt><trkpt lat="49.71086" lon="-1.9174"><ele>66.54</ele></trkpt><trkpt lat="49.711" lon="-1.9169"><ele>66.83</ele></trkpt><trkpt lat="49.71115" lon="-1.91638"><ele>67.6</ele></trkpt><trkpt lat="49.71126" lon="-1.91603"><ele>68.45</ele></trkpt><trkpt lat="49.71135" lon="-1.91581"><ele>68.66</ele></trkpt><trkpt lat="49.71126" lon="-1.91603"><ele>68.45</ele></trkpt><trkpt lat="49.71115" lon="-1.91638"><ele>67.6</ele></trkpt><trkpt lat="49.71126" lon="-1.91603"><ele>68.45</ele></trkpt><trkpt lat="49.71135" lon="-1.9158"><ele>68.66</ele></trkpt><trkpt lat="49.71106" lon="-1.91567"><ele>70.92</ele></trkpt><trkpt lat="49.71094" lon="-1.91561"><ele>72.21</ele></trkpt><trkpt lat="49.71092" lon="-1.91559"><ele>72.21</ele></trkpt><trkpt lat="49.71085" lon="-1.91552"><ele>73.22</ele></trkpt><trkpt lat="49.71073" lon="-1.91525"><ele>74.97</ele></trkpt><trkpt lat="49.7106" lon="-1.91486"><ele>76.86</ele></trkpt><trkpt lat="49.71054" lon="-1.9145"><ele>77.86</ele></trkpt><trkpt lat="49.71051" lon="-1.91421"><ele>78.75</ele></trkpt><trkpt lat="49.71047" lon="-1.91397"><ele>78.23</ele></trkpt><trkpt lat="49.71045" lon="-1.91386"><ele>77.97</ele></trkpt><trkpt lat="49.71039" lon="-1.91361"><ele>77.53</ele></trkpt><trkpt lat="49.71033" lon="-1.91343"><ele>77.1</ele></trkpt><trkpt lat="49.7103" lon="-1.91338"><ele>76.99</ele></trkpt><trkpt lat="49.71016" lon="-1.91318"><ele>76.97</ele></trkpt><trkpt lat="49.71001" lon="-1.91297"><ele>76.99</ele></trkpt><trkpt lat="49.70996" lon="-1.91289"><ele>77.2</ele></trkpt><trkpt lat="49.70986" lon="-1.91276"><ele>76.83</ele></trkpt><trkpt lat="49.70985" lon="-1.91274"><ele>76.83</ele></trkpt><trkpt lat="49.70958" lon="-1.91238"><ele>76.33</ele></trkpt><trkpt lat="49.70943" lon="-1.91222"><ele>75.58</ele></trkpt><trkpt lat="49.70934" lon="-1.91214"><ele>75.24</ele></trkpt><trkpt lat="49.70927" lon="-1.91209"><ele>75.12</ele></trkpt><trkpt lat="49.70891" lon="-1.91191"><ele>74.67</ele></trkpt><trkpt lat="49.7088" lon="-1.91184"><ele>74.48</ele></trkpt><trkpt lat="49.7086" lon="-1.91169"><ele>74.06</ele></trkpt><trkpt lat="49.70849" lon="-1.9116"><ele>73.75</ele></trkpt><trkpt lat="49.70812" lon="-1.91128"><ele>72.53</ele></trkpt><trkpt lat="49.7078" lon="-1.911"><ele>71.74</ele></trkpt><trkpt lat="49.70779" lon="-1.91098"><ele>71.74</ele></trkpt><trkpt lat="49.7075" lon="-1.91074"><ele>71.15</ele></trkpt><trkpt lat="49.70719" lon="-1.91048"><ele>70.38</ele></trkpt><trkpt lat="49.70713" lon="-1.91043"><ele>70.24</ele></trkpt><trkpt lat="49.70686" lon="-1.91032"><ele>69.3</ele></trkpt><trkpt lat="49.70672" lon="-1.91026"><ele>68.72</ele></trkpt><trkpt lat="49.70663" lon="-1.91023"><ele>68.27</ele></trkpt><trkpt lat="49.70656" lon="-1.9102"><ele>67.97</ele></trkpt><trkpt lat="49.7065" lon="-1.91018"><ele>67.43</ele></trkpt><trkpt lat="49.70639" lon="-1.91016"><ele>66.5</ele></trkpt><trkpt lat="49.70634" lon="-1.91014"><ele>66.24</ele></trkpt><trkpt lat="49.70621" lon="-1.91006"><ele>65.31</ele></trkpt><trkpt lat="49.70615" lon="-1.90998"><ele>64.92</ele></trkpt><trkpt lat="49.70613" lon="-1.90996"><ele>64.98</ele></trkpt><trkpt lat="49.70609" lon="-1.90985"><ele>64.66</ele></trkpt><trkpt lat="49.70604" lon="-1.90961"><ele>63.72</ele></trkpt><trkpt lat="49.70598" lon="-1.90919"><ele>61.98</ele></trkpt><trkpt lat="49.70595" lon="-1.90877"><ele>60.58</ele></trkpt><trkpt lat="49.70594" lon="-1.90866"><ele>60.45</ele></trkpt><trkpt lat="49.70587" lon="-1.90865"><ele>59.93</ele></trkpt><trkpt lat="49.70585" lon="-1.90865"><ele>59.93</ele></trkpt><trkpt lat="49.7057" lon="-1.90859"><ele>59.01</ele></trkpt><trkpt lat="49.70559" lon="-1.90851"><ele>58.56</ele></trkpt><trkpt lat="49.70547" lon="-1.90841"><ele>58.33</ele></trkpt><trkpt lat="49.70538" lon="-1.90837"><ele>58.31</ele></trkpt><trkpt lat="49.70534" lon="-1.90827"><ele>57.92</ele></trkpt><trkpt lat="49.70493" lon="-1.90729"><ele>57.26</ele></trkpt><trkpt lat="49.70487" lon="-1.90716"><ele>57.22</ele></trkpt><trkpt lat="49.70483" lon="-1.90711"><ele>57.1</ele></trkpt><trkpt lat="49.70471" lon="-1.90702"><ele>56.96</ele></trkpt><trkpt lat="49.70462" lon="-1.90698"><ele>57.13</ele></trkpt><trkpt lat="49.70457" lon="-1.90696"><ele>57.25</ele></trkpt><trkpt lat="49.70447" lon="-1.90694"><ele>57.8</ele></trkpt><trkpt lat="49.70441" lon="-1.90687"><ele>58.76</ele></trkpt><trkpt lat="49.7044" lon="-1.9068"><ele>59.44</ele></trkpt><trkpt lat="49.70438" lon="-1.90644"><ele>64.2</ele></trkpt><trkpt lat="49.70435" lon="-1.90602"><ele>68.37</ele></trkpt><trkpt lat="49.70432" lon="-1.90578"><ele>71.33</ele></trkpt><trkpt lat="49.70431" lon="-1.90576"><ele>71.33</ele></trkpt><trkpt lat="49.70422" lon="-1.9054"><ele>74.5</ele></trkpt><trkpt lat="49.70419" lon="-1.90529"><ele>75.79</ele></trkpt><trkpt lat="49.70417" lon="-1.90513"><ele>76.43</ele></trkpt><trkpt lat="49.70413" lon="-1.90499"><ele>77.74</ele></trkpt><trkpt lat="49.70407" lon="-1.90486"><ele>79.51</ele></trkpt><trkpt lat="49.70394" lon="-1.90466"><ele>82.33</ele></trkpt><trkpt lat="49.70388" lon="-1.90452"><ele>83.76</ele></trkpt><trkpt lat="49.70384" lon="-1.90436"><ele>85.24</ele></trkpt><trkpt lat="49.70383" lon="-1.90429"><ele>85.29</ele></trkpt><trkpt lat="49.70383" lon="-1.90424"><ele>85.48</ele></trkpt><trkpt lat="49.70378" lon="-1.90405"><ele>87.49</ele></trkpt><trkpt lat="49.70376" lon="-1.904"><ele>88.29</ele></trkpt><trkpt lat="49.70357" lon="-1.90361"><ele>92.65</ele></trkpt><trkpt lat="49.70355" lon="-1.90356"><ele>93.07</ele></trkpt><trkpt lat="49.70345" lon="-1.90327"><ele>94.52</ele></trkpt><trkpt lat="49.7033" lon="-1.90286"><ele>96.3</ele></trkpt><trkpt lat="49.70328" lon="-1.9028"><ele>96.4</ele></trkpt><trkpt lat="49.70317" lon="-1.90243"><ele>97.55</ele></trkpt><trkpt lat="49.70312" lon="-1.90234"><ele>97.7</ele></trkpt><trkpt lat="49.703" lon="-1.90211"><ele>98.01</ele></trkpt><trkpt lat="49.7029" lon="-1.90197"><ele>97.9</ele></trkpt><trkpt lat="49.70262" lon="-1.90177"><ele>96.13</ele></trkpt><trkpt lat="49.70255" lon="-1.90169"><ele>95.45</ele></trkpt><trkpt lat="49.70248" lon="-1.90162"><ele>93.73</ele></trkpt><trkpt lat="49.70244" lon="-1.90155"><ele>93.45</ele></trkpt><trkpt lat="49.70239" lon="-1.90162"><ele>93.4</ele></trkpt><trkpt lat="49.70217" lon="-1.90175"><ele>94.82</ele></trkpt><trkpt lat="49.70187" lon="-1.90198"><ele>96.74</ele></trkpt><trkpt lat="49.70183" lon="-1.90202"><ele>97.16</ele></trkpt><trkpt lat="49.70163" lon="-1.9022"><ele>99.35</ele></trkpt><trkpt lat="49.70154" lon="-1.90228"><ele>100</ele></trkpt><trkpt lat="49.70126" lon="-1.90251"><ele>101.21</ele></trkpt><trkpt lat="49.70118" lon="-1.90255"><ele>101.37</ele></trkpt><trkpt lat="49.7011" lon="-1.90261"><ele>101.26</ele></trkpt><trkpt lat="49.70098" lon="-1.90265"><ele>101.2</ele></trkpt><trkpt lat="49.70079" lon="-1.90267"><ele>101.36</ele></trkpt><trkpt lat="49.70073" lon="-1.90265"><ele>101.24</ele></trkpt><trkpt lat="49.7006" lon="-1.90262"><ele>101.52</ele></trkpt><trkpt lat="49.70049" lon="-1.90258"><ele>101.31</ele></trkpt><trkpt lat="49.70029" lon="-1.90255"><ele>101.02</ele></trkpt><trkpt lat="49.7002" lon="-1.90255"><ele>100.84</ele></trkpt><trkpt lat="49.69995" lon="-1.90256"><ele>100.72</ele></trkpt><trkpt lat="49.69991" lon="-1.90258"><ele>100.88</ele></trkpt><trkpt lat="49.6998" lon="-1.90263"><ele>101.34</ele></trkpt><trkpt lat="49.69965" lon="-1.90271"><ele>101.72</ele></trkpt><trkpt lat="49.69949" lon="-1.9028"><ele>101.88</ele></trkpt><trkpt lat="49.69934" lon="-1.9029"><ele>101.78</ele></trkpt><trkpt lat="49.69915" lon="-1.90303"><ele>101.97</ele></trkpt><trkpt lat="49.69882" lon="-1.9032"><ele>103</ele></trkpt><trkpt lat="49.69863" lon="-1.90328"><ele>103.5</ele></trkpt><trkpt lat="49.69859" lon="-1.90329"><ele>103.67</ele></trkpt><trkpt lat="49.69842" lon="-1.90332"><ele>104.51</ele></trkpt><trkpt lat="49.69825" lon="-1.90334"><ele>105.36</ele></trkpt><trkpt lat="49.69802" lon="-1.90336"><ele>105.84</ele></trkpt><trkpt lat="49.69788" lon="-1.90337"><ele>106.22</ele></trkpt><trkpt lat="49.69755" lon="-1.90341"><ele>108.56</ele></trkpt><trkpt lat="49.69726" lon="-1.90346"><ele>110.24</ele></trkpt><trkpt lat="49.69718" lon="-1.90347"><ele>110.47</ele></trkpt><trkpt lat="49.69707" lon="-1.90348"><ele>110.7</ele></trkpt><trkpt lat="49.69698" lon="-1.90348"><ele>110.54</ele></trkpt><trkpt lat="49.69667" lon="-1.9034"><ele>109.85</ele></trkpt><trkpt lat="49.69646" lon="-1.90334"><ele>109.59</ele></trkpt><trkpt lat="49.69639" lon="-1.90335"><ele>109.6</ele></trkpt><trkpt lat="49.69591" lon="-1.90342"><ele>110.8</ele></trkpt><trkpt lat="49.69573" lon="-1.90343"><ele>111.6</ele></trkpt><trkpt lat="49.69566" lon="-1.90344"><ele>111.89</ele></trkpt><trkpt lat="49.69565" lon="-1.9034"><ele>111.71</ele></trkpt><trkpt lat="49.69564" lon="-1.9031"><ele>110.33</ele></trkpt><trkpt lat="49.69562" lon="-1.90264"><ele>107.03</ele></trkpt><trkpt lat="49.69562" lon="-1.90248"><ele>105.24</ele></trkpt><trkpt lat="49.69563" lon="-1.90236"><ele>104.95</ele></trkpt><trkpt lat="49.69564" lon="-1.90218"><ele>103.75</ele></trkpt><trkpt lat="49.69576" lon="-1.90162"><ele>101.79</ele></trkpt><trkpt lat="49.69581" lon="-1.90138"><ele>101.24</ele></trkpt><trkpt lat="49.69582" lon="-1.90131"><ele>101.38</ele></trkpt><trkpt lat="49.69588" lon="-1.90095"><ele>103.53</ele></trkpt><trkpt lat="49.69593" lon="-1.90067"><ele>104.69</ele></trkpt><trkpt lat="49.69597" lon="-1.90055"><ele>104.48</ele></trkpt><trkpt lat="49.69611" lon="-1.90025"><ele>103.17</ele></trkpt><trkpt lat="49.69614" lon="-1.90017"><ele>102.76</ele></trkpt><trkpt lat="49.6962" lon="-1.90001"><ele>101.88</ele></trkpt><trkpt lat="49.69637" lon="-1.89953"><ele>98.59</ele></trkpt><trkpt lat="49.69648" lon="-1.89953"><ele>98.25</ele></trkpt><trkpt lat="49.69652" lon="-1.8995"><ele>98.18</ele></trkpt><trkpt lat="49.69655" lon="-1.89926"><ele>98.45</ele></trkpt><trkpt lat="49.69655" lon="-1.89924"><ele>98.45</ele></trkpt><trkpt lat="49.69656" lon="-1.89863"><ele>102.73</ele></trkpt><trkpt lat="49.69657" lon="-1.89856"><ele>103.3</ele></trkpt><trkpt lat="49.69663" lon="-1.89824"><ele>104.2</ele></trkpt><trkpt lat="49.69673" lon="-1.89796"><ele>104.04</ele></trkpt><trkpt lat="49.69679" lon="-1.89781"><ele>103.57</ele></trkpt><trkpt lat="49.6968" lon="-1.8978"><ele>103.36</ele></trkpt><trkpt lat="49.697" lon="-1.89734"><ele>101.41</ele></trkpt><trkpt lat="49.69714" lon="-1.89703"><ele>100.43</ele></trkpt><trkpt lat="49.6972" lon="-1.89686"><ele>99.49</ele></trkpt><trkpt lat="49.69724" lon="-1.89672"><ele>99.09</ele></trkpt><trkpt lat="49.69726" lon="-1.89661"><ele>99.15</ele></trkpt><trkpt lat="49.69727" lon="-1.89651"><ele>98.3</ele></trkpt><trkpt lat="49.69728" lon="-1.89641"><ele>97.8</ele></trkpt><trkpt lat="49.69728" lon="-1.89623"><ele>96.66</ele></trkpt><trkpt lat="49.69729" lon="-1.89616"><ele>95.85</ele></trkpt><trkpt lat="49.69739" lon="-1.89587"><ele>92.49</ele></trkpt><trkpt lat="49.69746" lon="-1.8957"><ele>90.92</ele></trkpt><trkpt lat="49.69752" lon="-1.89552"><ele>89.1</ele></trkpt><trkpt lat="49.69754" lon="-1.89541"><ele>88.21</ele></trkpt><trkpt lat="49.69756" lon="-1.89525"><ele>87.41</ele></trkpt><trkpt lat="49.69757" lon="-1.89492"><ele>83.9</ele></trkpt><trkpt lat="49.69757" lon="-1.89463"><ele>82.03</ele></trkpt><trkpt lat="49.69757" lon="-1.89439"><ele>79.91</ele></trkpt><trkpt lat="49.69757" lon="-1.89413"><ele>77.93</ele></trkpt><trkpt lat="49.69756" lon="-1.89403"><ele>77.36</ele></trkpt><trkpt lat="49.69755" lon="-1.89384"><ele>75.13</ele></trkpt><trkpt lat="49.69753" lon="-1.89366"><ele>74.12</ele></trkpt><trkpt lat="49.69752" lon="-1.89357"><ele>73.9</ele></trkpt><trkpt lat="49.69748" lon="-1.89333"><ele>70.72</ele></trkpt><trkpt lat="49.69747" lon="-1.89329"><ele>70.58</ele></trkpt><trkpt lat="49.69742" lon="-1.89309"><ele>68.47</ele></trkpt><trkpt lat="49.69737" lon="-1.89287"><ele>67.11</ele></trkpt><trkpt lat="49.69736" lon="-1.89272"><ele>65.57</ele></trkpt><trkpt lat="49.69735" lon="-1.89255"><ele>65.08</ele></trkpt><trkpt lat="49.69731" lon="-1.89228"><ele>62.85</ele></trkpt><trkpt lat="49.69724" lon="-1.89198"><ele>60.83</ele></trkpt><trkpt lat="49.69714" lon="-1.89157"><ele>58.18</ele></trkpt><trkpt lat="49.69705" lon="-1.8913"><ele>57.16</ele></trkpt><trkpt lat="49.69696" lon="-1.89109"><ele>56.84</ele></trkpt><trkpt lat="49.69694" lon="-1.89105"><ele>56.99</ele></trkpt><trkpt lat="49.69685" lon="-1.89088"><ele>58.08</ele></trkpt><trkpt lat="49.69682" lon="-1.89083"><ele>59.13</ele></trkpt><trkpt lat="49.6968" lon="-1.89073"><ele>59.15</ele></trkpt><trkpt lat="49.6968" lon="-1.89067"><ele>59.3</ele></trkpt><trkpt lat="49.69684" lon="-1.89062"><ele>59.82</ele></trkpt><trkpt lat="49.69723" lon="-1.8902"><ele>61.12</ele></trkpt><trkpt lat="49.69726" lon="-1.89015"><ele>61.07</ele></trkpt><trkpt lat="49.69731" lon="-1.89003"><ele>61.78</ele></trkpt><trkpt lat="49.69741" lon="-1.88976"><ele>62.96</ele></trkpt><trkpt lat="49.69744" lon="-1.88968"><ele>63.03</ele></trkpt><trkpt lat="49.69752" lon="-1.88944"><ele>63.88</ele></trkpt><trkpt lat="49.69759" lon="-1.8892"><ele>64.68</ele></trkpt><trkpt lat="49.69762" lon="-1.88899"><ele>66.79</ele></trkpt><trkpt lat="49.69761" lon="-1.88867"><ele>68.84</ele></trkpt><trkpt lat="49.69761" lon="-1.88839"><ele>70.79</ele></trkpt><trkpt lat="49.69758" lon="-1.88798"><ele>72.03</ele></trkpt><trkpt lat="49.69756" lon="-1.88761"><ele>71.39</ele></trkpt><trkpt lat="49.69752" lon="-1.88726"><ele>69.53</ele></trkpt><trkpt lat="49.69753" lon="-1.88726"><ele>69.53</ele></trkpt><trkpt lat="49.69752" lon="-1.88726"><ele>69.53</ele></trkpt><trkpt lat="49.69746" lon="-1.88729"><ele>70.25</ele></trkpt><trkpt lat="49.69736" lon="-1.88733"><ele>71.63</ele></trkpt><trkpt lat="49.69718" lon="-1.88744"><ele>73.13</ele></trkpt><trkpt lat="49.69709" lon="-1.88709"><ele>73.8</ele></trkpt><trkpt lat="49.69704" lon="-1.8869"><ele>73.85</ele></trkpt><trkpt lat="49.6969" lon="-1.8862"><ele>71.68</ele></trkpt><trkpt lat="49.69689" lon="-1.88613"><ele>71.34</ele></trkpt><trkpt lat="49.69686" lon="-1.88599"><ele>71.23</ele></trkpt><trkpt lat="49.6968" lon="-1.88566"><ele>69.07</ele></trkpt><trkpt lat="49.69679" lon="-1.88563"><ele>68.94</ele></trkpt><trkpt lat="49.69658" lon="-1.88489"><ele>63.63</ele></trkpt><trkpt lat="49.69654" lon="-1.88482"><ele>62.95</ele></trkpt><trkpt lat="49.69634" lon="-1.88471"><ele>62.12</ele></trkpt><trkpt lat="49.69626" lon="-1.88465"><ele>62.17</ele></trkpt><trkpt lat="49.69621" lon="-1.88461"><ele>62.25</ele></trkpt><trkpt lat="49.69615" lon="-1.88451"><ele>62.53</ele></trkpt><trkpt lat="49.69609" lon="-1.88428"><ele>63.91</ele></trkpt><trkpt lat="49.69623" lon="-1.88413"><ele>62.53</ele></trkpt><trkpt lat="49.69631" lon="-1.88399"><ele>62.2</ele></trkpt><trkpt lat="49.69637" lon="-1.88396"><ele>61.68</ele></trkpt><trkpt lat="49.69642" lon="-1.88397"><ele>61.49</ele></trkpt><trkpt lat="49.69663" lon="-1.8841"><ele>60.41</ele></trkpt><trkpt lat="49.6968" lon="-1.88419"><ele>59.6</ele></trkpt><trkpt lat="49.69728" lon="-1.88442"><ele>57.55</ele></trkpt><trkpt lat="49.69734" lon="-1.88444"><ele>57.35</ele></trkpt><trkpt lat="49.69746" lon="-1.8845"><ele>56.19</ele></trkpt><trkpt lat="49.69764" lon="-1.88456"><ele>55.23</ele></trkpt><trkpt lat="49.69767" lon="-1.88457"><ele>54.89</ele></trkpt><trkpt lat="49.6978" lon="-1.88458"><ele>53.79</ele></trkpt><trkpt lat="49.69804" lon="-1.88461"><ele>51.28</ele></trkpt><trkpt lat="49.69831" lon="-1.88463"><ele>48.21</ele></trkpt><trkpt lat="49.69859" lon="-1.88462"><ele>44.88</ele></trkpt><trkpt lat="49.69871" lon="-1.8846"><ele>44.15</ele></trkpt></trkseg></trk></gpx>
