<?xml version="1.0" encoding="UTF-8" standalone="no"?>
<gpx xmlns="http://www.topografix.com/GPX/1/1" version="1.1" xmlns:xsi="http://www.w3.org/2001/XMLSchema-instance" xsi:schemaLocation="http://www.topografix.com/GPX/1/1 http://www.topografix.com/GPX/1/1/gpx.xsd" creator="Cirkwi"><metadata><name><![CDATA[Parcs et jardins cherbourgeois]]></name><desc><![CDATA[C'est en véritable cheminement au fil des parcs et jardins de la ville de Cherbourg ponctué de découvertes de sites historiques majeurs. Cette randonnée offre différents points de vue sur la ville au fil du parcours et de ses écrins de verdure baignés par un climat favorisant l'acclimatation de nombreuses plantes ! Depuis le Bureau d'Information touristique, traversez le quai avec le port sur votre droite, et continuez jusqu'à la cale sèche, puis à droite vers l'école de voile (Cherbourg-Ocetville, Cherbourg-en-Cotentin). Coordonnées GPS : 49°38'20.9"N, 1°37'16.2"W Suivez le circuit selon le sens inverse des aiguilles d'une montre. Le balisage est de couleur bleu. Vous retrouverez ce circuit dans le topoguide "Cherbourg-en-cotentin" de l'Office de tourisme du Cotentin.   Traversée en autonomie de passages non balisés :  Cimitère : sortie au portail principal du chemin des aiguillons après avoir montée tout le cimétière. Parc Emmanuel Liais : sortie rue de la Bucaille, après avoir traversé tout le parc. Jardin public : sortie place Jacques Demy par le portail porche des sanitaires, après être passé devant le kiosque.  En dehors des horaires d'ouverture, vous devrez les contourner.   Départ accessible avec le réseau de bus Cap Cotentin à l'arrêt "Caligny" avec les lignes A ; 1A ; 1B ; 2 ; 3 ; 4 (plus d'infos sur capcotentin.fr)]]></desc><author><name><![CDATA[Cotentin unique]]></name></author><link href="http://fichier0.cirkwi.com/image/photo/circuit/1300x1300/826570/fr/0.jpg"><text><![CDATA[|©Aymeric Picot]]></text></link><time>2026-07-09T13:55:49Z</time></metadata><trk><trkseg><trkpt lat="49.63918" lon="-1.62093"><ele>5.49</ele></trkpt><trkpt lat="49.63942" lon="-1.62106"><ele>4.49</ele></trkpt><trkpt lat="49.63945" lon="-1.62106"><ele>0</ele></trkpt><trkpt lat="49.64004" lon="-1.62144"><ele>4.57</ele></trkpt><trkpt lat="49.64059" lon="-1.62131"><ele>4.36</ele></trkpt><trkpt lat="49.64137" lon="-1.62112"><ele>0</ele></trkpt><trkpt lat="49.64166" lon="-1.62129"><ele>4.92</ele></trkpt><trkpt lat="49.64178" lon="-1.62137"><ele>5</ele></trkpt><trkpt lat="49.64184" lon="-1.62144"><ele>5.18</ele></trkpt><trkpt lat="49.64188" lon="-1.62149"><ele>5.21</ele></trkpt><trkpt lat="49.64189" lon="-1.6215"><ele>5.21</ele></trkpt><trkpt lat="49.64195" lon="-1.62159"><ele>5.16</ele></trkpt><trkpt lat="49.64209" lon="-1.62179"><ele>5.19</ele></trkpt><trkpt lat="49.64215" lon="-1.62194"><ele>5.3</ele></trkpt><trkpt lat="49.64219" lon="-1.62205"><ele>5.38</ele></trkpt><trkpt lat="49.64221" lon="-1.62213"><ele>5.34</ele></trkpt><trkpt lat="49.64237" lon="-1.62274"><ele>5.61</ele></trkpt><trkpt lat="49.6424" lon="-1.62273"><ele>5.61</ele></trkpt><trkpt lat="49.64247" lon="-1.62269"><ele>5.19</ele></trkpt><trkpt lat="49.64259" lon="-1.62259"><ele>4.74</ele></trkpt><trkpt lat="49.64264" lon="-1.62253"><ele>4.59</ele></trkpt><trkpt lat="49.64268" lon="-1.62238"><ele>4.46</ele></trkpt><trkpt lat="49.64284" lon="-1.62225"><ele>4.19</ele></trkpt><trkpt lat="49.64287" lon="-1.62203"><ele>4.41</ele></trkpt><trkpt lat="49.64277" lon="-1.62084"><ele>4.35</ele></trkpt><trkpt lat="49.64279" lon="-1.62044"><ele>4.33</ele></trkpt><trkpt lat="49.64298" lon="-1.62003"><ele>4.23</ele></trkpt><trkpt lat="49.64317" lon="-1.61994"><ele>4.26</ele></trkpt><trkpt lat="49.64347" lon="-1.61987"><ele>0</ele></trkpt><trkpt lat="49.64357" lon="-1.62009"><ele>4.12</ele></trkpt><trkpt lat="49.6436" lon="-1.62028"><ele>4.33</ele></trkpt><trkpt lat="49.64386" lon="-1.62025"><ele>4.61</ele></trkpt><trkpt lat="49.64434" lon="-1.62015"><ele>4.54</ele></trkpt><trkpt lat="49.64444" lon="-1.62141"><ele>4.49</ele></trkpt><trkpt lat="49.64457" lon="-1.62287"><ele>4.36</ele></trkpt><trkpt lat="49.64463" lon="-1.62369"><ele>4.55</ele></trkpt><trkpt lat="49.64534" lon="-1.62357"><ele>4.36</ele></trkpt><trkpt lat="49.64537" lon="-1.62373"><ele>4.36</ele></trkpt><trkpt lat="49.64556" lon="-1.62374"><ele>4.42</ele></trkpt><trkpt lat="49.64566" lon="-1.62393"><ele>4.57</ele></trkpt><trkpt lat="49.64568" lon="-1.6241"><ele>4.6</ele></trkpt><trkpt lat="49.64616" lon="-1.62489"><ele>4.59</ele></trkpt><trkpt lat="49.64647" lon="-1.62546"><ele>4.94</ele></trkpt><trkpt lat="49.64625" lon="-1.62567"><ele>4.81</ele></trkpt><trkpt lat="49.64599" lon="-1.62561"><ele>4.63</ele></trkpt><trkpt lat="49.64568" lon="-1.62542"><ele>4.64</ele></trkpt><trkpt lat="49.64542" lon="-1.62538"><ele>4.74</ele></trkpt><trkpt lat="49.64536" lon="-1.62539"><ele>4.71</ele></trkpt><trkpt lat="49.64533" lon="-1.62541"><ele>4.71</ele></trkpt><trkpt lat="49.6453" lon="-1.62542"><ele>4.61</ele></trkpt><trkpt lat="49.64524" lon="-1.62546"><ele>4.58</ele></trkpt><trkpt lat="49.64519" lon="-1.62552"><ele>4.62</ele></trkpt><trkpt lat="49.64514" lon="-1.62559"><ele>4.62</ele></trkpt><trkpt lat="49.6451" lon="-1.62567"><ele>4.69</ele></trkpt><trkpt lat="49.64506" lon="-1.62575"><ele>4.73</ele></trkpt><trkpt lat="49.64502" lon="-1.62583"><ele>4.82</ele></trkpt><trkpt lat="49.64501" lon="-1.62586"><ele>4.86</ele></trkpt><trkpt lat="49.64499" lon="-1.62583"><ele>4.82</ele></trkpt><trkpt lat="49.64501" lon="-1.62586"><ele>4.86</ele></trkpt><trkpt lat="49.64499" lon="-1.62592"><ele>4.86</ele></trkpt><trkpt lat="49.64495" lon="-1.626"><ele>5</ele></trkpt><trkpt lat="49.64493" lon="-1.62605"><ele>5.12</ele></trkpt><trkpt lat="49.64491" lon="-1.62608"><ele>5.14</ele></trkpt><trkpt lat="49.64488" lon="-1.62615"><ele>5.27</ele></trkpt><trkpt lat="49.64484" lon="-1.62622"><ele>5.41</ele></trkpt><trkpt lat="49.64483" lon="-1.62624"><ele>5.42</ele></trkpt><trkpt lat="49.64481" lon="-1.62629"><ele>5.5</ele></trkpt><trkpt lat="49.64478" lon="-1.62635"><ele>5.53</ele></trkpt><trkpt lat="49.64475" lon="-1.62641"><ele>5.69</ele></trkpt><trkpt lat="49.64474" lon="-1.62644"><ele>5.69</ele></trkpt><trkpt lat="49.64459" lon="-1.62677"><ele>6.14</ele></trkpt><trkpt lat="49.64448" lon="-1.62702"><ele>6.44</ele></trkpt><trkpt lat="49.64444" lon="-1.62696"><ele>6.37</ele></trkpt><trkpt lat="49.64448" lon="-1.62702"><ele>6.44</ele></trkpt><trkpt lat="49.6444" lon="-1.62714"><ele>6.45</ele></trkpt><trkpt lat="49.64411" lon="-1.62759"><ele>7.36</ele></trkpt><trkpt lat="49.64383" lon="-1.62804"><ele>8.41</ele></trkpt><trkpt lat="49.64382" lon="-1.62806"><ele>8.57</ele></trkpt><trkpt lat="49.64378" lon="-1.62814"><ele>8.6</ele></trkpt><trkpt lat="49.64352" lon="-1.62858"><ele>8.36</ele></trkpt><trkpt lat="49.6434" lon="-1.62876"><ele>8.36</ele></trkpt><trkpt lat="49.64325" lon="-1.629"><ele>8.53</ele></trkpt><trkpt lat="49.64289" lon="-1.62938"><ele>8.25</ele></trkpt><trkpt lat="49.64283" lon="-1.62967"><ele>7.81</ele></trkpt><trkpt lat="49.64269" lon="-1.62982"><ele>7.73</ele></trkpt><trkpt lat="49.64258" lon="-1.63"><ele>7.71</ele></trkpt><trkpt lat="49.64252" lon="-1.63008"><ele>7.68</ele></trkpt><trkpt lat="49.6424" lon="-1.63014"><ele>7.7</ele></trkpt><trkpt lat="49.64225" lon="-1.63021"><ele>7.84</ele></trkpt><trkpt lat="49.64219" lon="-1.63023"><ele>8.07</ele></trkpt><trkpt lat="49.64218" lon="-1.63024"><ele>8.07</ele></trkpt><trkpt lat="49.6421" lon="-1.63027"><ele>8.88</ele></trkpt><trkpt lat="49.64194" lon="-1.63038"><ele>8.42</ele></trkpt><trkpt lat="49.64185" lon="-1.63049"><ele>8.17</ele></trkpt><trkpt lat="49.64179" lon="-1.63062"><ele>8.22</ele></trkpt><trkpt lat="49.64172" lon="-1.63083"><ele>8.39</ele></trkpt><trkpt lat="49.64168" lon="-1.63086"><ele>8.34</ele></trkpt><trkpt lat="49.64141" lon="-1.63106"><ele>8.94</ele></trkpt><trkpt lat="49.64132" lon="-1.63113"><ele>9.08</ele></trkpt><trkpt lat="49.64116" lon="-1.63126"><ele>8.81</ele></trkpt><trkpt lat="49.64124" lon="-1.63153"><ele>8.74</ele></trkpt><trkpt lat="49.64128" lon="-1.63167"><ele>8.68</ele></trkpt><trkpt lat="49.64135" lon="-1.63196"><ele>8.63</ele></trkpt><trkpt lat="49.64159" lon="-1.63283"><ele>8.86</ele></trkpt><trkpt lat="49.64252" lon="-1.63225"><ele>8.23</ele></trkpt><trkpt lat="49.64322" lon="-1.63181"><ele>7.63</ele></trkpt><trkpt lat="49.64357" lon="-1.63159"><ele>7.47</ele></trkpt><trkpt lat="49.64392" lon="-1.6314"><ele>7.4</ele></trkpt><trkpt lat="49.64399" lon="-1.63171"><ele>7.25</ele></trkpt><trkpt lat="49.64402" lon="-1.63177"><ele>7.28</ele></trkpt><trkpt lat="49.64404" lon="-1.63182"><ele>7.26</ele></trkpt><trkpt lat="49.64406" lon="-1.63186"><ele>7.37</ele></trkpt><trkpt lat="49.6441" lon="-1.63191"><ele>7.44</ele></trkpt><trkpt lat="49.64416" lon="-1.63197"><ele>7.52</ele></trkpt><trkpt lat="49.64421" lon="-1.63201"><ele>7.66</ele></trkpt><trkpt lat="49.64427" lon="-1.63207"><ele>7.61</ele></trkpt><trkpt lat="49.64423" lon="-1.63224"><ele>7.54</ele></trkpt><trkpt lat="49.64423" lon="-1.63242"><ele>7.38</ele></trkpt><trkpt lat="49.64423" lon="-1.63261"><ele>7.33</ele></trkpt><trkpt lat="49.64424" lon="-1.63285"><ele>7.23</ele></trkpt><trkpt lat="49.64427" lon="-1.63312"><ele>7.04</ele></trkpt><trkpt lat="49.64437" lon="-1.63367"><ele>7.19</ele></trkpt><trkpt lat="49.64446" lon="-1.63406"><ele>6.87</ele></trkpt><trkpt lat="49.64458" lon="-1.63459"><ele>6.87</ele></trkpt><trkpt lat="49.64468" lon="-1.635"><ele>6.6</ele></trkpt><trkpt lat="49.64469" lon="-1.63506"><ele>6.38</ele></trkpt><trkpt lat="49.6448" lon="-1.63544"><ele>6.16</ele></trkpt><trkpt lat="49.64482" lon="-1.63554"><ele>6.18</ele></trkpt><trkpt lat="49.64493" lon="-1.63553"><ele>6.29</ele></trkpt><trkpt lat="49.64504" lon="-1.63551"><ele>6.06</ele></trkpt><trkpt lat="49.64508" lon="-1.63571"><ele>6.11</ele></trkpt><trkpt lat="49.64509" lon="-1.63575"><ele>6.09</ele></trkpt><trkpt lat="49.64511" lon="-1.63581"><ele>6.08</ele></trkpt><trkpt lat="49.64517" lon="-1.63609"><ele>6.25</ele></trkpt><trkpt lat="49.64526" lon="-1.63654"><ele>6.33</ele></trkpt><trkpt lat="49.64538" lon="-1.63709"><ele>6.86</ele></trkpt><trkpt lat="49.64542" lon="-1.63733"><ele>7.35</ele></trkpt><trkpt lat="49.64549" lon="-1.63771"><ele>7.08</ele></trkpt><trkpt lat="49.64556" lon="-1.63803"><ele>7.34</ele></trkpt><trkpt lat="49.64558" lon="-1.63815"><ele>7.45</ele></trkpt><trkpt lat="49.64564" lon="-1.63818"><ele>7.63</ele></trkpt><trkpt lat="49.64569" lon="-1.63819"><ele>7.56</ele></trkpt><trkpt lat="49.64606" lon="-1.63845"><ele>7.87</ele></trkpt><trkpt lat="49.64622" lon="-1.63856"><ele>8.77</ele></trkpt><trkpt lat="49.64651" lon="-1.63876"><ele>8.71</ele></trkpt><trkpt lat="49.64654" lon="-1.63876"><ele>8.19</ele></trkpt><trkpt lat="49.64655" lon="-1.63875"><ele>8.19</ele></trkpt><trkpt lat="49.64658" lon="-1.63872"><ele>8.1</ele></trkpt><trkpt lat="49.64662" lon="-1.63872"><ele>8.04</ele></trkpt><trkpt lat="49.6467" lon="-1.63876"><ele>7.94</ele></trkpt><trkpt lat="49.64679" lon="-1.63882"><ele>7.81</ele></trkpt><trkpt lat="49.64688" lon="-1.63891"><ele>7.83</ele></trkpt><trkpt lat="49.64702" lon="-1.63907"><ele>8.17</ele></trkpt><trkpt lat="49.64707" lon="-1.63911"><ele>8.42</ele></trkpt><trkpt lat="49.6472" lon="-1.63933"><ele>8.59</ele></trkpt><trkpt lat="49.64731" lon="-1.63954"><ele>8.99</ele></trkpt><trkpt lat="49.6474" lon="-1.63981"><ele>8.85</ele></trkpt><trkpt lat="49.64744" lon="-1.63996"><ele>8.88</ele></trkpt><trkpt lat="49.64755" lon="-1.64046"><ele>9.13</ele></trkpt><trkpt lat="49.6476" lon="-1.64075"><ele>9.41</ele></trkpt><trkpt lat="49.64767" lon="-1.64116"><ele>9.62</ele></trkpt><trkpt lat="49.64769" lon="-1.64129"><ele>9.72</ele></trkpt><trkpt lat="49.6478" lon="-1.64195"><ele>10.46</ele></trkpt><trkpt lat="49.64789" lon="-1.64254"><ele>11.15</ele></trkpt><trkpt lat="49.6479" lon="-1.64258"><ele>11.17</ele></trkpt><trkpt lat="49.64791" lon="-1.64255"><ele>11.2</ele></trkpt><trkpt lat="49.64789" lon="-1.64254"><ele>11.15</ele></trkpt><trkpt lat="49.64793" lon="-1.64284"><ele>11.38</ele></trkpt><trkpt lat="49.64786" lon="-1.64302"><ele>11.62</ele></trkpt><trkpt lat="49.64727" lon="-1.64272"><ele>11.66</ele></trkpt><trkpt lat="49.6474" lon="-1.64252"><ele>11.32</ele></trkpt><trkpt lat="49.64712" lon="-1.64209"><ele>11.35</ele></trkpt><trkpt lat="49.64693" lon="-1.642"><ele>12.37</ele></trkpt><trkpt lat="49.64683" lon="-1.64192"><ele>12.66</ele></trkpt><trkpt lat="49.64675" lon="-1.64214"><ele>12.68</ele></trkpt><trkpt lat="49.64667" lon="-1.6422"><ele>12.62</ele></trkpt><trkpt lat="49.64678" lon="-1.64243"><ele>12.67</ele></trkpt><trkpt lat="49.64657" lon="-1.64271"><ele>13.58</ele></trkpt><trkpt lat="49.64637" lon="-1.64224"><ele>12.95</ele></trkpt><trkpt lat="49.64593" lon="-1.64072"><ele>11.24</ele></trkpt><trkpt lat="49.64577" lon="-1.64013"><ele>10.41</ele></trkpt><trkpt lat="49.6451" lon="-1.64033"><ele>10.59</ele></trkpt><trkpt lat="49.64496" lon="-1.6404"><ele>10.93</ele></trkpt><trkpt lat="49.64465" lon="-1.63929"><ele>9.9</ele></trkpt><trkpt lat="49.64422" lon="-1.63927"><ele>9.25</ele></trkpt><trkpt lat="49.6435" lon="-1.63976"><ele>10.3</ele></trkpt><trkpt lat="49.64293" lon="-1.64006"><ele>12.7</ele></trkpt><trkpt lat="49.64305" lon="-1.64107"><ele>13.19</ele></trkpt><trkpt lat="49.64312" lon="-1.6414"><ele>12.43</ele></trkpt><trkpt lat="49.64282" lon="-1.6415"><ele>14.29</ele></trkpt><trkpt lat="49.64257" lon="-1.64039"><ele>13.11</ele></trkpt><trkpt lat="49.64256" lon="-1.64033"><ele>13.06</ele></trkpt><trkpt lat="49.64245" lon="-1.63986"><ele>12.52</ele></trkpt><trkpt lat="49.64244" lon="-1.6398"><ele>12.47</ele></trkpt><trkpt lat="49.64232" lon="-1.63868"><ele>11.6</ele></trkpt><trkpt lat="49.64219" lon="-1.63734"><ele>10.21</ele></trkpt><trkpt lat="49.64218" lon="-1.63705"><ele>10</ele></trkpt><trkpt lat="49.64218" lon="-1.63698"><ele>9.99</ele></trkpt><trkpt lat="49.64217" lon="-1.63689"><ele>9.92</ele></trkpt><trkpt lat="49.64217" lon="-1.6368"><ele>9.78</ele></trkpt><trkpt lat="49.6421" lon="-1.6365"><ele>8.94</ele></trkpt><trkpt lat="49.64209" lon="-1.63642"><ele>8.75</ele></trkpt><trkpt lat="49.64204" lon="-1.63581"><ele>7.35</ele></trkpt><trkpt lat="49.64169" lon="-1.63584"><ele>7.99</ele></trkpt><trkpt lat="49.64148" lon="-1.63586"><ele>8.59</ele></trkpt><trkpt lat="49.64133" lon="-1.63587"><ele>9.01</ele></trkpt><trkpt lat="49.64116" lon="-1.63588"><ele>9.43</ele></trkpt><trkpt lat="49.64102" lon="-1.6359"><ele>9.81</ele></trkpt><trkpt lat="49.6409" lon="-1.63588"><ele>10.15</ele></trkpt><trkpt lat="49.64079" lon="-1.63584"><ele>10.41</ele></trkpt><trkpt lat="49.64065" lon="-1.63572"><ele>10.92</ele></trkpt><trkpt lat="49.64069" lon="-1.63566"><ele>10.9</ele></trkpt><trkpt lat="49.64065" lon="-1.63572"><ele>10.92</ele></trkpt><trkpt lat="49.64055" lon="-1.6356"><ele>11.31</ele></trkpt><trkpt lat="49.64046" lon="-1.63544"><ele>11.59</ele></trkpt><trkpt lat="49.64035" lon="-1.63516"><ele>11.96</ele></trkpt><trkpt lat="49.64024" lon="-1.6349"><ele>11.79</ele></trkpt><trkpt lat="49.64016" lon="-1.63469"><ele>11.71</ele></trkpt><trkpt lat="49.63991" lon="-1.63409"><ele>11.38</ele></trkpt><trkpt lat="49.63979" lon="-1.63377"><ele>11.63</ele></trkpt><trkpt lat="49.63972" lon="-1.6336"><ele>11.67</ele></trkpt><trkpt lat="49.63968" lon="-1.63351"><ele>11.77</ele></trkpt><trkpt lat="49.6396" lon="-1.63332"><ele>11.87</ele></trkpt><trkpt lat="49.63945" lon="-1.63293"><ele>11.79</ele></trkpt><trkpt lat="49.63943" lon="-1.63288"><ele>11.85</ele></trkpt><trkpt lat="49.63922" lon="-1.63236"><ele>11.66</ele></trkpt><trkpt lat="49.63889" lon="-1.63155"><ele>11.4</ele></trkpt><trkpt lat="49.63885" lon="-1.63146"><ele>11.33</ele></trkpt><trkpt lat="49.63883" lon="-1.63138"><ele>11.31</ele></trkpt><trkpt lat="49.63879" lon="-1.63134"><ele>11.34</ele></trkpt><trkpt lat="49.63873" lon="-1.63131"><ele>11.47</ele></trkpt><trkpt lat="49.63869" lon="-1.63131"><ele>11.54</ele></trkpt><trkpt lat="49.63827" lon="-1.63131"><ele>12.33</ele></trkpt><trkpt lat="49.63811" lon="-1.63132"><ele>12.68</ele></trkpt><trkpt lat="49.63777" lon="-1.63132"><ele>13.39</ele></trkpt><trkpt lat="49.63776" lon="-1.63127"><ele>13.33</ele></trkpt><trkpt lat="49.63777" lon="-1.63132"><ele>13.39</ele></trkpt><trkpt lat="49.63747" lon="-1.63132"><ele>14.11</ele></trkpt><trkpt lat="49.63746" lon="-1.6317"><ele>15.13</ele></trkpt><trkpt lat="49.63755" lon="-1.63204"><ele>15.67</ele></trkpt><trkpt lat="49.63739" lon="-1.63187"><ele>15.75</ele></trkpt><trkpt lat="49.63732" lon="-1.63171"><ele>15.6</ele></trkpt><trkpt lat="49.63729" lon="-1.63132"><ele>14.65</ele></trkpt><trkpt lat="49.63711" lon="-1.63132"><ele>15.14</ele></trkpt><trkpt lat="49.63662" lon="-1.63131"><ele>16.55</ele></trkpt><trkpt lat="49.63671" lon="-1.63163"><ele>16.81</ele></trkpt><trkpt lat="49.63751" lon="-1.63299"><ele>17.81</ele></trkpt><trkpt lat="49.63726" lon="-1.63355"><ele>21.65</ele></trkpt><trkpt lat="49.63779" lon="-1.63423"><ele>21.36</ele></trkpt><trkpt lat="49.63834" lon="-1.63511"><ele>20.9</ele></trkpt><trkpt lat="49.6378" lon="-1.63607"><ele>34.18</ele></trkpt><trkpt lat="49.63703" lon="-1.63664"><ele>48.58</ele></trkpt><trkpt lat="49.6366" lon="-1.63697"><ele>51.38</ele></trkpt><trkpt lat="49.63653" lon="-1.63688"><ele>52.2</ele></trkpt><trkpt lat="49.63622" lon="-1.63706"><ele>54.47</ele></trkpt><trkpt lat="49.63617" lon="-1.63689"><ele>55.49</ele></trkpt><trkpt lat="49.63604" lon="-1.6369"><ele>56.06</ele></trkpt><trkpt lat="49.636" lon="-1.6369"><ele>56.18</ele></trkpt><trkpt lat="49.63595" lon="-1.63687"><ele>56.33</ele></trkpt><trkpt lat="49.63581" lon="-1.63674"><ele>56.9</ele></trkpt><trkpt lat="49.6357" lon="-1.6366"><ele>57.58</ele></trkpt><trkpt lat="49.63562" lon="-1.6365"><ele>58.02</ele></trkpt><trkpt lat="49.63539" lon="-1.6362"><ele>59.18</ele></trkpt><trkpt lat="49.63502" lon="-1.63575"><ele>60.84</ele></trkpt><trkpt lat="49.63502" lon="-1.63574"><ele>60.84</ele></trkpt><trkpt lat="49.63486" lon="-1.63566"><ele>61.28</ele></trkpt><trkpt lat="49.63476" lon="-1.63564"><ele>61.52</ele></trkpt><trkpt lat="49.63464" lon="-1.63567"><ele>62.1</ele></trkpt><trkpt lat="49.63464" lon="-1.63568"><ele>62.04</ele></trkpt><trkpt lat="49.6346" lon="-1.63569"><ele>62.04</ele></trkpt><trkpt lat="49.63442" lon="-1.63582"><ele>63.09</ele></trkpt><trkpt lat="49.63437" lon="-1.63587"><ele>63.31</ele></trkpt><trkpt lat="49.63425" lon="-1.63598"><ele>64.2</ele></trkpt><trkpt lat="49.63393" lon="-1.63626"><ele>66.32</ele></trkpt><trkpt lat="49.63388" lon="-1.63632"><ele>66.75</ele></trkpt><trkpt lat="49.63385" lon="-1.63634"><ele>66.95</ele></trkpt><trkpt lat="49.6338" lon="-1.6364"><ele>67.24</ele></trkpt><trkpt lat="49.63378" lon="-1.63635"><ele>67.1</ele></trkpt><trkpt lat="49.63377" lon="-1.6363"><ele>66.28</ele></trkpt><trkpt lat="49.63377" lon="-1.63627"><ele>65.01</ele></trkpt><trkpt lat="49.63377" lon="-1.63625"><ele>65.01</ele></trkpt><trkpt lat="49.63378" lon="-1.63619"><ele>64.04</ele></trkpt><trkpt lat="49.63389" lon="-1.63594"><ele>61.37</ele></trkpt><trkpt lat="49.63395" lon="-1.63578"><ele>59.84</ele></trkpt><trkpt lat="49.63409" lon="-1.63537"><ele>55.45</ele></trkpt><trkpt lat="49.63418" lon="-1.63522"><ele>53.58</ele></trkpt><trkpt lat="49.6343" lon="-1.63507"><ele>51.39</ele></trkpt><trkpt lat="49.6344" lon="-1.63495"><ele>50.24</ele></trkpt><trkpt lat="49.63465" lon="-1.63454"><ele>45.05</ele></trkpt><trkpt lat="49.63474" lon="-1.63437"><ele>43.13</ele></trkpt><trkpt lat="49.63486" lon="-1.63412"><ele>40.45</ele></trkpt><trkpt lat="49.63493" lon="-1.63396"><ele>39.31</ele></trkpt><trkpt lat="49.63506" lon="-1.63358"><ele>35.75</ele></trkpt><trkpt lat="49.63512" lon="-1.63329"><ele>33.13</ele></trkpt><trkpt lat="49.63514" lon="-1.63316"><ele>32.16</ele></trkpt><trkpt lat="49.63521" lon="-1.63292"><ele>30.19</ele></trkpt><trkpt lat="49.63523" lon="-1.63286"><ele>29.88</ele></trkpt><trkpt lat="49.63525" lon="-1.63278"><ele>29.16</ele></trkpt><trkpt lat="49.63537" lon="-1.63236"><ele>26.3</ele></trkpt><trkpt lat="49.63552" lon="-1.63196"><ele>23.17</ele></trkpt><trkpt lat="49.63549" lon="-1.63189"><ele>22.87</ele></trkpt><trkpt lat="49.63542" lon="-1.63175"><ele>22.52</ele></trkpt><trkpt lat="49.63533" lon="-1.63153"><ele>21.91</ele></trkpt><trkpt lat="49.6353" lon="-1.63137"><ele>21.37</ele></trkpt><trkpt lat="49.63529" lon="-1.63127"><ele>20.29</ele></trkpt><trkpt lat="49.63529" lon="-1.63121"><ele>17.61</ele></trkpt><trkpt lat="49.63529" lon="-1.63115"><ele>19.44</ele></trkpt><trkpt lat="49.63531" lon="-1.63108"><ele>20.02</ele></trkpt><trkpt lat="49.63534" lon="-1.63099"><ele>19.53</ele></trkpt><trkpt lat="49.63539" lon="-1.6309"><ele>19.05</ele></trkpt><trkpt lat="49.63543" lon="-1.63084"><ele>18.78</ele></trkpt><trkpt lat="49.63554" lon="-1.63073"><ele>17.91</ele></trkpt><trkpt lat="49.6356" lon="-1.63069"><ele>17.41</ele></trkpt><trkpt lat="49.63575" lon="-1.63047"><ele>16.11</ele></trkpt><trkpt lat="49.63576" lon="-1.63046"><ele>16.05</ele></trkpt><trkpt lat="49.63579" lon="-1.63042"><ele>15.89</ele></trkpt><trkpt lat="49.63601" lon="-1.63024"><ele>14.59</ele></trkpt><trkpt lat="49.63613" lon="-1.63013"><ele>13.79</ele></trkpt><trkpt lat="49.63633" lon="-1.62992"><ele>12.61</ele></trkpt><trkpt lat="49.63633" lon="-1.62962"><ele>11.36</ele></trkpt><trkpt lat="49.63631" lon="-1.62953"><ele>11.09</ele></trkpt><trkpt lat="49.63616" lon="-1.62911"><ele>10.64</ele></trkpt><trkpt lat="49.63614" lon="-1.62908"><ele>10.55</ele></trkpt><trkpt lat="49.63611" lon="-1.62907"><ele>10.55</ele></trkpt><trkpt lat="49.63608" lon="-1.62906"><ele>10.52</ele></trkpt><trkpt lat="49.63601" lon="-1.62903"><ele>10.49</ele></trkpt><trkpt lat="49.63599" lon="-1.62899"><ele>10.43</ele></trkpt><trkpt lat="49.6358" lon="-1.62844"><ele>9.57</ele></trkpt><trkpt lat="49.63571" lon="-1.62818"><ele>9.12</ele></trkpt><trkpt lat="49.63585" lon="-1.62798"><ele>8.18</ele></trkpt><trkpt lat="49.63565" lon="-1.6273"><ele>6.73</ele></trkpt><trkpt lat="49.63566" lon="-1.62729"><ele>6.73</ele></trkpt><trkpt lat="49.63567" lon="-1.62728"><ele>6.73</ele></trkpt><trkpt lat="49.63567" lon="-1.62727"><ele>6.73</ele></trkpt><trkpt lat="49.63568" lon="-1.62727"><ele>6.74</ele></trkpt><trkpt lat="49.63568" lon="-1.62726"><ele>6.75</ele></trkpt><trkpt lat="49.63568" lon="-1.62725"><ele>6.75</ele></trkpt><trkpt lat="49.63568" lon="-1.62724"><ele>6.75</ele></trkpt><trkpt lat="49.63569" lon="-1.62724"><ele>6.75</ele></trkpt><trkpt lat="49.63569" lon="-1.62723"><ele>6.75</ele></trkpt><trkpt lat="49.63569" lon="-1.62722"><ele>6.75</ele></trkpt><trkpt lat="49.63569" lon="-1.62721"><ele>6.75</ele></trkpt><trkpt lat="49.63569" lon="-1.6272"><ele>6.75</ele></trkpt><trkpt lat="49.63569" lon="-1.62719"><ele>6.75</ele></trkpt><trkpt lat="49.63569" lon="-1.62717"><ele>6.75</ele></trkpt><trkpt lat="49.63642" lon="-1.6269"><ele>4.96</ele></trkpt><trkpt lat="49.63646" lon="-1.62688"><ele>4.85</ele></trkpt><trkpt lat="49.63748" lon="-1.62652"><ele>6.09</ele></trkpt><trkpt lat="49.63755" lon="-1.6265"><ele>6.03</ele></trkpt><trkpt lat="49.63822" lon="-1.62627"><ele>5.09</ele></trkpt><trkpt lat="49.63821" lon="-1.62619"><ele>4.98</ele></trkpt><trkpt lat="49.63818" lon="-1.62528"><ele>4.24</ele></trkpt><trkpt lat="49.63817" lon="-1.62483"><ele>3.97</ele></trkpt><trkpt lat="49.63815" lon="-1.6245"><ele>3.83</ele></trkpt><trkpt lat="49.63812" lon="-1.62424"><ele>3.73</ele></trkpt><trkpt lat="49.63811" lon="-1.624"><ele>3.74</ele></trkpt><trkpt lat="49.63805" lon="-1.62321"><ele>4.14</ele></trkpt><trkpt lat="49.63803" lon="-1.623"><ele>4.05</ele></trkpt><trkpt lat="49.638" lon="-1.62247"><ele>4.33</ele></trkpt><trkpt lat="49.63788" lon="-1.62247"><ele>4.14</ele></trkpt><trkpt lat="49.63764" lon="-1.6225"><ele>4.02</ele></trkpt><trkpt lat="49.63718" lon="-1.62257"><ele>3.89</ele></trkpt><trkpt lat="49.63707" lon="-1.62259"><ele>3.84</ele></trkpt><trkpt lat="49.637" lon="-1.62175"><ele>4.38</ele></trkpt><trkpt lat="49.63699" lon="-1.62148"><ele>3.82</ele></trkpt><trkpt lat="49.63697" lon="-1.6212"><ele>3.81</ele></trkpt><trkpt lat="49.63695" lon="-1.62099"><ele>3.81</ele></trkpt><trkpt lat="49.6369" lon="-1.62004"><ele>3.81</ele></trkpt><trkpt lat="49.63682" lon="-1.61941"><ele>4.55</ele></trkpt><trkpt lat="49.63655" lon="-1.61911"><ele>4.44</ele></trkpt><trkpt lat="49.63657" lon="-1.61747"><ele>4.7</ele></trkpt><trkpt lat="49.63548" lon="-1.61758"><ele>4.67</ele></trkpt><trkpt lat="49.63484" lon="-1.61771"><ele>4.59</ele></trkpt><trkpt lat="49.63426" lon="-1.61795"><ele>4.54</ele></trkpt><trkpt lat="49.63387" lon="-1.61797"><ele>4.69</ele></trkpt><trkpt lat="49.63374" lon="-1.61793"><ele>4.39</ele></trkpt><trkpt lat="49.63369" lon="-1.61754"><ele>2.11</ele></trkpt><trkpt lat="49.6334" lon="-1.61757"><ele>2.32</ele></trkpt><trkpt lat="49.63334" lon="-1.61751"><ele>4.23</ele></trkpt><trkpt lat="49.63321" lon="-1.61753"><ele>3.74</ele></trkpt><trkpt lat="49.6331" lon="-1.6175"><ele>4.45</ele></trkpt><trkpt lat="49.63308" lon="-1.6175"><ele>4.43</ele></trkpt><trkpt lat="49.63287" lon="-1.61753"><ele>4.37</ele></trkpt><trkpt lat="49.63283" lon="-1.61754"><ele>4.36</ele></trkpt><trkpt lat="49.63243" lon="-1.6176"><ele>4.39</ele></trkpt><trkpt lat="49.63241" lon="-1.6176"><ele>4.42</ele></trkpt><trkpt lat="49.6321" lon="-1.61769"><ele>4.5</ele></trkpt><trkpt lat="49.63208" lon="-1.61744"><ele>4.59</ele></trkpt><trkpt lat="49.63187" lon="-1.61726"><ele>4.82</ele></trkpt><trkpt lat="49.63179" lon="-1.6172"><ele>5.11</ele></trkpt><trkpt lat="49.63186" lon="-1.61666"><ele>5.48</ele></trkpt><trkpt lat="49.63179" lon="-1.61606"><ele>6.51</ele></trkpt><trkpt lat="49.63167" lon="-1.61577"><ele>8.53</ele></trkpt><trkpt lat="49.63186" lon="-1.61536"><ele>10.19</ele></trkpt><trkpt lat="49.63228" lon="-1.61531"><ele>7.32</ele></trkpt><trkpt lat="49.63238" lon="-1.61563"><ele>6.05</ele></trkpt><trkpt lat="49.63236" lon="-1.61624"><ele>5.01</ele></trkpt><trkpt lat="49.63252" lon="-1.61641"><ele>4.21</ele></trkpt><trkpt lat="49.63252" lon="-1.61672"><ele>4.15</ele></trkpt><trkpt lat="49.63309" lon="-1.61651"><ele>3.53</ele></trkpt><trkpt lat="49.63326" lon="-1.61691"><ele>3.68</ele></trkpt><trkpt lat="49.63342" lon="-1.6171"><ele>4.39</ele></trkpt><trkpt lat="49.63363" lon="-1.61701"><ele>4.35</ele></trkpt><trkpt lat="49.63361" lon="-1.61616"><ele>4.13</ele></trkpt><trkpt lat="49.63371" lon="-1.61616"><ele>4.23</ele></trkpt><trkpt lat="49.63401" lon="-1.61611"><ele>4.37</ele></trkpt><trkpt lat="49.63412" lon="-1.61609"><ele>4.52</ele></trkpt><trkpt lat="49.63423" lon="-1.61607"><ele>4.54</ele></trkpt><trkpt lat="49.63462" lon="-1.616"><ele>4.01</ele></trkpt><trkpt lat="49.63464" lon="-1.61599"><ele>4.01</ele></trkpt><trkpt lat="49.63462" lon="-1.61575"><ele>3.89</ele></trkpt><trkpt lat="49.63461" lon="-1.61547"><ele>3.76</ele></trkpt><trkpt lat="49.63459" lon="-1.61521"><ele>3.67</ele></trkpt><trkpt lat="49.63458" lon="-1.61504"><ele>3.65</ele></trkpt><trkpt lat="49.63456" lon="-1.61491"><ele>3.65</ele></trkpt><trkpt lat="49.63458" lon="-1.61504"><ele>3.65</ele></trkpt><trkpt lat="49.63508" lon="-1.61495"><ele>3.7</ele></trkpt><trkpt lat="49.63529" lon="-1.6149"><ele>3.51</ele></trkpt><trkpt lat="49.63566" lon="-1.61483"><ele>3.38</ele></trkpt><trkpt lat="49.63586" lon="-1.61479"><ele>3.39</ele></trkpt><trkpt lat="49.63615" lon="-1.61474"><ele>3.26</ele></trkpt><trkpt lat="49.63619" lon="-1.61472"><ele>3.22</ele></trkpt><trkpt lat="49.63633" lon="-1.6147"><ele>3.23</ele></trkpt><trkpt lat="49.63638" lon="-1.61469"><ele>3.26</ele></trkpt><trkpt lat="49.63645" lon="-1.61467"><ele>3.27</ele></trkpt><trkpt lat="49.63659" lon="-1.61465"><ele>3.23</ele></trkpt><trkpt lat="49.63666" lon="-1.61464"><ele>3.24</ele></trkpt><trkpt lat="49.63671" lon="-1.61463"><ele>3.2</ele></trkpt><trkpt lat="49.63686" lon="-1.61461"><ele>3.15</ele></trkpt><trkpt lat="49.63709" lon="-1.61456"><ele>3.17</ele></trkpt><trkpt lat="49.63741" lon="-1.61453"><ele>3.29</ele></trkpt><trkpt lat="49.6378" lon="-1.61449"><ele>3.71</ele></trkpt><trkpt lat="49.63834" lon="-1.61439"><ele>4.06</ele></trkpt><trkpt lat="49.6384" lon="-1.61438"><ele>4.42</ele></trkpt><trkpt lat="49.63845" lon="-1.61438"><ele>4.48</ele></trkpt><trkpt lat="49.63852" lon="-1.61437"><ele>4.75</ele></trkpt><trkpt lat="49.63865" lon="-1.61434"><ele>5.4</ele></trkpt><trkpt lat="49.63864" lon="-1.61419"><ele>5.35</ele></trkpt><trkpt lat="49.63859" lon="-1.61346"><ele>5.16</ele></trkpt><trkpt lat="49.63857" lon="-1.61323"><ele>5.17</ele></trkpt><trkpt lat="49.63855" lon="-1.61303"><ele>5.18</ele></trkpt><trkpt lat="49.63855" lon="-1.61299"><ele>5.17</ele></trkpt><trkpt lat="49.63918" lon="-1.61289"><ele>4.32</ele></trkpt><trkpt lat="49.63931" lon="-1.61287"><ele>4.17</ele></trkpt><trkpt lat="49.63934" lon="-1.61334"><ele>4.07</ele></trkpt><trkpt lat="49.63938" lon="-1.61384"><ele>3.77</ele></trkpt><trkpt lat="49.63941" lon="-1.61418"><ele>3.74</ele></trkpt><trkpt lat="49.64017" lon="-1.61404"><ele>4</ele></trkpt><trkpt lat="49.64066" lon="-1.61396"><ele>4.16</ele></trkpt><trkpt lat="49.6406" lon="-1.61311"><ele>4.29</ele></trkpt><trkpt lat="49.64057" lon="-1.61268"><ele>4.45</ele></trkpt><trkpt lat="49.64053" lon="-1.61215"><ele>4.64</ele></trkpt><trkpt lat="49.64056" lon="-1.61215"><ele>4.64</ele></trkpt><trkpt lat="49.6408" lon="-1.6121"><ele>4.72</ele></trkpt><trkpt lat="49.64174" lon="-1.61191"><ele>4.49</ele></trkpt><trkpt lat="49.64192" lon="-1.61187"><ele>4.67</ele></trkpt><trkpt lat="49.64224" lon="-1.61185"><ele>5.64</ele></trkpt><trkpt lat="49.64234" lon="-1.61184"><ele>5.68</ele></trkpt><trkpt lat="49.64243" lon="-1.61184"><ele>5.63</ele></trkpt><trkpt lat="49.64237" lon="-1.61273"><ele>5.56</ele></trkpt><trkpt lat="49.64236" lon="-1.61281"><ele>5.42</ele></trkpt><trkpt lat="49.64236" lon="-1.61284"><ele>5.42</ele></trkpt><trkpt lat="49.64234" lon="-1.61309"><ele>5.45</ele></trkpt><trkpt lat="49.64227" lon="-1.61312"><ele>5.28</ele></trkpt><trkpt lat="49.64227" lon="-1.61313"><ele>5.28</ele></trkpt><trkpt lat="49.64225" lon="-1.61315"><ele>5.2</ele></trkpt><trkpt lat="49.64222" lon="-1.61319"><ele>5.13</ele></trkpt><trkpt lat="49.6422" lon="-1.61325"><ele>5.09</ele></trkpt><trkpt lat="49.64219" lon="-1.61331"><ele>4.95</ele></trkpt><trkpt lat="49.64209" lon="-1.61372"><ele>4.23</ele></trkpt><trkpt lat="49.64213" lon="-1.61427"><ele>4.54</ele></trkpt><trkpt lat="49.64216" lon="-1.61454"><ele>4.78</ele></trkpt><trkpt lat="49.6422" lon="-1.61508"><ele>4.45</ele></trkpt><trkpt lat="49.64224" lon="-1.6152"><ele>4.37</ele></trkpt><trkpt lat="49.64224" lon="-1.61522"><ele>4.34</ele></trkpt><trkpt lat="49.6423" lon="-1.61536"><ele>4.11</ele></trkpt><trkpt lat="49.64228" lon="-1.61538"><ele>4.07</ele></trkpt><trkpt lat="49.64227" lon="-1.61541"><ele>4.07</ele></trkpt><trkpt lat="49.64226" lon="-1.61544"><ele>4.02</ele></trkpt><trkpt lat="49.64224" lon="-1.61546"><ele>4.02</ele></trkpt><trkpt lat="49.64224" lon="-1.6155"><ele>3.98</ele></trkpt><trkpt lat="49.64222" lon="-1.61555"><ele>3.95</ele></trkpt><trkpt lat="49.64222" lon="-1.61561"><ele>3.97</ele></trkpt><trkpt lat="49.64222" lon="-1.61565"><ele>4</ele></trkpt><trkpt lat="49.64222" lon="-1.6157"><ele>4</ele></trkpt><trkpt lat="49.64223" lon="-1.61572"><ele>4.02</ele></trkpt><trkpt lat="49.64223" lon="-1.61575"><ele>4.02</ele></trkpt><trkpt lat="49.64224" lon="-1.61578"><ele>4.01</ele></trkpt><trkpt lat="49.64226" lon="-1.61582"><ele>3.99</ele></trkpt><trkpt lat="49.64227" lon="-1.61585"><ele>3.96</ele></trkpt><trkpt lat="49.64228" lon="-1.61586"><ele>3.96</ele></trkpt><trkpt lat="49.64229" lon="-1.61587"><ele>4.09</ele></trkpt><trkpt lat="49.6423" lon="-1.61588"><ele>4.09</ele></trkpt><trkpt lat="49.64231" lon="-1.61591"><ele>4.04</ele></trkpt><trkpt lat="49.64232" lon="-1.61592"><ele>4.04</ele></trkpt><trkpt lat="49.6423" lon="-1.61631"><ele>4.23</ele></trkpt><trkpt lat="49.64232" lon="-1.61643"><ele>4.33</ele></trkpt><trkpt lat="49.64231" lon="-1.61646"><ele>4.37</ele></trkpt><trkpt lat="49.64231" lon="-1.61652"><ele>4.39</ele></trkpt><trkpt lat="49.64229" lon="-1.61665"><ele>4.49</ele></trkpt><trkpt lat="49.64228" lon="-1.61678"><ele>4.55</ele></trkpt><trkpt lat="49.64227" lon="-1.61684"><ele>4.63</ele></trkpt><trkpt lat="49.64222" lon="-1.61705"><ele>4.57</ele></trkpt><trkpt lat="49.64221" lon="-1.61709"><ele>4.56</ele></trkpt><trkpt lat="49.64214" lon="-1.61729"><ele>4.52</ele></trkpt><trkpt lat="49.64208" lon="-1.61742"><ele>4.65</ele></trkpt><trkpt lat="49.64207" lon="-1.61749"><ele>4.65</ele></trkpt><trkpt lat="49.64232" lon="-1.61748"><ele>4.68</ele></trkpt><trkpt lat="49.64249" lon="-1.61746"><ele>4.69</ele></trkpt><trkpt lat="49.64272" lon="-1.61745"><ele>4.65</ele></trkpt><trkpt lat="49.64273" lon="-1.61745"><ele>4.65</ele></trkpt><trkpt lat="49.64289" lon="-1.61745"><ele>4.68</ele></trkpt><trkpt lat="49.64297" lon="-1.61745"><ele>4.76</ele></trkpt><trkpt lat="49.64306" lon="-1.61744"><ele>4.82</ele></trkpt><trkpt lat="49.6431" lon="-1.61744"><ele>4.81</ele></trkpt><trkpt lat="49.64345" lon="-1.61744"><ele>4.69</ele></trkpt><trkpt lat="49.64346" lon="-1.61744"><ele>4.69</ele></trkpt><trkpt lat="49.64355" lon="-1.61746"><ele>4.76</ele></trkpt><trkpt lat="49.64391" lon="-1.61753"><ele>4.81</ele></trkpt><trkpt lat="49.64453" lon="-1.61766"><ele>4.48</ele></trkpt><trkpt lat="49.64454" lon="-1.61788"><ele>4.38</ele></trkpt><trkpt lat="49.64546" lon="-1.61806"><ele>4.17</ele></trkpt><trkpt lat="49.64606" lon="-1.61817"><ele>3.96</ele></trkpt><trkpt lat="49.64663" lon="-1.61816"><ele>4.37</ele></trkpt><trkpt lat="49.64706" lon="-1.61799"><ele>4.31</ele></trkpt><trkpt lat="49.64743" lon="-1.61774"><ele>4.41</ele></trkpt><trkpt lat="49.64776" lon="-1.61767"><ele>4.33</ele></trkpt><trkpt lat="49.64811" lon="-1.61765"><ele>5.04</ele></trkpt><trkpt lat="49.64836" lon="-1.61774"><ele>4.23</ele></trkpt><trkpt lat="49.64837" lon="-1.61796"><ele>4.41</ele></trkpt><trkpt lat="49.64789" lon="-1.61804"><ele>4.32</ele></trkpt><trkpt lat="49.64743" lon="-1.61809"><ele>4.32</ele></trkpt><trkpt lat="49.64731" lon="-1.61816"><ele>4.5</ele></trkpt><trkpt lat="49.64717" lon="-1.61815"><ele>4.52</ele></trkpt><trkpt lat="49.64707" lon="-1.61812"><ele>4.39</ele></trkpt><trkpt lat="49.64694" lon="-1.61817"><ele>4.37</ele></trkpt><trkpt lat="49.64672" lon="-1.61822"><ele>4.37</ele></trkpt><trkpt lat="49.64639" lon="-1.61829"><ele>4.48</ele></trkpt><trkpt lat="49.64626" lon="-1.61836"><ele>4.37</ele></trkpt><trkpt lat="49.64627" lon="-1.61857"><ele>5.45</ele></trkpt><trkpt lat="49.64494" lon="-1.61883"><ele>4.73</ele></trkpt><trkpt lat="49.64413" lon="-1.61898"><ele>4.95</ele></trkpt><trkpt lat="49.644" lon="-1.61876"><ele>4.51</ele></trkpt><trkpt lat="49.64396" lon="-1.61847"><ele>4.37</ele></trkpt><trkpt lat="49.64337" lon="-1.6184"><ele>4.25</ele></trkpt><trkpt lat="49.64287" lon="-1.61809"><ele>4.02</ele></trkpt><trkpt lat="49.64268" lon="-1.61784"><ele>4.44</ele></trkpt><trkpt lat="49.64226" lon="-1.61788"><ele>4.65</ele></trkpt><trkpt lat="49.64199" lon="-1.61792"><ele>4.62</ele></trkpt><trkpt lat="49.642" lon="-1.61826"><ele>4.14</ele></trkpt><trkpt lat="49.64104" lon="-1.61847"><ele>3.83</ele></trkpt><trkpt lat="49.64017" lon="-1.61873"><ele>4.02</ele></trkpt><trkpt lat="49.63976" lon="-1.61888"><ele>0</ele></trkpt><trkpt lat="49.63938" lon="-1.61908"><ele>4.3</ele></trkpt><trkpt lat="49.63931" lon="-1.61956"><ele>4.67</ele></trkpt><trkpt lat="49.63927" lon="-1.62"><ele>5.43</ele></trkpt><trkpt lat="49.63914" lon="-1.62006"><ele>5.68</ele></trkpt><trkpt lat="49.63918" lon="-1.6208"><ele>5.54</ele></trkpt><trkpt lat="49.63926" lon="-1.62096"><ele>5.14</ele></trkpt><trkpt lat="49.63918" lon="-1.62093"><ele>5.49</ele></trkpt></trkseg></trk></gpx>
