<?xml version="1.0" encoding="UTF-8" standalone="no"?>
<gpx xmlns="http://www.topografix.com/GPX/1/1" version="1.1" xmlns:xsi="http://www.w3.org/2001/XMLSchema-instance" xsi:schemaLocation="http://www.topografix.com/GPX/1/1 http://www.topografix.com/GPX/1/1/gpx.xsd" creator="Cirkwi"><metadata><name><![CDATA[Le Cap de la Hague - n°104]]></name><desc><![CDATA[Jacques Prévert parlait du cap de la Hague, comme du « Finistère le plus proche de Paris ». A votre tour, venez découvrir ce bout du monde, où les éléments se déchaînent parfois pour vous offrir de somptueux spectacles. Au programme de ce circuit, vous aurez le cap de la Hague et son paysage si particulier, les falaises, les hauteurs bocagères et la côte nord avec ses rochers. Partez de l'Office de Tourisme de Goury. Traversez la route RD901 et angagez-vous sur le sentier vers la croix du Vendémiaire. Faites le tour de la pointe dans le sens anti-horaire jusqu'à la station SNSM. Suivez le GR 223 en laissant la mer sur votre droite (Auderville, La Hague).  Coordonnées GPS : 49°42'56.6"N, 1°56'42.9"W Suivez le circuit selon le sens inverse des aiguilles d'une montre. Le balisage est de couleur jaune. Le long du littoral, suivez le balisage du GR223 (rouge et blanc). Vous retrouverez ce circuit dans le topoguide "La Hague - Des Pieux et autour de Martinvast "de l'Office de tourisme du Cotentin.   Départ accessible en bus avec le réseau Cap Cotentin les week-ends et pendant les vacances scolaires aux arrêts "Auderville- Goury - Cap de la Hague", "Saint-Germain-des-Vaux - Le Bourg" et "Auderville - Ecalgrain" (possibilité de rejoindre le circuit en cours) - (plus d'infos sur capcotentin.fr)]]></desc><author><name><![CDATA[Cotentin unique]]></name></author><link href="http://fichier0.cirkwi.com/image/photo/circuit/1300x1300/60170/fr/0.jpg"><text><![CDATA[|]]></text></link><link href="http://fichier0.cirkwi.com/image/photo/circuit/1300x1300/60170/fr/1.jpg"><text><![CDATA[|Aymeric PICOT]]></text></link><link href="http://fichier0.cirkwi.com/image/photo/circuit/1300x1300/60170/fr/2.jpg"><text><![CDATA[|Aymeric PICOT]]></text></link><link href="http://fichier0.cirkwi.com/image/photo/circuit/1300x1300/60170/fr/3.jpg"><text><![CDATA[|Aymeric PICOT]]></text></link><link href="http://fichier0.cirkwi.com/image/photo/circuit/1300x1300/60170/fr/4.jpg"><text><![CDATA[|Aymeric PICOT]]></text></link><link href="http://fichier0.cirkwi.com/image/photo/circuit/1300x1300/60170/fr/5.jpg"><text><![CDATA[|© Cap Cotentin]]></text></link><time>2026-08-17T08:55:59Z</time></metadata><trk><trkseg><trkpt lat="49.71543" lon="-1.94486"><ele>4.72</ele></trkpt><trkpt lat="49.71521" lon="-1.94405"><ele>5.74</ele></trkpt><trkpt lat="49.71502" lon="-1.94364"><ele>6.04</ele></trkpt><trkpt lat="49.7148" lon="-1.94336"><ele>6.2</ele></trkpt><trkpt lat="49.71446" lon="-1.94323"><ele>6.39</ele></trkpt><trkpt lat="49.71413" lon="-1.94322"><ele>6.79</ele></trkpt><trkpt lat="49.71369" lon="-1.94332"><ele>6.7</ele></trkpt><trkpt lat="49.71345" lon="-1.94334"><ele>6.61</ele></trkpt><trkpt lat="49.71336" lon="-1.9433"><ele>6.67</ele></trkpt><trkpt lat="49.71333" lon="-1.94291"><ele>7.39</ele></trkpt><trkpt lat="49.7133" lon="-1.94249"><ele>8.33</ele></trkpt><trkpt lat="49.71319" lon="-1.94199"><ele>9.8</ele></trkpt><trkpt lat="49.71225" lon="-1.94281"><ele>9.64</ele></trkpt><trkpt lat="49.71175" lon="-1.94315"><ele>9.98</ele></trkpt><trkpt lat="49.7111" lon="-1.94355"><ele>11.07</ele></trkpt><trkpt lat="49.71043" lon="-1.94389"><ele>12.93</ele></trkpt><trkpt lat="49.70918" lon="-1.94479"><ele>16.64</ele></trkpt><trkpt lat="49.70909" lon="-1.94493"><ele>16.31</ele></trkpt><trkpt lat="49.7089" lon="-1.94501"><ele>16.46</ele></trkpt><trkpt lat="49.70874" lon="-1.94511"><ele>16.59</ele></trkpt><trkpt lat="49.7086" lon="-1.9455"><ele>16.39</ele></trkpt><trkpt lat="49.7083" lon="-1.94553"><ele>20.11</ele></trkpt><trkpt lat="49.70802" lon="-1.94551"><ele>25.58</ele></trkpt><trkpt lat="49.70762" lon="-1.9457"><ele>25.99</ele></trkpt><trkpt lat="49.70761" lon="-1.9457"><ele>25.99</ele></trkpt><trkpt lat="49.70742" lon="-1.94587"><ele>26.45</ele></trkpt><trkpt lat="49.70739" lon="-1.94593"><ele>25.21</ele></trkpt><trkpt lat="49.70736" lon="-1.94598"><ele>25.95</ele></trkpt><trkpt lat="49.70732" lon="-1.94615"><ele>23.82</ele></trkpt><trkpt lat="49.70728" lon="-1.94626"><ele>22.52</ele></trkpt><trkpt lat="49.70727" lon="-1.94635"><ele>20.72</ele></trkpt><trkpt lat="49.70726" lon="-1.94639"><ele>20.18</ele></trkpt><trkpt lat="49.70724" lon="-1.94642"><ele>20.23</ele></trkpt><trkpt lat="49.70723" lon="-1.94643"><ele>19.51</ele></trkpt><trkpt lat="49.7072" lon="-1.94646"><ele>19.51</ele></trkpt><trkpt lat="49.70709" lon="-1.94652"><ele>18.5</ele></trkpt><trkpt lat="49.70696" lon="-1.94656"><ele>18.68</ele></trkpt><trkpt lat="49.70694" lon="-1.94657"><ele>18.48</ele></trkpt><trkpt lat="49.70693" lon="-1.94654"><ele>20.01</ele></trkpt><trkpt lat="49.70671" lon="-1.94663"><ele>19.72</ele></trkpt><trkpt lat="49.7062" lon="-1.94663"><ele>18.17</ele></trkpt><trkpt lat="49.70607" lon="-1.94667"><ele>18.1</ele></trkpt><trkpt lat="49.70578" lon="-1.94665"><ele>20.24</ele></trkpt><trkpt lat="49.70543" lon="-1.94681"><ele>18.72</ele></trkpt><trkpt lat="49.70515" lon="-1.94674"><ele>21.02</ele></trkpt><trkpt lat="49.70486" lon="-1.94661"><ele>21.31</ele></trkpt><trkpt lat="49.70454" lon="-1.94623"><ele>21.32</ele></trkpt><trkpt lat="49.70432" lon="-1.94582"><ele>22.03</ele></trkpt><trkpt lat="49.7041" lon="-1.94536"><ele>23.62</ele></trkpt><trkpt lat="49.70397" lon="-1.94483"><ele>29.33</ele></trkpt><trkpt lat="49.7037" lon="-1.9442"><ele>33.11</ele></trkpt><trkpt lat="49.70354" lon="-1.94381"><ele>38.27</ele></trkpt><trkpt lat="49.70332" lon="-1.94368"><ele>38.71</ele></trkpt><trkpt lat="49.70313" lon="-1.94364"><ele>38.53</ele></trkpt><trkpt lat="49.70266" lon="-1.94393"><ele>37.51</ele></trkpt><trkpt lat="49.7024" lon="-1.94432"><ele>31.77</ele></trkpt><trkpt lat="49.70212" lon="-1.94452"><ele>27.96</ele></trkpt><trkpt lat="49.70181" lon="-1.94449"><ele>32.34</ele></trkpt><trkpt lat="49.70145" lon="-1.94394"><ele>38.27</ele></trkpt><trkpt lat="49.70125" lon="-1.94376"><ele>41.42</ele></trkpt><trkpt lat="49.70102" lon="-1.94367"><ele>44</ele></trkpt><trkpt lat="49.70082" lon="-1.94379"><ele>41.04</ele></trkpt><trkpt lat="49.70055" lon="-1.94373"><ele>33.63</ele></trkpt><trkpt lat="49.70029" lon="-1.94354"><ele>29.69</ele></trkpt><trkpt lat="49.70016" lon="-1.94323"><ele>33.03</ele></trkpt><trkpt lat="49.70005" lon="-1.94293"><ele>36.19</ele></trkpt><trkpt lat="49.69991" lon="-1.94278"><ele>36.08</ele></trkpt><trkpt lat="49.6996" lon="-1.9426"><ele>38.25</ele></trkpt><trkpt lat="49.69931" lon="-1.94249"><ele>31.73</ele></trkpt><trkpt lat="49.69898" lon="-1.94225"><ele>34.37</ele></trkpt><trkpt lat="49.69871" lon="-1.94234"><ele>32.01</ele></trkpt><trkpt lat="49.69837" lon="-1.94269"><ele>32.92</ele></trkpt><trkpt lat="49.69823" lon="-1.94302"><ele>26.02</ele></trkpt><trkpt lat="49.69798" lon="-1.94304"><ele>21.46</ele></trkpt><trkpt lat="49.6978" lon="-1.94278"><ele>21.96</ele></trkpt><trkpt lat="49.69779" lon="-1.94243"><ele>29.13</ele></trkpt><trkpt lat="49.69762" lon="-1.94207"><ele>28.77</ele></trkpt><trkpt lat="49.69739" lon="-1.94179"><ele>27.61</ele></trkpt><trkpt lat="49.69734" lon="-1.94155"><ele>26.16</ele></trkpt><trkpt lat="49.69736" lon="-1.94093"><ele>31.9</ele></trkpt><trkpt lat="49.69736" lon="-1.94064"><ele>32.63</ele></trkpt><trkpt lat="49.69737" lon="-1.94029"><ele>33.4</ele></trkpt><trkpt lat="49.69737" lon="-1.93977"><ele>37.38</ele></trkpt><trkpt lat="49.69735" lon="-1.9393"><ele>43.18</ele></trkpt><trkpt lat="49.69728" lon="-1.93911"><ele>42.74</ele></trkpt><trkpt lat="49.69712" lon="-1.93874"><ele>44.74</ele></trkpt><trkpt lat="49.69706" lon="-1.93839"><ele>48.38</ele></trkpt><trkpt lat="49.69674" lon="-1.9374"><ele>55.66</ele></trkpt><trkpt lat="49.69726" lon="-1.938"><ele>63.31</ele></trkpt><trkpt lat="49.69782" lon="-1.93869"><ele>72.19</ele></trkpt><trkpt lat="49.69832" lon="-1.93902"><ele>79.71</ele></trkpt><trkpt lat="49.6981" lon="-1.93821"><ele>80.44</ele></trkpt><trkpt lat="49.69789" lon="-1.93699"><ele>87.65</ele></trkpt><trkpt lat="49.69769" lon="-1.9357"><ele>94.6</ele></trkpt><trkpt lat="49.69761" lon="-1.9353"><ele>96.2</ele></trkpt><trkpt lat="49.69726" lon="-1.93509"><ele>100.23</ele></trkpt><trkpt lat="49.69682" lon="-1.93495"><ele>103.85</ele></trkpt><trkpt lat="49.69637" lon="-1.93481"><ele>105.87</ele></trkpt><trkpt lat="49.69624" lon="-1.9347"><ele>106.08</ele></trkpt><trkpt lat="49.69583" lon="-1.93417"><ele>105.17</ele></trkpt><trkpt lat="49.69533" lon="-1.93396"><ele>103.99</ele></trkpt><trkpt lat="49.69478" lon="-1.93368"><ele>109.46</ele></trkpt><trkpt lat="49.69442" lon="-1.93327"><ele>112.04</ele></trkpt><trkpt lat="49.69411" lon="-1.93284"><ele>111.38</ele></trkpt><trkpt lat="49.69374" lon="-1.93253"><ele>112.15</ele></trkpt><trkpt lat="49.69338" lon="-1.93209"><ele>106.93</ele></trkpt><trkpt lat="49.69305" lon="-1.93198"><ele>103.29</ele></trkpt><trkpt lat="49.69292" lon="-1.93193"><ele>102.63</ele></trkpt><trkpt lat="49.69265" lon="-1.93106"><ele>103.2</ele></trkpt><trkpt lat="49.69234" lon="-1.93048"><ele>98.56</ele></trkpt><trkpt lat="49.69249" lon="-1.9295"><ele>102.85</ele></trkpt><trkpt lat="49.69263" lon="-1.92867"><ele>107.31</ele></trkpt><trkpt lat="49.69271" lon="-1.92806"><ele>107.98</ele></trkpt><trkpt lat="49.69263" lon="-1.9274"><ele>112.74</ele></trkpt><trkpt lat="49.69264" lon="-1.92578"><ele>120</ele></trkpt><trkpt lat="49.69267" lon="-1.92446"><ele>123.06</ele></trkpt><trkpt lat="49.69275" lon="-1.92327"><ele>125.59</ele></trkpt><trkpt lat="49.69293" lon="-1.92144"><ele>127.64</ele></trkpt><trkpt lat="49.69327" lon="-1.91995"><ele>130.16</ele></trkpt><trkpt lat="49.69357" lon="-1.91836"><ele>132.95</ele></trkpt><trkpt lat="49.69371" lon="-1.9174"><ele>131.89</ele></trkpt><trkpt lat="49.69388" lon="-1.91676"><ele>129.27</ele></trkpt><trkpt lat="49.69519" lon="-1.91706"><ele>123.13</ele></trkpt><trkpt lat="49.69499" lon="-1.91526"><ele>116.68</ele></trkpt><trkpt lat="49.69586" lon="-1.91495"><ele>107.16</ele></trkpt><trkpt lat="49.69648" lon="-1.91449"><ele>98.1</ele></trkpt><trkpt lat="49.69683" lon="-1.91424"><ele>94.11</ele></trkpt><trkpt lat="49.69728" lon="-1.9146"><ele>92.36</ele></trkpt><trkpt lat="49.69787" lon="-1.91518"><ele>92.44</ele></trkpt><trkpt lat="49.69817" lon="-1.915"><ele>91.93</ele></trkpt><trkpt lat="49.69874" lon="-1.91482"><ele>91.36</ele></trkpt><trkpt lat="49.69916" lon="-1.91488"><ele>93.45</ele></trkpt><trkpt lat="49.70002" lon="-1.915"><ele>95.51</ele></trkpt><trkpt lat="49.70075" lon="-1.91519"><ele>92.57</ele></trkpt><trkpt lat="49.70129" lon="-1.91529"><ele>89.16</ele></trkpt><trkpt lat="49.70215" lon="-1.91534"><ele>80.41</ele></trkpt><trkpt lat="49.70265" lon="-1.91567"><ele>77.14</ele></trkpt><trkpt lat="49.70341" lon="-1.91626"><ele>80.76</ele></trkpt><trkpt lat="49.70397" lon="-1.91659"><ele>85.22</ele></trkpt><trkpt lat="49.70438" lon="-1.91694"><ele>85.8</ele></trkpt><trkpt lat="49.7049" lon="-1.91734"><ele>84.89</ele></trkpt><trkpt lat="49.7054" lon="-1.91781"><ele>84.45</ele></trkpt><trkpt lat="49.7054" lon="-1.9178"><ele>84.35</ele></trkpt><trkpt lat="49.70564" lon="-1.91808"><ele>82.17</ele></trkpt><trkpt lat="49.70571" lon="-1.91816"><ele>81.92</ele></trkpt><trkpt lat="49.70586" lon="-1.91833"><ele>80.68</ele></trkpt><trkpt lat="49.70585" lon="-1.91836"><ele>81.21</ele></trkpt><trkpt lat="49.70592" lon="-1.91843"><ele>80.85</ele></trkpt><trkpt lat="49.70594" lon="-1.91846"><ele>80.53</ele></trkpt><trkpt lat="49.706" lon="-1.91852"><ele>80.32</ele></trkpt><trkpt lat="49.70621" lon="-1.91875"><ele>79.85</ele></trkpt><trkpt lat="49.70626" lon="-1.91881"><ele>79.77</ele></trkpt><trkpt lat="49.70637" lon="-1.91888"><ele>79.84</ele></trkpt><trkpt lat="49.70639" lon="-1.91881"><ele>79.65</ele></trkpt><trkpt lat="49.70692" lon="-1.9192"><ele>80.18</ele></trkpt><trkpt lat="49.70741" lon="-1.91936"><ele>80.71</ele></trkpt><trkpt lat="49.70821" lon="-1.91914"><ele>80.94</ele></trkpt><trkpt lat="49.70885" lon="-1.91935"><ele>75.58</ele></trkpt><trkpt lat="49.70919" lon="-1.91967"><ele>71.53</ele></trkpt><trkpt lat="49.70965" lon="-1.92012"><ele>66.13</ele></trkpt><trkpt lat="49.7107" lon="-1.9209"><ele>57.83</ele></trkpt><trkpt lat="49.71095" lon="-1.9215"><ele>58.18</ele></trkpt><trkpt lat="49.71129" lon="-1.92195"><ele>56.67</ele></trkpt><trkpt lat="49.71199" lon="-1.92214"><ele>49.66</ele></trkpt><trkpt lat="49.71283" lon="-1.92194"><ele>40.43</ele></trkpt><trkpt lat="49.71396" lon="-1.92203"><ele>32.82</ele></trkpt><trkpt lat="49.71434" lon="-1.92197"><ele>31.15</ele></trkpt><trkpt lat="49.71441" lon="-1.92076"><ele>33.13</ele></trkpt><trkpt lat="49.71459" lon="-1.91881"><ele>34.02</ele></trkpt><trkpt lat="49.71474" lon="-1.9181"><ele>35</ele></trkpt><trkpt lat="49.71487" lon="-1.91791"><ele>34.95</ele></trkpt><trkpt lat="49.71548" lon="-1.91795"><ele>29.44</ele></trkpt><trkpt lat="49.71637" lon="-1.91863"><ele>26.08</ele></trkpt><trkpt lat="49.71734" lon="-1.91923"><ele>24.72</ele></trkpt><trkpt lat="49.71804" lon="-1.91974"><ele>23.88</ele></trkpt><trkpt lat="49.71871" lon="-1.91867"><ele>22.24</ele></trkpt><trkpt lat="49.71973" lon="-1.91798"><ele>20.79</ele></trkpt><trkpt lat="49.72109" lon="-1.91728"><ele>19.97</ele></trkpt><trkpt lat="49.72159" lon="-1.91702"><ele>18.88</ele></trkpt><trkpt lat="49.72184" lon="-1.9172"><ele>18.61</ele></trkpt><trkpt lat="49.72266" lon="-1.91691"><ele>13.9</ele></trkpt><trkpt lat="49.72295" lon="-1.91704"><ele>12.11</ele></trkpt><trkpt lat="49.72388" lon="-1.91649"><ele>7.34</ele></trkpt><trkpt lat="49.72442" lon="-1.91614"><ele>5.71</ele></trkpt><trkpt lat="49.72482" lon="-1.91674"><ele>5.42</ele></trkpt><trkpt lat="49.72497" lon="-1.9171"><ele>4.7</ele></trkpt><trkpt lat="49.72502" lon="-1.91745"><ele>4.61</ele></trkpt><trkpt lat="49.72503" lon="-1.91823"><ele>4.85</ele></trkpt><trkpt lat="49.72519" lon="-1.91912"><ele>4.81</ele></trkpt><trkpt lat="49.72535" lon="-1.91991"><ele>4.98</ele></trkpt><trkpt lat="49.72546" lon="-1.92021"><ele>4.83</ele></trkpt><trkpt lat="49.72564" lon="-1.92094"><ele>4.8</ele></trkpt><trkpt lat="49.72579" lon="-1.92145"><ele>5.33</ele></trkpt><trkpt lat="49.72621" lon="-1.9219"><ele>4.85</ele></trkpt><trkpt lat="49.7263" lon="-1.9223"><ele>6.24</ele></trkpt><trkpt lat="49.72635" lon="-1.92284"><ele>6.51</ele></trkpt><trkpt lat="49.7263" lon="-1.92321"><ele>6.68</ele></trkpt><trkpt lat="49.72626" lon="-1.92379"><ele>6.62</ele></trkpt><trkpt lat="49.72626" lon="-1.92431"><ele>6.11</ele></trkpt><trkpt lat="49.72637" lon="-1.92482"><ele>5.72</ele></trkpt><trkpt lat="49.7265" lon="-1.92529"><ele>4.9</ele></trkpt><trkpt lat="49.72674" lon="-1.92567"><ele>4.79</ele></trkpt><trkpt lat="49.72684" lon="-1.92602"><ele>4.61</ele></trkpt><trkpt lat="49.72665" lon="-1.9266"><ele>4.6</ele></trkpt><trkpt lat="49.72645" lon="-1.92712"><ele>4.7</ele></trkpt><trkpt lat="49.72637" lon="-1.92785"><ele>4.71</ele></trkpt><trkpt lat="49.72637" lon="-1.92828"><ele>4.69</ele></trkpt><trkpt lat="49.72626" lon="-1.92856"><ele>4.52</ele></trkpt><trkpt lat="49.72615" lon="-1.92881"><ele>4.47</ele></trkpt><trkpt lat="49.72606" lon="-1.92912"><ele>4.61</ele></trkpt><trkpt lat="49.7259" lon="-1.92947"><ele>4.98</ele></trkpt><trkpt lat="49.72576" lon="-1.93005"><ele>5.47</ele></trkpt><trkpt lat="49.72586" lon="-1.93059"><ele>5.74</ele></trkpt><trkpt lat="49.72607" lon="-1.93088"><ele>5.43</ele></trkpt><trkpt lat="49.72608" lon="-1.93119"><ele>5.48</ele></trkpt><trkpt lat="49.72608" lon="-1.93152"><ele>5.27</ele></trkpt><trkpt lat="49.7259" lon="-1.93217"><ele>4.48</ele></trkpt><trkpt lat="49.72594" lon="-1.93281"><ele>4.34</ele></trkpt><trkpt lat="49.72601" lon="-1.93329"><ele>4.52</ele></trkpt><trkpt lat="49.72637" lon="-1.93401"><ele>4.73</ele></trkpt><trkpt lat="49.72674" lon="-1.9342"><ele>4.42</ele></trkpt><trkpt lat="49.72682" lon="-1.93439"><ele>4.95</ele></trkpt><trkpt lat="49.72655" lon="-1.93468"><ele>5.62</ele></trkpt><trkpt lat="49.72628" lon="-1.93541"><ele>5.7</ele></trkpt><trkpt lat="49.72601" lon="-1.93647"><ele>5.17</ele></trkpt><trkpt lat="49.72611" lon="-1.93753"><ele>6.14</ele></trkpt><trkpt lat="49.7262" lon="-1.93823"><ele>6.75</ele></trkpt><trkpt lat="49.72615" lon="-1.93858"><ele>7.06</ele></trkpt><trkpt lat="49.72632" lon="-1.93888"><ele>6.48</ele></trkpt><trkpt lat="49.72632" lon="-1.93942"><ele>5.49</ele></trkpt><trkpt lat="49.72628" lon="-1.93987"><ele>6.5</ele></trkpt><trkpt lat="49.72605" lon="-1.94057"><ele>6.54</ele></trkpt><trkpt lat="49.72562" lon="-1.94115"><ele>5.72</ele></trkpt><trkpt lat="49.72522" lon="-1.94148"><ele>5.7</ele></trkpt><trkpt lat="49.72475" lon="-1.94184"><ele>6.53</ele></trkpt><trkpt lat="49.72436" lon="-1.9424"><ele>5.69</ele></trkpt><trkpt lat="49.7241" lon="-1.94269"><ele>5.38</ele></trkpt><trkpt lat="49.72384" lon="-1.94308"><ele>5.3</ele></trkpt><trkpt lat="49.72363" lon="-1.94313"><ele>5.08</ele></trkpt><trkpt lat="49.72329" lon="-1.94316"><ele>5</ele></trkpt><trkpt lat="49.72294" lon="-1.94325"><ele>5.3</ele></trkpt><trkpt lat="49.72265" lon="-1.9435"><ele>4.91</ele></trkpt><trkpt lat="49.72209" lon="-1.94397"><ele>5.24</ele></trkpt><trkpt lat="49.72148" lon="-1.94304"><ele>4.65</ele></trkpt><trkpt lat="49.72126" lon="-1.94175"><ele>6.85</ele></trkpt><trkpt lat="49.72118" lon="-1.9414"><ele>7.63</ele></trkpt><trkpt lat="49.71949" lon="-1.9417"><ele>7.48</ele></trkpt><trkpt lat="49.71765" lon="-1.94188"><ele>7.43</ele></trkpt><trkpt lat="49.71663" lon="-1.94153"><ele>8.47</ele></trkpt><trkpt lat="49.71591" lon="-1.94153"><ele>9.17</ele></trkpt><trkpt lat="49.71585" lon="-1.94398"><ele>5.22</ele></trkpt><trkpt lat="49.71585" lon="-1.94396"><ele>5.22</ele></trkpt><trkpt lat="49.71587" lon="-1.94395"><ele>5.22</ele></trkpt><trkpt lat="49.71584" lon="-1.94429"><ele>4.97</ele></trkpt><trkpt lat="49.71581" lon="-1.94468"><ele>4.82</ele></trkpt><trkpt lat="49.71583" lon="-1.94496"><ele>4.53</ele></trkpt><trkpt lat="49.71578" lon="-1.94557"><ele>4.18</ele></trkpt><trkpt lat="49.7158" lon="-1.94558"><ele>4.04</ele></trkpt><trkpt lat="49.71647" lon="-1.94586"><ele>3.88</ele></trkpt><trkpt lat="49.71662" lon="-1.9459"><ele>4.02</ele></trkpt><trkpt lat="49.71667" lon="-1.94593"><ele>4.23</ele></trkpt><trkpt lat="49.71676" lon="-1.94598"><ele>4.77</ele></trkpt><trkpt lat="49.71681" lon="-1.94601"><ele>5.03</ele></trkpt><trkpt lat="49.7168" lon="-1.94607"><ele>4.98</ele></trkpt><trkpt lat="49.71679" lon="-1.94606"><ele>4.98</ele></trkpt><trkpt lat="49.71667" lon="-1.94658"><ele>5.02</ele></trkpt><trkpt lat="49.71685" lon="-1.94719"><ele>5.03</ele></trkpt><trkpt lat="49.71688" lon="-1.94753"><ele>5.36</ele></trkpt><trkpt lat="49.71657" lon="-1.94767"><ele>5.62</ele></trkpt><trkpt lat="49.71637" lon="-1.94775"><ele>6.31</ele></trkpt><trkpt lat="49.71612" lon="-1.948"><ele>6.59</ele></trkpt><trkpt lat="49.71588" lon="-1.94797"><ele>7.08</ele></trkpt><trkpt lat="49.71568" lon="-1.94801"><ele>6.58</ele></trkpt><trkpt lat="49.71555" lon="-1.94779"><ele>5.82</ele></trkpt><trkpt lat="49.71534" lon="-1.94744"><ele>6.34</ele></trkpt><trkpt lat="49.71523" lon="-1.94707"><ele>5.41</ele></trkpt><trkpt lat="49.71532" lon="-1.94673"><ele>4.7</ele></trkpt><trkpt lat="49.71523" lon="-1.94639"><ele>4.19</ele></trkpt><trkpt lat="49.71515" lon="-1.94611"><ele>4.35</ele></trkpt><trkpt lat="49.71523" lon="-1.94573"><ele>4.48</ele></trkpt><trkpt lat="49.71555" lon="-1.94569"><ele>4.58</ele></trkpt><trkpt lat="49.7155" lon="-1.94522"><ele>4.64</ele></trkpt><trkpt lat="49.71543" lon="-1.94486"><ele>4.72</ele></trkpt></trkseg></trk></gpx>
