<?xml version="1.0" encoding="UTF-8" standalone="no"?>
<gpx xmlns="http://www.topografix.com/GPX/1/1" version="1.1" xmlns:xsi="http://www.w3.org/2001/XMLSchema-instance" xsi:schemaLocation="http://www.topografix.com/GPX/1/1 http://www.topografix.com/GPX/1/1/gpx.xsd" creator="Cirkwi"><metadata><name><![CDATA[Sentier du Corsaire - n°102]]></name><desc><![CDATA[Depuis la côte rocheuse jusqu’aux hauteurs de Digulleville, cette balade vous permettra de découvrir un patrimoine riche. Arrêtez vous quelques instants, le temps d’un coup d’œil sur l’Anse Saint-Martin, où la mer nous offre parfois une palette de couleurs allant du bleu turquoise au bleu nuit. Partez de l'église de Saint Paterne. A la sortie du parking, prenez la D245 vers la gauche, puis après 50m, suivez la descente qui mène tout droit (Digulleville). Coordonnées GPS : 49°41'46.1"N, 1°51'18.6"W Suivez le circuit selon le sens inverse des aiguilles d'une montre. Le balisage est de couleur jaune. Le long du littoral, suivez le balisage du GR223 (rouge et blanc). Vous retrouverez ce circuit dans le topoguide "La Hague - Des Pieux et autour de Martinvast "de l'Office de tourisme du Cotentin.   Départ accessible en bus avec le réseau Cap Cotentin les week-ends et pendant les vacances scolaires aux arrêts "Omonville-la-Rogue - Maison des Jeunes" et "Omonville-la-Rogue - Hameau Les Mesnils" (possibilité de rejoindre le circuit en cours) - (plus d'infos sur capcotentin.fr)]]></desc><author><name><![CDATA[Cotentin unique]]></name></author><link href="http://fichier0.cirkwi.com/image/photo/circuit/1300x1300/60167/fr/0.jpg"><text><![CDATA[|]]></text></link><link href="http://fichier0.cirkwi.com/image/photo/circuit/1300x1300/60167/fr/1.jpg"><text><![CDATA[|© Cap Cotentin]]></text></link><link href="http://fichier0.cirkwi.com/image/photo/circuit/1300x1300/60167/fr/2.jpg"><text><![CDATA[|© Cap Cotentin]]></text></link><time>2026-08-17T08:54:54Z</time></metadata><trk><trkseg><trkpt lat="49.69603" lon="-1.85419"><ele>98.19</ele></trkpt><trkpt lat="49.69608" lon="-1.8542"><ele>97.91</ele></trkpt><trkpt lat="49.69623" lon="-1.8542"><ele>96.05</ele></trkpt><trkpt lat="49.69629" lon="-1.85421"><ele>95.84</ele></trkpt><trkpt lat="49.69638" lon="-1.85424"><ele>94.63</ele></trkpt><trkpt lat="49.69646" lon="-1.85427"><ele>94.25</ele></trkpt><trkpt lat="49.69659" lon="-1.85432"><ele>91.73</ele></trkpt><trkpt lat="49.69664" lon="-1.85434"><ele>92.03</ele></trkpt><trkpt lat="49.6967" lon="-1.85436"><ele>89.84</ele></trkpt><trkpt lat="49.6968" lon="-1.85445"><ele>89.48</ele></trkpt><trkpt lat="49.69688" lon="-1.85451"><ele>89.14</ele></trkpt><trkpt lat="49.69697" lon="-1.85456"><ele>87.86</ele></trkpt><trkpt lat="49.69748" lon="-1.85483"><ele>84.15</ele></trkpt><trkpt lat="49.69816" lon="-1.85519"><ele>77.82</ele></trkpt><trkpt lat="49.69823" lon="-1.85523"><ele>76.86</ele></trkpt><trkpt lat="49.69833" lon="-1.85528"><ele>76.18</ele></trkpt><trkpt lat="49.69864" lon="-1.85543"><ele>73.62</ele></trkpt><trkpt lat="49.69867" lon="-1.85545"><ele>74.14</ele></trkpt><trkpt lat="49.69889" lon="-1.85559"><ele>71.98</ele></trkpt><trkpt lat="49.69905" lon="-1.85572"><ele>71.43</ele></trkpt><trkpt lat="49.69917" lon="-1.85577"><ele>70.54</ele></trkpt><trkpt lat="49.69927" lon="-1.85585"><ele>70.13</ele></trkpt><trkpt lat="49.6993" lon="-1.85587"><ele>69.72</ele></trkpt><trkpt lat="49.69954" lon="-1.856"><ele>68.82</ele></trkpt><trkpt lat="49.69959" lon="-1.85602"><ele>68.86</ele></trkpt><trkpt lat="49.69962" lon="-1.85603"><ele>68.54</ele></trkpt><trkpt lat="49.69982" lon="-1.85613"><ele>67.92</ele></trkpt><trkpt lat="49.69986" lon="-1.85613"><ele>67.87</ele></trkpt><trkpt lat="49.69994" lon="-1.85613"><ele>67.52</ele></trkpt><trkpt lat="49.70006" lon="-1.85614"><ele>68.61</ele></trkpt><trkpt lat="49.70008" lon="-1.85615"><ele>68.61</ele></trkpt><trkpt lat="49.7001" lon="-1.85616"><ele>68.32</ele></trkpt><trkpt lat="49.70022" lon="-1.85636"><ele>69.72</ele></trkpt><trkpt lat="49.70027" lon="-1.85643"><ele>69.87</ele></trkpt><trkpt lat="49.70035" lon="-1.85652"><ele>70.27</ele></trkpt><trkpt lat="49.70038" lon="-1.85656"><ele>70.27</ele></trkpt><trkpt lat="49.70051" lon="-1.85662"><ele>70.39</ele></trkpt><trkpt lat="49.70069" lon="-1.85657"><ele>71.33</ele></trkpt><trkpt lat="49.70075" lon="-1.85656"><ele>71.74</ele></trkpt><trkpt lat="49.70087" lon="-1.85653"><ele>72.36</ele></trkpt><trkpt lat="49.70095" lon="-1.85652"><ele>72.77</ele></trkpt><trkpt lat="49.70105" lon="-1.85651"><ele>73.2</ele></trkpt><trkpt lat="49.70122" lon="-1.85649"><ele>74.05</ele></trkpt><trkpt lat="49.70139" lon="-1.85648"><ele>74.62</ele></trkpt><trkpt lat="49.70152" lon="-1.85645"><ele>75.47</ele></trkpt><trkpt lat="49.70158" lon="-1.85642"><ele>75.71</ele></trkpt><trkpt lat="49.70173" lon="-1.85628"><ele>77.34</ele></trkpt><trkpt lat="49.7018" lon="-1.85621"><ele>77.89</ele></trkpt><trkpt lat="49.70188" lon="-1.85611"><ele>78.95</ele></trkpt><trkpt lat="49.70197" lon="-1.85599"><ele>79.53</ele></trkpt><trkpt lat="49.70201" lon="-1.85593"><ele>79.62</ele></trkpt><trkpt lat="49.70203" lon="-1.8559"><ele>79.64</ele></trkpt><trkpt lat="49.70216" lon="-1.85576"><ele>78.71</ele></trkpt><trkpt lat="49.70223" lon="-1.85568"><ele>78.38</ele></trkpt><trkpt lat="49.7023" lon="-1.8556"><ele>77.79</ele></trkpt><trkpt lat="49.70276" lon="-1.85515"><ele>74.9</ele></trkpt><trkpt lat="49.70278" lon="-1.85513"><ele>74.89</ele></trkpt><trkpt lat="49.70283" lon="-1.85509"><ele>74.55</ele></trkpt><trkpt lat="49.70284" lon="-1.85503"><ele>74.18</ele></trkpt><trkpt lat="49.70287" lon="-1.85491"><ele>73.71</ele></trkpt><trkpt lat="49.70295" lon="-1.8549"><ele>73.4</ele></trkpt><trkpt lat="49.70311" lon="-1.85479"><ele>74.19</ele></trkpt><trkpt lat="49.70328" lon="-1.85463"><ele>73.99</ele></trkpt><trkpt lat="49.70334" lon="-1.85458"><ele>73.8</ele></trkpt><trkpt lat="49.70344" lon="-1.8545"><ele>73.8</ele></trkpt><trkpt lat="49.70355" lon="-1.85442"><ele>73.9</ele></trkpt><trkpt lat="49.7036" lon="-1.85438"><ele>73.9</ele></trkpt><trkpt lat="49.70362" lon="-1.85437"><ele>73.99</ele></trkpt><trkpt lat="49.70377" lon="-1.8543"><ele>74.45</ele></trkpt><trkpt lat="49.70395" lon="-1.85423"><ele>74.15</ele></trkpt><trkpt lat="49.70404" lon="-1.8542"><ele>73.63</ele></trkpt><trkpt lat="49.70412" lon="-1.85417"><ele>73.31</ele></trkpt><trkpt lat="49.70415" lon="-1.85407"><ele>72.82</ele></trkpt><trkpt lat="49.70417" lon="-1.85398"><ele>71.73</ele></trkpt><trkpt lat="49.70424" lon="-1.85386"><ele>70.84</ele></trkpt><trkpt lat="49.70429" lon="-1.8538"><ele>70.2</ele></trkpt><trkpt lat="49.70433" lon="-1.85375"><ele>69.87</ele></trkpt><trkpt lat="49.70451" lon="-1.85362"><ele>68.6</ele></trkpt><trkpt lat="49.70467" lon="-1.8535"><ele>67.09</ele></trkpt><trkpt lat="49.70469" lon="-1.85349"><ele>67.1</ele></trkpt><trkpt lat="49.70482" lon="-1.85339"><ele>66.09</ele></trkpt><trkpt lat="49.70483" lon="-1.85339"><ele>66.09</ele></trkpt><trkpt lat="49.70487" lon="-1.85336"><ele>65.44</ele></trkpt><trkpt lat="49.705" lon="-1.85329"><ele>62.78</ele></trkpt><trkpt lat="49.7051" lon="-1.85323"><ele>61.57</ele></trkpt><trkpt lat="49.70517" lon="-1.85319"><ele>60.5</ele></trkpt><trkpt lat="49.70519" lon="-1.85317"><ele>60.12</ele></trkpt><trkpt lat="49.70533" lon="-1.85308"><ele>58.37</ele></trkpt><trkpt lat="49.70539" lon="-1.85305"><ele>58.35</ele></trkpt><trkpt lat="49.70544" lon="-1.85302"><ele>57.53</ele></trkpt><trkpt lat="49.70548" lon="-1.853"><ele>57.44</ele></trkpt><trkpt lat="49.7055" lon="-1.85299"><ele>56.68</ele></trkpt><trkpt lat="49.70561" lon="-1.85293"><ele>55.74</ele></trkpt><trkpt lat="49.70567" lon="-1.85289"><ele>54.82</ele></trkpt><trkpt lat="49.70572" lon="-1.85287"><ele>54.8</ele></trkpt><trkpt lat="49.70584" lon="-1.8528"><ele>53.52</ele></trkpt><trkpt lat="49.70586" lon="-1.85279"><ele>53.52</ele></trkpt><trkpt lat="49.70601" lon="-1.85271"><ele>52.6</ele></trkpt><trkpt lat="49.70606" lon="-1.85269"><ele>52.16</ele></trkpt><trkpt lat="49.70618" lon="-1.85262"><ele>51.76</ele></trkpt><trkpt lat="49.70635" lon="-1.85253"><ele>50.93</ele></trkpt><trkpt lat="49.70636" lon="-1.85253"><ele>50.57</ele></trkpt><trkpt lat="49.70652" lon="-1.85244"><ele>50.26</ele></trkpt><trkpt lat="49.70662" lon="-1.85238"><ele>49.61</ele></trkpt><trkpt lat="49.70669" lon="-1.85234"><ele>49.54</ele></trkpt><trkpt lat="49.70673" lon="-1.85231"><ele>49.63</ele></trkpt><trkpt lat="49.70686" lon="-1.85225"><ele>49.08</ele></trkpt><trkpt lat="49.70704" lon="-1.85217"><ele>49.41</ele></trkpt><trkpt lat="49.70727" lon="-1.85208"><ele>49.35</ele></trkpt><trkpt lat="49.70738" lon="-1.85203"><ele>49.44</ele></trkpt><trkpt lat="49.70754" lon="-1.85198"><ele>50.58</ele></trkpt><trkpt lat="49.70759" lon="-1.85197"><ele>50.82</ele></trkpt><trkpt lat="49.7079" lon="-1.85197"><ele>51.53</ele></trkpt><trkpt lat="49.70806" lon="-1.85197"><ele>51.54</ele></trkpt><trkpt lat="49.70808" lon="-1.85197"><ele>51.53</ele></trkpt><trkpt lat="49.70825" lon="-1.85198"><ele>51.45</ele></trkpt><trkpt lat="49.70826" lon="-1.85198"><ele>51.45</ele></trkpt><trkpt lat="49.70832" lon="-1.85199"><ele>51.37</ele></trkpt><trkpt lat="49.70844" lon="-1.852"><ele>50.96</ele></trkpt><trkpt lat="49.70855" lon="-1.85201"><ele>50.32</ele></trkpt><trkpt lat="49.70862" lon="-1.852"><ele>50.07</ele></trkpt><trkpt lat="49.70874" lon="-1.85199"><ele>49.27</ele></trkpt><trkpt lat="49.7088" lon="-1.85199"><ele>49.15</ele></trkpt><trkpt lat="49.70881" lon="-1.85199"><ele>48.87</ele></trkpt><trkpt lat="49.70888" lon="-1.85199"><ele>48.54</ele></trkpt><trkpt lat="49.70898" lon="-1.85199"><ele>46.89</ele></trkpt><trkpt lat="49.70916" lon="-1.852"><ele>43.92</ele></trkpt><trkpt lat="49.70918" lon="-1.852"><ele>43.92</ele></trkpt><trkpt lat="49.70924" lon="-1.852"><ele>42.71</ele></trkpt><trkpt lat="49.70934" lon="-1.85196"><ele>40.92</ele></trkpt><trkpt lat="49.70949" lon="-1.85191"><ele>37.91</ele></trkpt><trkpt lat="49.70958" lon="-1.85187"><ele>36.8</ele></trkpt><trkpt lat="49.70963" lon="-1.85185"><ele>36.12</ele></trkpt><trkpt lat="49.70971" lon="-1.85183"><ele>35.12</ele></trkpt><trkpt lat="49.7098" lon="-1.85182"><ele>34.46</ele></trkpt><trkpt lat="49.70982" lon="-1.85182"><ele>34.46</ele></trkpt><trkpt lat="49.70986" lon="-1.85182"><ele>34.02</ele></trkpt><trkpt lat="49.70995" lon="-1.85182"><ele>32.64</ele></trkpt><trkpt lat="49.71004" lon="-1.85184"><ele>31.74</ele></trkpt><trkpt lat="49.71023" lon="-1.85188"><ele>28.92</ele></trkpt><trkpt lat="49.71026" lon="-1.85188"><ele>28.21</ele></trkpt><trkpt lat="49.71029" lon="-1.85188"><ele>28.21</ele></trkpt><trkpt lat="49.71046" lon="-1.85183"><ele>24.46</ele></trkpt><trkpt lat="49.71062" lon="-1.85175"><ele>20.56</ele></trkpt><trkpt lat="49.71068" lon="-1.85172"><ele>19.58</ele></trkpt><trkpt lat="49.71072" lon="-1.8517"><ele>18.99</ele></trkpt><trkpt lat="49.71075" lon="-1.85169"><ele>18.22</ele></trkpt><trkpt lat="49.71092" lon="-1.8516"><ele>16.19</ele></trkpt><trkpt lat="49.71098" lon="-1.85156"><ele>15.76</ele></trkpt><trkpt lat="49.71109" lon="-1.85151"><ele>14.54</ele></trkpt><trkpt lat="49.71126" lon="-1.85144"><ele>13.2</ele></trkpt><trkpt lat="49.7114" lon="-1.85138"><ele>12.23</ele></trkpt><trkpt lat="49.71147" lon="-1.85135"><ele>11.98</ele></trkpt><trkpt lat="49.71155" lon="-1.8513"><ele>11.1</ele></trkpt><trkpt lat="49.7116" lon="-1.8513"><ele>10.82</ele></trkpt><trkpt lat="49.71167" lon="-1.85126"><ele>10.6</ele></trkpt><trkpt lat="49.7117" lon="-1.85123"><ele>10.36</ele></trkpt><trkpt lat="49.71178" lon="-1.85116"><ele>9.98</ele></trkpt><trkpt lat="49.71194" lon="-1.85101"><ele>8.93</ele></trkpt><trkpt lat="49.71195" lon="-1.85101"><ele>8.93</ele></trkpt><trkpt lat="49.71197" lon="-1.85101"><ele>8.93</ele></trkpt><trkpt lat="49.712" lon="-1.85106"><ele>8.94</ele></trkpt><trkpt lat="49.71206" lon="-1.85124"><ele>9.04</ele></trkpt><trkpt lat="49.7121" lon="-1.85129"><ele>9.04</ele></trkpt><trkpt lat="49.71213" lon="-1.8513"><ele>8.97</ele></trkpt><trkpt lat="49.71216" lon="-1.85127"><ele>8.39</ele></trkpt><trkpt lat="49.7122" lon="-1.85122"><ele>8.17</ele></trkpt><trkpt lat="49.71233" lon="-1.85104"><ele>7.55</ele></trkpt><trkpt lat="49.71237" lon="-1.85104"><ele>7.39</ele></trkpt><trkpt lat="49.71246" lon="-1.85112"><ele>7.45</ele></trkpt><trkpt lat="49.7125" lon="-1.85112"><ele>7.34</ele></trkpt><trkpt lat="49.71257" lon="-1.85098"><ele>6.89</ele></trkpt><trkpt lat="49.71261" lon="-1.85091"><ele>6.76</ele></trkpt><trkpt lat="49.7127" lon="-1.85071"><ele>6.08</ele></trkpt><trkpt lat="49.71272" lon="-1.85069"><ele>5.93</ele></trkpt><trkpt lat="49.71287" lon="-1.85041"><ele>5.49</ele></trkpt><trkpt lat="49.71298" lon="-1.85031"><ele>6.31</ele></trkpt><trkpt lat="49.71294" lon="-1.85023"><ele>6.19</ele></trkpt><trkpt lat="49.71298" lon="-1.85031"><ele>6.31</ele></trkpt><trkpt lat="49.71312" lon="-1.85068"><ele>6.36</ele></trkpt><trkpt lat="49.7132" lon="-1.85083"><ele>6.34</ele></trkpt><trkpt lat="49.71329" lon="-1.85098"><ele>6.2</ele></trkpt><trkpt lat="49.71332" lon="-1.85104"><ele>6.18</ele></trkpt><trkpt lat="49.71339" lon="-1.85113"><ele>6.15</ele></trkpt><trkpt lat="49.7134" lon="-1.85114"><ele>5.92</ele></trkpt><trkpt lat="49.71363" lon="-1.85144"><ele>6.16</ele></trkpt><trkpt lat="49.7137" lon="-1.85152"><ele>6.12</ele></trkpt><trkpt lat="49.71419" lon="-1.852"><ele>5.94</ele></trkpt><trkpt lat="49.71523" lon="-1.85268"><ele>5.98</ele></trkpt><trkpt lat="49.71583" lon="-1.85252"><ele>5.4</ele></trkpt><trkpt lat="49.71608" lon="-1.85197"><ele>5.66</ele></trkpt><trkpt lat="49.71652" lon="-1.85266"><ele>6.31</ele></trkpt><trkpt lat="49.71593" lon="-1.85388"><ele>6.94</ele></trkpt><trkpt lat="49.71584" lon="-1.85528"><ele>5.35</ele></trkpt><trkpt lat="49.71603" lon="-1.85643"><ele>5.69</ele></trkpt><trkpt lat="49.71632" lon="-1.8573"><ele>4.99</ele></trkpt><trkpt lat="49.71647" lon="-1.85792"><ele>7.27</ele></trkpt><trkpt lat="49.71651" lon="-1.85826"><ele>8.38</ele></trkpt><trkpt lat="49.71612" lon="-1.85864"><ele>9.58</ele></trkpt><trkpt lat="49.71595" lon="-1.85878"><ele>7.71</ele></trkpt><trkpt lat="49.71525" lon="-1.85852"><ele>5.63</ele></trkpt><trkpt lat="49.71482" lon="-1.85875"><ele>5.61</ele></trkpt><trkpt lat="49.71444" lon="-1.85946"><ele>6.89</ele></trkpt><trkpt lat="49.71441" lon="-1.85983"><ele>6.28</ele></trkpt><trkpt lat="49.71462" lon="-1.8608"><ele>6.46</ele></trkpt><trkpt lat="49.71465" lon="-1.86097"><ele>7.03</ele></trkpt><trkpt lat="49.71487" lon="-1.86182"><ele>5.54</ele></trkpt><trkpt lat="49.71475" lon="-1.86218"><ele>5.51</ele></trkpt><trkpt lat="49.71441" lon="-1.86268"><ele>5.64</ele></trkpt><trkpt lat="49.71414" lon="-1.86273"><ele>5.56</ele></trkpt><trkpt lat="49.71381" lon="-1.86294"><ele>5.22</ele></trkpt><trkpt lat="49.71366" lon="-1.86298"><ele>5.15</ele></trkpt><trkpt lat="49.71332" lon="-1.86363"><ele>4.3</ele></trkpt><trkpt lat="49.71304" lon="-1.86513"><ele>4.17</ele></trkpt><trkpt lat="49.71299" lon="-1.86528"><ele>4.26</ele></trkpt><trkpt lat="49.71292" lon="-1.86525"><ele>4.67</ele></trkpt><trkpt lat="49.71227" lon="-1.8658"><ele>4.69</ele></trkpt><trkpt lat="49.71189" lon="-1.86639"><ele>4.59</ele></trkpt><trkpt lat="49.71163" lon="-1.8669"><ele>4.73</ele></trkpt><trkpt lat="49.7112" lon="-1.86719"><ele>4.77</ele></trkpt><trkpt lat="49.71095" lon="-1.86754"><ele>4.96</ele></trkpt><trkpt lat="49.71058" lon="-1.86826"><ele>4.9</ele></trkpt><trkpt lat="49.71035" lon="-1.86853"><ele>5.01</ele></trkpt><trkpt lat="49.71026" lon="-1.86873"><ele>5</ele></trkpt><trkpt lat="49.71002" lon="-1.86877"><ele>4.78</ele></trkpt><trkpt lat="49.70951" lon="-1.8695"><ele>4.94</ele></trkpt><trkpt lat="49.70906" lon="-1.87043"><ele>4.86</ele></trkpt><trkpt lat="49.70812" lon="-1.8715"><ele>5.53</ele></trkpt><trkpt lat="49.70759" lon="-1.87079"><ele>7.21</ele></trkpt><trkpt lat="49.70655" lon="-1.87016"><ele>16.07</ele></trkpt><trkpt lat="49.70595" lon="-1.8715"><ele>16.5</ele></trkpt><trkpt lat="49.7056" lon="-1.87238"><ele>13</ele></trkpt><trkpt lat="49.70533" lon="-1.87253"><ele>13.7</ele></trkpt><trkpt lat="49.70532" lon="-1.8725"><ele>14.41</ele></trkpt><trkpt lat="49.70528" lon="-1.87252"><ele>14.44</ele></trkpt><trkpt lat="49.70485" lon="-1.87275"><ele>15.46</ele></trkpt><trkpt lat="49.70469" lon="-1.87284"><ele>14.85</ele></trkpt><trkpt lat="49.70461" lon="-1.87287"><ele>14.83</ele></trkpt><trkpt lat="49.70453" lon="-1.8729"><ele>16.07</ele></trkpt><trkpt lat="49.70446" lon="-1.87292"><ele>15.48</ele></trkpt><trkpt lat="49.70436" lon="-1.87295"><ele>16.6</ele></trkpt><trkpt lat="49.70423" lon="-1.873"><ele>14.09</ele></trkpt><trkpt lat="49.70407" lon="-1.87314"><ele>13.76</ele></trkpt><trkpt lat="49.70397" lon="-1.87327"><ele>13.37</ele></trkpt><trkpt lat="49.70376" lon="-1.87356"><ele>14.06</ele></trkpt><trkpt lat="49.70368" lon="-1.87367"><ele>15.12</ele></trkpt><trkpt lat="49.70364" lon="-1.87373"><ele>12.71</ele></trkpt><trkpt lat="49.7036" lon="-1.87379"><ele>12.25</ele></trkpt><trkpt lat="49.70356" lon="-1.87386"><ele>11.88</ele></trkpt><trkpt lat="49.70352" lon="-1.87382"><ele>12.78</ele></trkpt><trkpt lat="49.70354" lon="-1.87376"><ele>13.26</ele></trkpt><trkpt lat="49.70357" lon="-1.87362"><ele>14.6</ele></trkpt><trkpt lat="49.70358" lon="-1.87356"><ele>14.81</ele></trkpt><trkpt lat="49.70366" lon="-1.87315"><ele>18.87</ele></trkpt><trkpt lat="49.70369" lon="-1.87303"><ele>21.1</ele></trkpt><trkpt lat="49.70375" lon="-1.87278"><ele>22.77</ele></trkpt><trkpt lat="49.7038" lon="-1.87263"><ele>24.56</ele></trkpt><trkpt lat="49.70386" lon="-1.87251"><ele>26.68</ele></trkpt><trkpt lat="49.70389" lon="-1.87246"><ele>26.54</ele></trkpt><trkpt lat="49.70393" lon="-1.87231"><ele>28.73</ele></trkpt><trkpt lat="49.70397" lon="-1.87215"><ele>30.11</ele></trkpt><trkpt lat="49.70397" lon="-1.87211"><ele>30.44</ele></trkpt><trkpt lat="49.70403" lon="-1.87179"><ele>33.73</ele></trkpt><trkpt lat="49.70412" lon="-1.87143"><ele>38.58</ele></trkpt><trkpt lat="49.70413" lon="-1.87138"><ele>38.44</ele></trkpt><trkpt lat="49.70423" lon="-1.87115"><ele>41.16</ele></trkpt><trkpt lat="49.70428" lon="-1.87105"><ele>42.13</ele></trkpt><trkpt lat="49.70429" lon="-1.87101"><ele>42.8</ele></trkpt><trkpt lat="49.70431" lon="-1.87094"><ele>43.22</ele></trkpt><trkpt lat="49.70432" lon="-1.87093"><ele>43.77</ele></trkpt><trkpt lat="49.7043" lon="-1.87088"><ele>44.27</ele></trkpt><trkpt lat="49.70426" lon="-1.87086"><ele>44.88</ele></trkpt><trkpt lat="49.70425" lon="-1.87086"><ele>45.76</ele></trkpt><trkpt lat="49.70415" lon="-1.87085"><ele>47.19</ele></trkpt><trkpt lat="49.70412" lon="-1.8708"><ele>48.36</ele></trkpt><trkpt lat="49.70412" lon="-1.87074"><ele>48.71</ele></trkpt><trkpt lat="49.70411" lon="-1.87052"><ele>51.2</ele></trkpt><trkpt lat="49.70411" lon="-1.87046"><ele>52.33</ele></trkpt><trkpt lat="49.70411" lon="-1.87039"><ele>52.67</ele></trkpt><trkpt lat="49.70411" lon="-1.8703"><ele>53.12</ele></trkpt><trkpt lat="49.70408" lon="-1.86999"><ele>54.19</ele></trkpt><trkpt lat="49.70402" lon="-1.86974"><ele>56.21</ele></trkpt><trkpt lat="49.70392" lon="-1.8694"><ele>57.75</ele></trkpt><trkpt lat="49.70392" lon="-1.86938"><ele>57.93</ele></trkpt><trkpt lat="49.70392" lon="-1.86924"><ele>59.12</ele></trkpt><trkpt lat="49.70389" lon="-1.86904"><ele>60.92</ele></trkpt><trkpt lat="49.70382" lon="-1.86871"><ele>62.9</ele></trkpt><trkpt lat="49.7038" lon="-1.86861"><ele>62.64</ele></trkpt><trkpt lat="49.70379" lon="-1.86859"><ele>62.64</ele></trkpt><trkpt lat="49.70373" lon="-1.86834"><ele>63.36</ele></trkpt><trkpt lat="49.70367" lon="-1.86814"><ele>63.22</ele></trkpt><trkpt lat="49.70362" lon="-1.86792"><ele>63.19</ele></trkpt><trkpt lat="49.70359" lon="-1.86786"><ele>63.39</ele></trkpt><trkpt lat="49.70358" lon="-1.86783"><ele>63.17</ele></trkpt><trkpt lat="49.70352" lon="-1.86767"><ele>63.41</ele></trkpt><trkpt lat="49.70349" lon="-1.86759"><ele>63.23</ele></trkpt><trkpt lat="49.70341" lon="-1.86729"><ele>63.22</ele></trkpt><trkpt lat="49.70332" lon="-1.86669"><ele>62.8</ele></trkpt><trkpt lat="49.7033" lon="-1.86647"><ele>62.73</ele></trkpt><trkpt lat="49.7033" lon="-1.86632"><ele>62.81</ele></trkpt><trkpt lat="49.70329" lon="-1.86624"><ele>62.8</ele></trkpt><trkpt lat="49.70326" lon="-1.8657"><ele>61.81</ele></trkpt><trkpt lat="49.70324" lon="-1.86558"><ele>61.62</ele></trkpt><trkpt lat="49.70322" lon="-1.86545"><ele>61.57</ele></trkpt><trkpt lat="49.70321" lon="-1.86542"><ele>61.51</ele></trkpt><trkpt lat="49.70317" lon="-1.86529"><ele>61.62</ele></trkpt><trkpt lat="49.7031" lon="-1.86507"><ele>61.51</ele></trkpt><trkpt lat="49.703" lon="-1.86486"><ele>61.9</ele></trkpt><trkpt lat="49.70293" lon="-1.86471"><ele>61.4</ele></trkpt><trkpt lat="49.70289" lon="-1.86461"><ele>61.49</ele></trkpt><trkpt lat="49.70281" lon="-1.8645"><ele>61.4</ele></trkpt><trkpt lat="49.70277" lon="-1.86443"><ele>61.66</ele></trkpt><trkpt lat="49.70262" lon="-1.86426"><ele>62.43</ele></trkpt><trkpt lat="49.70239" lon="-1.86394"><ele>59.25</ele></trkpt><trkpt lat="49.70231" lon="-1.86379"><ele>58.39</ele></trkpt><trkpt lat="49.70225" lon="-1.86361"><ele>58.69</ele></trkpt><trkpt lat="49.70211" lon="-1.8628"><ele>56.82</ele></trkpt><trkpt lat="49.70207" lon="-1.86256"><ele>55.96</ele></trkpt><trkpt lat="49.70207" lon="-1.86253"><ele>55.96</ele></trkpt><trkpt lat="49.70206" lon="-1.86241"><ele>55.82</ele></trkpt><trkpt lat="49.70202" lon="-1.86238"><ele>55.92</ele></trkpt><trkpt lat="49.70198" lon="-1.86224"><ele>55.94</ele></trkpt><trkpt lat="49.70194" lon="-1.86207"><ele>56.1</ele></trkpt><trkpt lat="49.70193" lon="-1.86204"><ele>56.48</ele></trkpt><trkpt lat="49.70189" lon="-1.8618"><ele>56.74</ele></trkpt><trkpt lat="49.70187" lon="-1.86172"><ele>57.1</ele></trkpt><trkpt lat="49.70183" lon="-1.86151"><ele>57.61</ele></trkpt><trkpt lat="49.70179" lon="-1.86151"><ele>58.33</ele></trkpt><trkpt lat="49.70161" lon="-1.8615"><ele>59.5</ele></trkpt><trkpt lat="49.70142" lon="-1.86149"><ele>59.56</ele></trkpt><trkpt lat="49.70137" lon="-1.86148"><ele>59.9</ele></trkpt><trkpt lat="49.70121" lon="-1.86145"><ele>60.09</ele></trkpt><trkpt lat="49.70117" lon="-1.86144"><ele>60.17</ele></trkpt><trkpt lat="49.70107" lon="-1.8614"><ele>60.58</ele></trkpt><trkpt lat="49.70089" lon="-1.86133"><ele>61.72</ele></trkpt><trkpt lat="49.70083" lon="-1.8613"><ele>61.18</ele></trkpt><trkpt lat="49.70071" lon="-1.86129"><ele>60.46</ele></trkpt><trkpt lat="49.70057" lon="-1.8613"><ele>59.01</ele></trkpt><trkpt lat="49.70054" lon="-1.86129"><ele>58.47</ele></trkpt><trkpt lat="49.70048" lon="-1.86128"><ele>57.8</ele></trkpt><trkpt lat="49.70047" lon="-1.86128"><ele>57.25</ele></trkpt><trkpt lat="49.7004" lon="-1.86124"><ele>57.03</ele></trkpt><trkpt lat="49.70036" lon="-1.86119"><ele>56.77</ele></trkpt><trkpt lat="49.70023" lon="-1.86103"><ele>55.82</ele></trkpt><trkpt lat="49.70006" lon="-1.86072"><ele>56.3</ele></trkpt><trkpt lat="49.69989" lon="-1.86054"><ele>57.09</ele></trkpt><trkpt lat="49.69979" lon="-1.86043"><ele>58</ele></trkpt><trkpt lat="49.69965" lon="-1.86027"><ele>60.03</ele></trkpt><trkpt lat="49.69958" lon="-1.8602"><ele>59.87</ele></trkpt><trkpt lat="49.69946" lon="-1.86007"><ele>60.89</ele></trkpt><trkpt lat="49.69945" lon="-1.86005"><ele>60.89</ele></trkpt><trkpt lat="49.69935" lon="-1.85996"><ele>62.39</ele></trkpt><trkpt lat="49.69925" lon="-1.85987"><ele>62.84</ele></trkpt><trkpt lat="49.69903" lon="-1.8597"><ele>64.17</ele></trkpt><trkpt lat="49.69887" lon="-1.85958"><ele>64.48</ele></trkpt><trkpt lat="49.69886" lon="-1.85957"><ele>64.48</ele></trkpt><trkpt lat="49.69876" lon="-1.85952"><ele>64.12</ele></trkpt><trkpt lat="49.69863" lon="-1.85934"><ele>63</ele></trkpt><trkpt lat="49.69861" lon="-1.85931"><ele>62.87</ele></trkpt><trkpt lat="49.69856" lon="-1.85923"><ele>62.95</ele></trkpt><trkpt lat="49.69853" lon="-1.85918"><ele>63.15</ele></trkpt><trkpt lat="49.69844" lon="-1.85908"><ele>64.08</ele></trkpt><trkpt lat="49.69843" lon="-1.85907"><ele>64.08</ele></trkpt><trkpt lat="49.69837" lon="-1.85898"><ele>64.98</ele></trkpt><trkpt lat="49.69819" lon="-1.85866"><ele>67.18</ele></trkpt><trkpt lat="49.69812" lon="-1.85855"><ele>68.14</ele></trkpt><trkpt lat="49.69806" lon="-1.85846"><ele>68.76</ele></trkpt><trkpt lat="49.69806" lon="-1.85845"><ele>68.76</ele></trkpt><trkpt lat="49.698" lon="-1.85836"><ele>70.1</ele></trkpt><trkpt lat="49.69783" lon="-1.85804"><ele>72.38</ele></trkpt><trkpt lat="49.69778" lon="-1.85797"><ele>72.62</ele></trkpt><trkpt lat="49.69748" lon="-1.85738"><ele>76.12</ele></trkpt><trkpt lat="49.69737" lon="-1.85716"><ele>78.18</ele></trkpt><trkpt lat="49.69735" lon="-1.85713"><ele>78.18</ele></trkpt><trkpt lat="49.69731" lon="-1.85707"><ele>78.5</ele></trkpt><trkpt lat="49.69727" lon="-1.857"><ele>78.7</ele></trkpt><trkpt lat="49.69692" lon="-1.85641"><ele>83.3</ele></trkpt><trkpt lat="49.6969" lon="-1.85632"><ele>83.8</ele></trkpt><trkpt lat="49.69686" lon="-1.85621"><ele>84.63</ele></trkpt><trkpt lat="49.69683" lon="-1.85607"><ele>85.27</ele></trkpt><trkpt lat="49.69678" lon="-1.85607"><ele>86.06</ele></trkpt><trkpt lat="49.69676" lon="-1.85605"><ele>86.06</ele></trkpt><trkpt lat="49.69675" lon="-1.85604"><ele>86.33</ele></trkpt><trkpt lat="49.69674" lon="-1.85602"><ele>87.68</ele></trkpt><trkpt lat="49.69671" lon="-1.85596"><ele>87.56</ele></trkpt><trkpt lat="49.69662" lon="-1.85582"><ele>89.58</ele></trkpt><trkpt lat="49.69656" lon="-1.85573"><ele>91.93</ele></trkpt><trkpt lat="49.69649" lon="-1.85564"><ele>92.81</ele></trkpt><trkpt lat="49.69636" lon="-1.85547"><ele>95.74</ele></trkpt><trkpt lat="49.69635" lon="-1.85546"><ele>97.41</ele></trkpt><trkpt lat="49.69624" lon="-1.85531"><ele>97.92</ele></trkpt><trkpt lat="49.69622" lon="-1.85527"><ele>98.37</ele></trkpt><trkpt lat="49.69619" lon="-1.85522"><ele>98.42</ele></trkpt><trkpt lat="49.69617" lon="-1.8552"><ele>98.67</ele></trkpt><trkpt lat="49.69613" lon="-1.85519"><ele>98.82</ele></trkpt><trkpt lat="49.69606" lon="-1.8552"><ele>98.84</ele></trkpt><trkpt lat="49.69598" lon="-1.85521"><ele>98.6</ele></trkpt><trkpt lat="49.69595" lon="-1.8552"><ele>98.29</ele></trkpt><trkpt lat="49.69588" lon="-1.85515"><ele>97.42</ele></trkpt><trkpt lat="49.69587" lon="-1.85521"><ele>97.32</ele></trkpt><trkpt lat="49.69582" lon="-1.85537"><ele>96.5</ele></trkpt><trkpt lat="49.69582" lon="-1.85539"><ele>96.5</ele></trkpt><trkpt lat="49.6958" lon="-1.85546"><ele>96.49</ele></trkpt><trkpt lat="49.69574" lon="-1.85559"><ele>93.95</ele></trkpt><trkpt lat="49.69573" lon="-1.8556"><ele>93.95</ele></trkpt><trkpt lat="49.69565" lon="-1.8558"><ele>90.38</ele></trkpt><trkpt lat="49.69556" lon="-1.85605"><ele>86.39</ele></trkpt><trkpt lat="49.69555" lon="-1.85606"><ele>86.39</ele></trkpt><trkpt lat="49.69551" lon="-1.85611"><ele>84.94</ele></trkpt><trkpt lat="49.6955" lon="-1.85612"><ele>84.94</ele></trkpt><trkpt lat="49.6955" lon="-1.85611"><ele>84.94</ele></trkpt><trkpt lat="49.69548" lon="-1.85612"><ele>83.9</ele></trkpt><trkpt lat="49.69538" lon="-1.85613"><ele>82.09</ele></trkpt><trkpt lat="49.6952" lon="-1.85609"><ele>79.51</ele></trkpt><trkpt lat="49.69504" lon="-1.85606"><ele>79.49</ele></trkpt><trkpt lat="49.69485" lon="-1.85602"><ele>78.1</ele></trkpt><trkpt lat="49.69478" lon="-1.85616"><ele>77.17</ele></trkpt><trkpt lat="49.69472" lon="-1.85626"><ele>76.29</ele></trkpt><trkpt lat="49.6947" lon="-1.8563"><ele>75.96</ele></trkpt><trkpt lat="49.69459" lon="-1.85644"><ele>74.38</ele></trkpt><trkpt lat="49.69432" lon="-1.85681"><ele>71.35</ele></trkpt><trkpt lat="49.69422" lon="-1.85694"><ele>70.47</ele></trkpt><trkpt lat="49.69419" lon="-1.857"><ele>69.96</ele></trkpt><trkpt lat="49.69406" lon="-1.85721"><ele>68.92</ele></trkpt><trkpt lat="49.69402" lon="-1.85729"><ele>68.59</ele></trkpt><trkpt lat="49.69391" lon="-1.8575"><ele>67.61</ele></trkpt><trkpt lat="49.6939" lon="-1.85752"><ele>67.57</ele></trkpt><trkpt lat="49.69386" lon="-1.85766"><ele>67.72</ele></trkpt><trkpt lat="49.69385" lon="-1.85771"><ele>67.13</ele></trkpt><trkpt lat="49.69381" lon="-1.85786"><ele>65.39</ele></trkpt><trkpt lat="49.6937" lon="-1.85809"><ele>64.1</ele></trkpt><trkpt lat="49.69365" lon="-1.85816"><ele>63.1</ele></trkpt><trkpt lat="49.69361" lon="-1.85816"><ele>63.1</ele></trkpt><trkpt lat="49.69357" lon="-1.85814"><ele>63.51</ele></trkpt><trkpt lat="49.69357" lon="-1.85824"><ele>62.36</ele></trkpt><trkpt lat="49.69356" lon="-1.85879"><ele>58.1</ele></trkpt><trkpt lat="49.69355" lon="-1.85888"><ele>57.6</ele></trkpt><trkpt lat="49.69355" lon="-1.85907"><ele>57.46</ele></trkpt><trkpt lat="49.69355" lon="-1.85935"><ele>57.25</ele></trkpt><trkpt lat="49.69355" lon="-1.85939"><ele>57.28</ele></trkpt><trkpt lat="49.69356" lon="-1.85961"><ele>57.88</ele></trkpt><trkpt lat="49.69356" lon="-1.85968"><ele>58.1</ele></trkpt><trkpt lat="49.6935" lon="-1.85965"><ele>58.17</ele></trkpt><trkpt lat="49.69356" lon="-1.85968"><ele>58.1</ele></trkpt><trkpt lat="49.69355" lon="-1.85973"><ele>58.21</ele></trkpt><trkpt lat="49.69361" lon="-1.85977"><ele>57.84</ele></trkpt><trkpt lat="49.69374" lon="-1.85984"><ele>57.58</ele></trkpt><trkpt lat="49.69401" lon="-1.85999"><ele>56.65</ele></trkpt><trkpt lat="49.69428" lon="-1.86013"><ele>55.62</ele></trkpt><trkpt lat="49.6943" lon="-1.86013"><ele>55.2</ele></trkpt><trkpt lat="49.69433" lon="-1.86014"><ele>55.2</ele></trkpt><trkpt lat="49.6943" lon="-1.86013"><ele>55.2</ele></trkpt><trkpt lat="49.69427" lon="-1.86025"><ele>55.72</ele></trkpt><trkpt lat="49.69425" lon="-1.86031"><ele>56.43</ele></trkpt><trkpt lat="49.69422" lon="-1.86038"><ele>55.96</ele></trkpt><trkpt lat="49.69414" lon="-1.86039"><ele>56.53</ele></trkpt><trkpt lat="49.69385" lon="-1.86058"><ele>59.48</ele></trkpt><trkpt lat="49.69381" lon="-1.86061"><ele>59.94</ele></trkpt><trkpt lat="49.69373" lon="-1.86068"><ele>61.26</ele></trkpt><trkpt lat="49.69368" lon="-1.86072"><ele>61.7</ele></trkpt><trkpt lat="49.69365" lon="-1.86074"><ele>61.84</ele></trkpt><trkpt lat="49.6936" lon="-1.86077"><ele>62.33</ele></trkpt><trkpt lat="49.69356" lon="-1.86079"><ele>62.61</ele></trkpt><trkpt lat="49.69348" lon="-1.86082"><ele>62.96</ele></trkpt><trkpt lat="49.69342" lon="-1.86084"><ele>63.09</ele></trkpt><trkpt lat="49.6933" lon="-1.86087"><ele>63.57</ele></trkpt><trkpt lat="49.69297" lon="-1.86094"><ele>64.8</ele></trkpt><trkpt lat="49.69277" lon="-1.86102"><ele>65.97</ele></trkpt><trkpt lat="49.69262" lon="-1.86108"><ele>66.61</ele></trkpt><trkpt lat="49.69232" lon="-1.86125"><ele>67.81</ele></trkpt><trkpt lat="49.69226" lon="-1.86129"><ele>68.6</ele></trkpt><trkpt lat="49.69221" lon="-1.86124"><ele>68.2</ele></trkpt><trkpt lat="49.69215" lon="-1.86129"><ele>68.59</ele></trkpt><trkpt lat="49.69187" lon="-1.86141"><ele>70.87</ele></trkpt><trkpt lat="49.69179" lon="-1.86145"><ele>70.99</ele></trkpt><trkpt lat="49.6917" lon="-1.8615"><ele>71.66</ele></trkpt><trkpt lat="49.69157" lon="-1.86158"><ele>73.09</ele></trkpt><trkpt lat="49.69153" lon="-1.86162"><ele>74.42</ele></trkpt><trkpt lat="49.69148" lon="-1.86177"><ele>74.18</ele></trkpt><trkpt lat="49.69146" lon="-1.86187"><ele>76.65</ele></trkpt><trkpt lat="49.69144" lon="-1.86201"><ele>75.96</ele></trkpt><trkpt lat="49.69142" lon="-1.86213"><ele>75.97</ele></trkpt><trkpt lat="49.69137" lon="-1.86241"><ele>77.91</ele></trkpt><trkpt lat="49.69131" lon="-1.8626"><ele>78.41</ele></trkpt><trkpt lat="49.69125" lon="-1.86286"><ele>77.74</ele></trkpt><trkpt lat="49.6912" lon="-1.86306"><ele>77.56</ele></trkpt><trkpt lat="49.69118" lon="-1.86312"><ele>77.08</ele></trkpt><trkpt lat="49.69111" lon="-1.86338"><ele>76.11</ele></trkpt><trkpt lat="49.6911" lon="-1.86345"><ele>75.05</ele></trkpt><trkpt lat="49.69101" lon="-1.86364"><ele>74.56</ele></trkpt><trkpt lat="49.69096" lon="-1.86382"><ele>72.25</ele></trkpt><trkpt lat="49.69094" lon="-1.86387"><ele>72.34</ele></trkpt><trkpt lat="49.69089" lon="-1.86404"><ele>71.46</ele></trkpt><trkpt lat="49.69088" lon="-1.86412"><ele>70.93</ele></trkpt><trkpt lat="49.69088" lon="-1.86416"><ele>70.74</ele></trkpt><trkpt lat="49.69093" lon="-1.86429"><ele>70.49</ele></trkpt><trkpt lat="49.69098" lon="-1.86434"><ele>70.2</ele></trkpt><trkpt lat="49.69112" lon="-1.8645"><ele>70.02</ele></trkpt><trkpt lat="49.69117" lon="-1.86455"><ele>70.77</ele></trkpt><trkpt lat="49.69126" lon="-1.86465"><ele>71.5</ele></trkpt><trkpt lat="49.69127" lon="-1.86465"><ele>71.5</ele></trkpt><trkpt lat="49.6914" lon="-1.86472"><ele>72.72</ele></trkpt><trkpt lat="49.69144" lon="-1.86475"><ele>72.07</ele></trkpt><trkpt lat="49.69148" lon="-1.86477"><ele>72.69</ele></trkpt><trkpt lat="49.69149" lon="-1.8648"><ele>72.69</ele></trkpt><trkpt lat="49.6915" lon="-1.86482"><ele>73.41</ele></trkpt><trkpt lat="49.69152" lon="-1.86487"><ele>73.19</ele></trkpt><trkpt lat="49.6915" lon="-1.86517"><ele>75.57</ele></trkpt><trkpt lat="49.69144" lon="-1.8654"><ele>77.44</ele></trkpt><trkpt lat="49.69137" lon="-1.86566"><ele>80.38</ele></trkpt><trkpt lat="49.69137" lon="-1.86567"><ele>80.38</ele></trkpt><trkpt lat="49.69135" lon="-1.8658"><ele>81.11</ele></trkpt><trkpt lat="49.69139" lon="-1.86594"><ele>83.34</ele></trkpt><trkpt lat="49.69143" lon="-1.86599"><ele>83.74</ele></trkpt><trkpt lat="49.69153" lon="-1.86607"><ele>84.73</ele></trkpt><trkpt lat="49.69154" lon="-1.86607"><ele>84.73</ele></trkpt><trkpt lat="49.69162" lon="-1.8662"><ele>86.52</ele></trkpt><trkpt lat="49.69164" lon="-1.86629"><ele>86.4</ele></trkpt><trkpt lat="49.69165" lon="-1.86632"><ele>86.72</ele></trkpt><trkpt lat="49.69164" lon="-1.86639"><ele>87.49</ele></trkpt><trkpt lat="49.69155" lon="-1.86648"><ele>89.06</ele></trkpt><trkpt lat="49.69146" lon="-1.86657"><ele>90.66</ele></trkpt><trkpt lat="49.69123" lon="-1.86674"><ele>94.49</ele></trkpt><trkpt lat="49.6912" lon="-1.86676"><ele>94.96</ele></trkpt><trkpt lat="49.69109" lon="-1.86678"><ele>97.15</ele></trkpt><trkpt lat="49.69105" lon="-1.86678"><ele>97.68</ele></trkpt><trkpt lat="49.69089" lon="-1.86677"><ele>98.85</ele></trkpt><trkpt lat="49.69088" lon="-1.86677"><ele>98.85</ele></trkpt><trkpt lat="49.69087" lon="-1.86676"><ele>98.85</ele></trkpt><trkpt lat="49.69069" lon="-1.86673"><ele>102.37</ele></trkpt><trkpt lat="49.69052" lon="-1.8667"><ele>104.25</ele></trkpt><trkpt lat="49.6905" lon="-1.8667"><ele>105.91</ele></trkpt><trkpt lat="49.69034" lon="-1.86667"><ele>108.03</ele></trkpt><trkpt lat="49.69027" lon="-1.86665"><ele>108.55</ele></trkpt><trkpt lat="49.69016" lon="-1.86663"><ele>109.4</ele></trkpt><trkpt lat="49.69011" lon="-1.86662"><ele>109.63</ele></trkpt><trkpt lat="49.68999" lon="-1.86663"><ele>109.93</ele></trkpt><trkpt lat="49.68993" lon="-1.86665"><ele>110.2</ele></trkpt><trkpt lat="49.68988" lon="-1.86669"><ele>110.43</ele></trkpt><trkpt lat="49.68982" lon="-1.86675"><ele>110.72</ele></trkpt><trkpt lat="49.68978" lon="-1.8668"><ele>111.06</ele></trkpt><trkpt lat="49.68971" lon="-1.86697"><ele>112.07</ele></trkpt><trkpt lat="49.68967" lon="-1.86706"><ele>112.9</ele></trkpt><trkpt lat="49.68962" lon="-1.86714"><ele>113.82</ele></trkpt><trkpt lat="49.68947" lon="-1.86737"><ele>116.2</ele></trkpt><trkpt lat="49.68944" lon="-1.86742"><ele>117.02</ele></trkpt><trkpt lat="49.68935" lon="-1.86759"><ele>118.08</ele></trkpt><trkpt lat="49.68931" lon="-1.86767"><ele>118.46</ele></trkpt><trkpt lat="49.68928" lon="-1.86771"><ele>118.65</ele></trkpt><trkpt lat="49.68923" lon="-1.86779"><ele>119.31</ele></trkpt><trkpt lat="49.68921" lon="-1.86783"><ele>119.42</ele></trkpt><trkpt lat="49.68914" lon="-1.86787"><ele>119.82</ele></trkpt><trkpt lat="49.68906" lon="-1.86788"><ele>120.03</ele></trkpt><trkpt lat="49.68888" lon="-1.86787"><ele>120.73</ele></trkpt><trkpt lat="49.6887" lon="-1.86785"><ele>121.13</ele></trkpt><trkpt lat="49.68846" lon="-1.86784"><ele>121.45</ele></trkpt><trkpt lat="49.68823" lon="-1.86783"><ele>121.88</ele></trkpt><trkpt lat="49.68816" lon="-1.86782"><ele>121.96</ele></trkpt><trkpt lat="49.68799" lon="-1.8678"><ele>122.78</ele></trkpt><trkpt lat="49.68794" lon="-1.86779"><ele>123.14</ele></trkpt><trkpt lat="49.68777" lon="-1.8678"><ele>124.53</ele></trkpt><trkpt lat="49.68769" lon="-1.86783"><ele>124.15</ele></trkpt><trkpt lat="49.68765" lon="-1.86785"><ele>124.45</ele></trkpt><trkpt lat="49.68746" lon="-1.86796"><ele>125.44</ele></trkpt><trkpt lat="49.68741" lon="-1.86799"><ele>125.59</ele></trkpt><trkpt lat="49.68739" lon="-1.86801"><ele>125.59</ele></trkpt><trkpt lat="49.6873" lon="-1.86808"><ele>126.02</ele></trkpt><trkpt lat="49.68705" lon="-1.86827"><ele>126.71</ele></trkpt><trkpt lat="49.68657" lon="-1.86859"><ele>127.72</ele></trkpt><trkpt lat="49.68649" lon="-1.86866"><ele>127.81</ele></trkpt><trkpt lat="49.68633" lon="-1.8688"><ele>129.17</ele></trkpt><trkpt lat="49.68618" lon="-1.86895"><ele>130</ele></trkpt><trkpt lat="49.68603" lon="-1.86911"><ele>131.07</ele></trkpt><trkpt lat="49.68596" lon="-1.86918"><ele>131.56</ele></trkpt><trkpt lat="49.68588" lon="-1.86926"><ele>132.04</ele></trkpt><trkpt lat="49.68572" lon="-1.8694"><ele>132.07</ele></trkpt><trkpt lat="49.68566" lon="-1.86947"><ele>132.23</ele></trkpt><trkpt lat="49.68556" lon="-1.86925"><ele>132.31</ele></trkpt><trkpt lat="49.68553" lon="-1.86915"><ele>132.42</ele></trkpt><trkpt lat="49.68544" lon="-1.86891"><ele>131.91</ele></trkpt><trkpt lat="49.68535" lon="-1.86866"><ele>131.14</ele></trkpt><trkpt lat="49.68527" lon="-1.86842"><ele>130.32</ele></trkpt><trkpt lat="49.68523" lon="-1.86833"><ele>130.2</ele></trkpt><trkpt lat="49.68511" lon="-1.86794"><ele>128.8</ele></trkpt><trkpt lat="49.68487" lon="-1.86717"><ele>123.8</ele></trkpt><trkpt lat="49.68485" lon="-1.86711"><ele>123.67</ele></trkpt><trkpt lat="49.68479" lon="-1.86691"><ele>123.92</ele></trkpt><trkpt lat="49.68474" lon="-1.86673"><ele>122.98</ele></trkpt><trkpt lat="49.68466" lon="-1.86642"><ele>123.57</ele></trkpt><trkpt lat="49.68456" lon="-1.86609"><ele>120.76</ele></trkpt><trkpt lat="49.68449" lon="-1.86582"><ele>119.61</ele></trkpt><trkpt lat="49.6844" lon="-1.86551"><ele>118.4</ele></trkpt><trkpt lat="49.68436" lon="-1.86539"><ele>117.89</ele></trkpt><trkpt lat="49.68425" lon="-1.86504"><ele>117.32</ele></trkpt><trkpt lat="49.68421" lon="-1.86489"><ele>117.25</ele></trkpt><trkpt lat="49.68417" lon="-1.86478"><ele>117.29</ele></trkpt><trkpt lat="49.68415" lon="-1.86468"><ele>117.57</ele></trkpt><trkpt lat="49.68412" lon="-1.86452"><ele>118.06</ele></trkpt><trkpt lat="49.68411" lon="-1.86448"><ele>118.13</ele></trkpt><trkpt lat="49.68405" lon="-1.86426"><ele>119.08</ele></trkpt><trkpt lat="49.68401" lon="-1.8641"><ele>119.83</ele></trkpt><trkpt lat="49.68399" lon="-1.864"><ele>120.23</ele></trkpt><trkpt lat="49.68392" lon="-1.86374"><ele>121.92</ele></trkpt><trkpt lat="49.6839" lon="-1.86366"><ele>122.86</ele></trkpt><trkpt lat="49.68374" lon="-1.86307"><ele>125.81</ele></trkpt><trkpt lat="49.68374" lon="-1.86306"><ele>125.81</ele></trkpt><trkpt lat="49.68365" lon="-1.86273"><ele>129.11</ele></trkpt><trkpt lat="49.6836" lon="-1.8625"><ele>129.34</ele></trkpt><trkpt lat="49.68347" lon="-1.86193"><ele>131.4</ele></trkpt><trkpt lat="49.68345" lon="-1.86188"><ele>131.54</ele></trkpt><trkpt lat="49.68341" lon="-1.86174"><ele>132.18</ele></trkpt><trkpt lat="49.68331" lon="-1.86123"><ele>134.1</ele></trkpt><trkpt lat="49.68323" lon="-1.86094"><ele>134.1</ele></trkpt><trkpt lat="49.6832" lon="-1.86081"><ele>134.25</ele></trkpt><trkpt lat="49.68313" lon="-1.86049"><ele>134.48</ele></trkpt><trkpt lat="49.68308" lon="-1.86028"><ele>134.52</ele></trkpt><trkpt lat="49.68304" lon="-1.86006"><ele>134.43</ele></trkpt><trkpt lat="49.68295" lon="-1.85959"><ele>133.96</ele></trkpt><trkpt lat="49.68281" lon="-1.85861"><ele>131.85</ele></trkpt><trkpt lat="49.68276" lon="-1.85826"><ele>130.93</ele></trkpt><trkpt lat="49.68273" lon="-1.85805"><ele>130.47</ele></trkpt><trkpt lat="49.68272" lon="-1.858"><ele>130.23</ele></trkpt><trkpt lat="49.68265" lon="-1.8576"><ele>129.67</ele></trkpt><trkpt lat="49.68262" lon="-1.85735"><ele>129.4</ele></trkpt><trkpt lat="49.68257" lon="-1.85713"><ele>129.01</ele></trkpt><trkpt lat="49.68313" lon="-1.85733"><ele>124.48</ele></trkpt><trkpt lat="49.68328" lon="-1.85738"><ele>123</ele></trkpt><trkpt lat="49.68354" lon="-1.85749"><ele>121.27</ele></trkpt><trkpt lat="49.68389" lon="-1.85769"><ele>119.24</ele></trkpt><trkpt lat="49.68396" lon="-1.85774"><ele>118.9</ele></trkpt><trkpt lat="49.6841" lon="-1.85783"><ele>118.25</ele></trkpt><trkpt lat="49.68409" lon="-1.85787"><ele>118.63</ele></trkpt><trkpt lat="49.6841" lon="-1.85783"><ele>118.25</ele></trkpt><trkpt lat="49.68421" lon="-1.85791"><ele>117.56</ele></trkpt><trkpt lat="49.68426" lon="-1.85776"><ele>117.92</ele></trkpt><trkpt lat="49.6843" lon="-1.85759"><ele>117.9</ele></trkpt><trkpt lat="49.68433" lon="-1.85745"><ele>118.3</ele></trkpt><trkpt lat="49.68434" lon="-1.85728"><ele>118.84</ele></trkpt><trkpt lat="49.68436" lon="-1.85708"><ele>119.18</ele></trkpt><trkpt lat="49.68435" lon="-1.85689"><ele>120.24</ele></trkpt><trkpt lat="49.68432" lon="-1.85662"><ele>121.3</ele></trkpt><trkpt lat="49.68425" lon="-1.85616"><ele>122.63</ele></trkpt><trkpt lat="49.68422" lon="-1.8559"><ele>122.02</ele></trkpt><trkpt lat="49.68423" lon="-1.85576"><ele>121.42</ele></trkpt><trkpt lat="49.68423" lon="-1.85563"><ele>121.66</ele></trkpt><trkpt lat="49.6842" lon="-1.85539"><ele>121.79</ele></trkpt><trkpt lat="49.68411" lon="-1.85488"><ele>121.19</ele></trkpt><trkpt lat="49.6841" lon="-1.85472"><ele>120.72</ele></trkpt><trkpt lat="49.68409" lon="-1.85464"><ele>120.46</ele></trkpt><trkpt lat="49.68413" lon="-1.85452"><ele>119.72</ele></trkpt><trkpt lat="49.68414" lon="-1.85447"><ele>119.47</ele></trkpt><trkpt lat="49.68414" lon="-1.85439"><ele>119.09</ele></trkpt><trkpt lat="49.6841" lon="-1.85418"><ele>118.21</ele></trkpt><trkpt lat="49.68401" lon="-1.8538"><ele>116.58</ele></trkpt><trkpt lat="49.684" lon="-1.85371"><ele>115.95</ele></trkpt><trkpt lat="49.68395" lon="-1.85346"><ele>114.56</ele></trkpt><trkpt lat="49.68395" lon="-1.85334"><ele>113.18</ele></trkpt><trkpt lat="49.68394" lon="-1.85326"><ele>112.68</ele></trkpt><trkpt lat="49.68388" lon="-1.85292"><ele>109.04</ele></trkpt><trkpt lat="49.68387" lon="-1.85282"><ele>107.67</ele></trkpt><trkpt lat="49.68387" lon="-1.8528"><ele>107.67</ele></trkpt><trkpt lat="49.68383" lon="-1.85265"><ele>106.34</ele></trkpt><trkpt lat="49.68378" lon="-1.85241"><ele>104.55</ele></trkpt><trkpt lat="49.68372" lon="-1.85209"><ele>102.5</ele></trkpt><trkpt lat="49.68364" lon="-1.85183"><ele>101.85</ele></trkpt><trkpt lat="49.68359" lon="-1.8517"><ele>101.31</ele></trkpt><trkpt lat="49.68357" lon="-1.85163"><ele>101.13</ele></trkpt><trkpt lat="49.68359" lon="-1.85156"><ele>101.25</ele></trkpt><trkpt lat="49.68367" lon="-1.85144"><ele>100.52</ele></trkpt><trkpt lat="49.68385" lon="-1.85125"><ele>99.13</ele></trkpt><trkpt lat="49.68397" lon="-1.85103"><ele>98.16</ele></trkpt><trkpt lat="49.68404" lon="-1.85096"><ele>97.55</ele></trkpt><trkpt lat="49.68416" lon="-1.85083"><ele>96.83</ele></trkpt><trkpt lat="49.6843" lon="-1.85069"><ele>95.49</ele></trkpt><trkpt lat="49.68437" lon="-1.85063"><ele>95.38</ele></trkpt><trkpt lat="49.68438" lon="-1.85064"><ele>95.36</ele></trkpt><trkpt lat="49.6848" lon="-1.85056"><ele>93.79</ele></trkpt><trkpt lat="49.68523" lon="-1.85052"><ele>92.81</ele></trkpt><trkpt lat="49.68534" lon="-1.85057"><ele>92.6</ele></trkpt><trkpt lat="49.68538" lon="-1.85062"><ele>92.54</ele></trkpt><trkpt lat="49.68543" lon="-1.85066"><ele>92.46</ele></trkpt><trkpt lat="49.68558" lon="-1.85084"><ele>92.68</ele></trkpt><trkpt lat="49.6856" lon="-1.8508"><ele>92.37</ele></trkpt><trkpt lat="49.68563" lon="-1.85083"><ele>92.55</ele></trkpt><trkpt lat="49.6857" lon="-1.85088"><ele>92.98</ele></trkpt><trkpt lat="49.68572" lon="-1.85089"><ele>93.74</ele></trkpt><trkpt lat="49.68576" lon="-1.8509"><ele>93.94</ele></trkpt><trkpt lat="49.6858" lon="-1.85091"><ele>94.19</ele></trkpt><trkpt lat="49.68589" lon="-1.8509"><ele>94.68</ele></trkpt><trkpt lat="49.68597" lon="-1.85087"><ele>95.19</ele></trkpt><trkpt lat="49.68645" lon="-1.85071"><ele>99.08</ele></trkpt><trkpt lat="49.68648" lon="-1.8507"><ele>99.08</ele></trkpt><trkpt lat="49.68663" lon="-1.85066"><ele>99.62</ele></trkpt><trkpt lat="49.68668" lon="-1.85064"><ele>99.73</ele></trkpt><trkpt lat="49.6868" lon="-1.85064"><ele>100.14</ele></trkpt><trkpt lat="49.68685" lon="-1.85063"><ele>100.89</ele></trkpt><trkpt lat="49.68687" lon="-1.85063"><ele>100.89</ele></trkpt><trkpt lat="49.68698" lon="-1.85067"><ele>101.41</ele></trkpt><trkpt lat="49.68704" lon="-1.85068"><ele>101.91</ele></trkpt><trkpt lat="49.68716" lon="-1.85074"><ele>102.23</ele></trkpt><trkpt lat="49.68733" lon="-1.85081"><ele>103.65</ele></trkpt><trkpt lat="49.6874" lon="-1.85084"><ele>103.64</ele></trkpt><trkpt lat="49.68751" lon="-1.85086"><ele>102.95</ele></trkpt><trkpt lat="49.68775" lon="-1.85091"><ele>101.44</ele></trkpt><trkpt lat="49.68782" lon="-1.85092"><ele>101.77</ele></trkpt><trkpt lat="49.68786" lon="-1.85093"><ele>101.69</ele></trkpt><trkpt lat="49.68804" lon="-1.85097"><ele>100.87</ele></trkpt><trkpt lat="49.68822" lon="-1.85102"><ele>100.52</ele></trkpt><trkpt lat="49.6884" lon="-1.85107"><ele>99.64</ele></trkpt><trkpt lat="49.68851" lon="-1.8511"><ele>100.2</ele></trkpt><trkpt lat="49.68856" lon="-1.85112"><ele>99.77</ele></trkpt><trkpt lat="49.68857" lon="-1.85113"><ele>99.77</ele></trkpt><trkpt lat="49.68931" lon="-1.85144"><ele>100.67</ele></trkpt><trkpt lat="49.68943" lon="-1.85151"><ele>100.39</ele></trkpt><trkpt lat="49.68947" lon="-1.85153"><ele>100.7</ele></trkpt><trkpt lat="49.6896" lon="-1.85161"><ele>100.75</ele></trkpt><trkpt lat="49.68979" lon="-1.85172"><ele>101.01</ele></trkpt><trkpt lat="49.68993" lon="-1.85184"><ele>101.48</ele></trkpt><trkpt lat="49.69027" lon="-1.85214"><ele>104.4</ele></trkpt><trkpt lat="49.69032" lon="-1.85218"><ele>104.21</ele></trkpt><trkpt lat="49.69043" lon="-1.85227"><ele>103.38</ele></trkpt><trkpt lat="49.69079" lon="-1.85236"><ele>103.65</ele></trkpt><trkpt lat="49.69082" lon="-1.85236"><ele>103.69</ele></trkpt><trkpt lat="49.691" lon="-1.85239"><ele>104.33</ele></trkpt><trkpt lat="49.69138" lon="-1.85243"><ele>104.04</ele></trkpt><trkpt lat="49.69171" lon="-1.85254"><ele>103.23</ele></trkpt><trkpt lat="49.69178" lon="-1.8526"><ele>104.08</ele></trkpt><trkpt lat="49.69232" lon="-1.85312"><ele>103.88</ele></trkpt><trkpt lat="49.69248" lon="-1.85326"><ele>104.27</ele></trkpt><trkpt lat="49.69262" lon="-1.8534"><ele>104.7</ele></trkpt><trkpt lat="49.69263" lon="-1.85341"><ele>105.4</ele></trkpt><trkpt lat="49.69273" lon="-1.85351"><ele>105.55</ele></trkpt><trkpt lat="49.69284" lon="-1.85359"><ele>106.55</ele></trkpt><trkpt lat="49.69295" lon="-1.85367"><ele>106.57</ele></trkpt><trkpt lat="49.69308" lon="-1.85376"><ele>107.7</ele></trkpt><trkpt lat="49.6931" lon="-1.85377"><ele>108.93</ele></trkpt><trkpt lat="49.69328" lon="-1.85386"><ele>109.02</ele></trkpt><trkpt lat="49.69332" lon="-1.85388"><ele>109.63</ele></trkpt><trkpt lat="49.69346" lon="-1.85392"><ele>109.81</ele></trkpt><trkpt lat="49.69364" lon="-1.85396"><ele>110.22</ele></trkpt><trkpt lat="49.69373" lon="-1.85398"><ele>110.36</ele></trkpt><trkpt lat="49.69381" lon="-1.854"><ele>110.27</ele></trkpt><trkpt lat="49.69399" lon="-1.85403"><ele>109.87</ele></trkpt><trkpt lat="49.69417" lon="-1.85407"><ele>109.82</ele></trkpt><trkpt lat="49.6943" lon="-1.85409"><ele>109.03</ele></trkpt><trkpt lat="49.69435" lon="-1.8541"><ele>109.04</ele></trkpt><trkpt lat="49.69453" lon="-1.85414"><ele>107.73</ele></trkpt><trkpt lat="49.69471" lon="-1.85417"><ele>106.87</ele></trkpt><trkpt lat="49.69489" lon="-1.8542"><ele>106.82</ele></trkpt><trkpt lat="49.69506" lon="-1.85423"><ele>105.52</ele></trkpt><trkpt lat="49.69516" lon="-1.85425"><ele>104.26</ele></trkpt><trkpt lat="49.69523" lon="-1.85426"><ele>104.04</ele></trkpt><trkpt lat="49.69531" lon="-1.85426"><ele>103.51</ele></trkpt><trkpt lat="49.69542" lon="-1.85426"><ele>102.51</ele></trkpt><trkpt lat="49.69554" lon="-1.85426"><ele>101.36</ele></trkpt><trkpt lat="49.6956" lon="-1.85424"><ele>101.71</ele></trkpt><trkpt lat="49.69565" lon="-1.85423"><ele>101.06</ele></trkpt><trkpt lat="49.69573" lon="-1.85422"><ele>100.33</ele></trkpt><trkpt lat="49.69584" lon="-1.85418"><ele>99.44</ele></trkpt><trkpt lat="49.69593" lon="-1.85416"><ele>98.76</ele></trkpt><trkpt lat="49.69603" lon="-1.85419"><ele>98.19</ele></trkpt></trkseg></trk></gpx>
