<?xml version="1.0" encoding="UTF-8" standalone="no"?>
<gpx xmlns="http://www.topografix.com/GPX/1/1" version="1.1" xmlns:xsi="http://www.w3.org/2001/XMLSchema-instance" xsi:schemaLocation="http://www.topografix.com/GPX/1/1 http://www.topografix.com/GPX/1/1/gpx.xsd" creator="Cirkwi"><metadata><name><![CDATA[Barrage du Rouland]]></name><desc><![CDATA[Ce circuit très varié vous fera parcourir la commune déléguée d’Équeurdreville-Hainneville, tant par ses quartiers urbanisés et résidentiels que ses abords plus ruraux, ponctués de parcs, chemins encaissés et bâtis anciens, notamment sur les hauteurs d’Hainneville au riche passé historique. Départ de la rue Ferdinand Buisson. Face à l’entrée du stade René Lecanu, se diriger vers la gauche puis tourner à droite sur la rue de la Houlegate. Après 50 mètres prendre le sentier enherbé sur la droite (chasse de la Houlgate) - (Équeurdreville-Hainneville, Cherbourg-en-Cotentin). Départ possible également du Manoir de Hainneville.  Coordonnées GPS : 49°39'22.1"N, 1°40'53.0"W Suivez le circuit selon le sens des aiguilles d'une montre. Le balisage est de couleur bleu. Vous retrouverez ce circuit dans le topoguide "Cherbourg-en-cotentin" de l'Office de tourisme du Cotentin.   Quelques passages peuvent être humides, notamment autour du barrage du Rouland, prévoir des chassures adaptées. Départ accessible avec le réseau de bus Cap Cotentin à l'arrêt "Hameau de la mer" accessible avec les lignes A et 2 (plus d'infos sur capcotentin.fr)]]></desc><author><name><![CDATA[Cotentin unique]]></name></author><link href="http://fichier0.cirkwi.com/image/photo/circuit/1300x1300/826566/fr/0.jpg"><text><![CDATA[|©Cotentin Unique]]></text></link><time>2026-07-09T13:45:07Z</time></metadata><trk><trkseg><trkpt lat="49.65604" lon="-1.68169"><ele>14.79</ele></trkpt><trkpt lat="49.65625" lon="-1.68073"><ele>13.1</ele></trkpt><trkpt lat="49.65663" lon="-1.67993"><ele>11.22</ele></trkpt><trkpt lat="49.65638" lon="-1.67993"><ele>12.11</ele></trkpt><trkpt lat="49.65588" lon="-1.68012"><ele>13.81</ele></trkpt><trkpt lat="49.65522" lon="-1.68054"><ele>17.83</ele></trkpt><trkpt lat="49.65399" lon="-1.68116"><ele>29.87</ele></trkpt><trkpt lat="49.65411" lon="-1.68018"><ele>28.24</ele></trkpt><trkpt lat="49.65417" lon="-1.67951"><ele>26.42</ele></trkpt><trkpt lat="49.65347" lon="-1.67953"><ele>36.26</ele></trkpt><trkpt lat="49.65299" lon="-1.67946"><ele>42.41</ele></trkpt><trkpt lat="49.65299" lon="-1.67954"><ele>43.36</ele></trkpt><trkpt lat="49.65298" lon="-1.67958"><ele>44.37</ele></trkpt><trkpt lat="49.65295" lon="-1.67973"><ele>46.4</ele></trkpt><trkpt lat="49.6529" lon="-1.68"><ele>47.33</ele></trkpt><trkpt lat="49.65289" lon="-1.68003"><ele>47.46</ele></trkpt><trkpt lat="49.65284" lon="-1.68021"><ele>48.72</ele></trkpt><trkpt lat="49.65283" lon="-1.68025"><ele>49.16</ele></trkpt><trkpt lat="49.65274" lon="-1.68049"><ele>50.26</ele></trkpt><trkpt lat="49.65264" lon="-1.68073"><ele>51.09</ele></trkpt><trkpt lat="49.65263" lon="-1.68076"><ele>51.37</ele></trkpt><trkpt lat="49.6526" lon="-1.68087"><ele>51.28</ele></trkpt><trkpt lat="49.65259" lon="-1.68093"><ele>51.32</ele></trkpt><trkpt lat="49.65257" lon="-1.68098"><ele>51.42</ele></trkpt><trkpt lat="49.65248" lon="-1.68122"><ele>51.45</ele></trkpt><trkpt lat="49.65246" lon="-1.68126"><ele>51.33</ele></trkpt><trkpt lat="49.65236" lon="-1.68143"><ele>51.72</ele></trkpt><trkpt lat="49.65236" lon="-1.68144"><ele>51.72</ele></trkpt><trkpt lat="49.65226" lon="-1.68162"><ele>52.21</ele></trkpt><trkpt lat="49.65225" lon="-1.68165"><ele>52.17</ele></trkpt><trkpt lat="49.65219" lon="-1.68185"><ele>53.07</ele></trkpt><trkpt lat="49.65215" lon="-1.68199"><ele>53.33</ele></trkpt><trkpt lat="49.65211" lon="-1.68216"><ele>53.47</ele></trkpt><trkpt lat="49.65208" lon="-1.68226"><ele>53.59</ele></trkpt><trkpt lat="49.65206" lon="-1.68233"><ele>54.26</ele></trkpt><trkpt lat="49.652" lon="-1.68258"><ele>54.91</ele></trkpt><trkpt lat="49.65195" lon="-1.68278"><ele>55.62</ele></trkpt><trkpt lat="49.65189" lon="-1.68304"><ele>57.51</ele></trkpt><trkpt lat="49.65187" lon="-1.68312"><ele>57.45</ele></trkpt><trkpt lat="49.65181" lon="-1.68329"><ele>58.29</ele></trkpt><trkpt lat="49.6518" lon="-1.68333"><ele>58.7</ele></trkpt><trkpt lat="49.6517" lon="-1.68351"><ele>59.67</ele></trkpt><trkpt lat="49.6517" lon="-1.68352"><ele>59.67</ele></trkpt><trkpt lat="49.65158" lon="-1.68372"><ele>60.88</ele></trkpt><trkpt lat="49.65145" lon="-1.68391"><ele>61.78</ele></trkpt><trkpt lat="49.65137" lon="-1.68404"><ele>62.11</ele></trkpt><trkpt lat="49.65133" lon="-1.6841"><ele>62.13</ele></trkpt><trkpt lat="49.6512" lon="-1.68428"><ele>61.31</ele></trkpt><trkpt lat="49.65119" lon="-1.6843"><ele>61.26</ele></trkpt><trkpt lat="49.65117" lon="-1.68435"><ele>60.32</ele></trkpt><trkpt lat="49.65115" lon="-1.68426"><ele>60.81</ele></trkpt><trkpt lat="49.65111" lon="-1.68421"><ele>61.8</ele></trkpt><trkpt lat="49.65096" lon="-1.68405"><ele>60.97</ele></trkpt><trkpt lat="49.65086" lon="-1.68393"><ele>59.08</ele></trkpt><trkpt lat="49.65082" lon="-1.68388"><ele>57.97</ele></trkpt><trkpt lat="49.65079" lon="-1.68385"><ele>56.65</ele></trkpt><trkpt lat="49.65069" lon="-1.68379"><ele>56.03</ele></trkpt><trkpt lat="49.65065" lon="-1.68378"><ele>53.21</ele></trkpt><trkpt lat="49.65057" lon="-1.68378"><ele>52.13</ele></trkpt><trkpt lat="49.65048" lon="-1.68382"><ele>51.06</ele></trkpt><trkpt lat="49.65038" lon="-1.68386"><ele>48.95</ele></trkpt><trkpt lat="49.65027" lon="-1.68387"><ele>48.63</ele></trkpt><trkpt lat="49.65019" lon="-1.68385"><ele>46.81</ele></trkpt><trkpt lat="49.65009" lon="-1.68377"><ele>45.91</ele></trkpt><trkpt lat="49.65013" lon="-1.68368"><ele>45.44</ele></trkpt><trkpt lat="49.65019" lon="-1.68351"><ele>45.16</ele></trkpt><trkpt lat="49.65009" lon="-1.68341"><ele>45.46</ele></trkpt><trkpt lat="49.65004" lon="-1.68337"><ele>46.34</ele></trkpt><trkpt lat="49.65002" lon="-1.68334"><ele>46.4</ele></trkpt><trkpt lat="49.64991" lon="-1.68295"><ele>49.8</ele></trkpt><trkpt lat="49.64982" lon="-1.68277"><ele>51.85</ele></trkpt><trkpt lat="49.6498" lon="-1.68275"><ele>51.56</ele></trkpt><trkpt lat="49.64971" lon="-1.68264"><ele>52.72</ele></trkpt><trkpt lat="49.64965" lon="-1.6826"><ele>54.72</ele></trkpt><trkpt lat="49.64961" lon="-1.68257"><ele>54.76</ele></trkpt><trkpt lat="49.64952" lon="-1.68253"><ele>54.48</ele></trkpt><trkpt lat="49.64948" lon="-1.68254"><ele>55.91</ele></trkpt><trkpt lat="49.64945" lon="-1.68256"><ele>55.91</ele></trkpt><trkpt lat="49.64942" lon="-1.68258"><ele>55.08</ele></trkpt><trkpt lat="49.64941" lon="-1.68249"><ele>54.44</ele></trkpt><trkpt lat="49.64939" lon="-1.68247"><ele>55.22</ele></trkpt><trkpt lat="49.64937" lon="-1.68241"><ele>55.29</ele></trkpt><trkpt lat="49.64926" lon="-1.68229"><ele>56.93</ele></trkpt><trkpt lat="49.64911" lon="-1.68214"><ele>58.86</ele></trkpt><trkpt lat="49.64896" lon="-1.68198"><ele>61.3</ele></trkpt><trkpt lat="49.64891" lon="-1.68193"><ele>61.82</ele></trkpt><trkpt lat="49.6489" lon="-1.68192"><ele>61.82</ele></trkpt><trkpt lat="49.64881" lon="-1.68214"><ele>62.51</ele></trkpt><trkpt lat="49.64888" lon="-1.68241"><ele>62.33</ele></trkpt><trkpt lat="49.64876" lon="-1.68267"><ele>62.42</ele></trkpt><trkpt lat="49.64901" lon="-1.68326"><ele>58.95</ele></trkpt><trkpt lat="49.64934" lon="-1.6835"><ele>55.76</ele></trkpt><trkpt lat="49.6494" lon="-1.6836"><ele>55.1</ele></trkpt><trkpt lat="49.64943" lon="-1.68373"><ele>54.26</ele></trkpt><trkpt lat="49.64945" lon="-1.68382"><ele>53.81</ele></trkpt><trkpt lat="49.64947" lon="-1.68391"><ele>53.3</ele></trkpt><trkpt lat="49.64948" lon="-1.68398"><ele>52.66</ele></trkpt><trkpt lat="49.64948" lon="-1.68399"><ele>52.66</ele></trkpt><trkpt lat="49.6495" lon="-1.68405"><ele>52.52</ele></trkpt><trkpt lat="49.64952" lon="-1.68414"><ele>51.38</ele></trkpt><trkpt lat="49.64955" lon="-1.68422"><ele>50.72</ele></trkpt><trkpt lat="49.64964" lon="-1.68436"><ele>49.88</ele></trkpt><trkpt lat="49.64966" lon="-1.68439"><ele>49.96</ele></trkpt><trkpt lat="49.64963" lon="-1.6846"><ele>50.28</ele></trkpt><trkpt lat="49.64959" lon="-1.68488"><ele>50.94</ele></trkpt><trkpt lat="49.64954" lon="-1.68515"><ele>51.62</ele></trkpt><trkpt lat="49.64945" lon="-1.68538"><ele>52.61</ele></trkpt><trkpt lat="49.64961" lon="-1.68559"><ele>54.21</ele></trkpt><trkpt lat="49.6503" lon="-1.68574"><ele>61.49</ele></trkpt><trkpt lat="49.65084" lon="-1.68549"><ele>65.5</ele></trkpt><trkpt lat="49.65123" lon="-1.68501"><ele>62.67</ele></trkpt><trkpt lat="49.65144" lon="-1.68476"><ele>57.56</ele></trkpt><trkpt lat="49.65163" lon="-1.68504"><ele>58.56</ele></trkpt><trkpt lat="49.65212" lon="-1.68593"><ele>57.78</ele></trkpt><trkpt lat="49.65251" lon="-1.68694"><ele>54.49</ele></trkpt><trkpt lat="49.65263" lon="-1.68705"><ele>54.39</ele></trkpt><trkpt lat="49.65295" lon="-1.687"><ele>55.26</ele></trkpt><trkpt lat="49.65331" lon="-1.68734"><ele>58.52</ele></trkpt><trkpt lat="49.65334" lon="-1.68745"><ele>61.02</ele></trkpt><trkpt lat="49.65334" lon="-1.68828"><ele>66.31</ele></trkpt><trkpt lat="49.65311" lon="-1.68949"><ele>70.52</ele></trkpt><trkpt lat="49.6522" lon="-1.69067"><ele>71.39</ele></trkpt><trkpt lat="49.65085" lon="-1.69277"><ele>76.07</ele></trkpt><trkpt lat="49.64939" lon="-1.69453"><ele>87.41</ele></trkpt><trkpt lat="49.649" lon="-1.69481"><ele>87.8</ele></trkpt><trkpt lat="49.64783" lon="-1.6945"><ele>91.87</ele></trkpt><trkpt lat="49.64781" lon="-1.69532"><ele>93.88</ele></trkpt><trkpt lat="49.64779" lon="-1.69558"><ele>93.77</ele></trkpt><trkpt lat="49.64779" lon="-1.69561"><ele>93.79</ele></trkpt><trkpt lat="49.64781" lon="-1.69576"><ele>93.76</ele></trkpt><trkpt lat="49.64781" lon="-1.69586"><ele>93.46</ele></trkpt><trkpt lat="49.64784" lon="-1.69579"><ele>93.16</ele></trkpt><trkpt lat="49.64785" lon="-1.69579"><ele>93.16</ele></trkpt><trkpt lat="49.64784" lon="-1.69579"><ele>93.16</ele></trkpt><trkpt lat="49.64781" lon="-1.69586"><ele>93.46</ele></trkpt><trkpt lat="49.64777" lon="-1.69594"><ele>94.05</ele></trkpt><trkpt lat="49.64771" lon="-1.69603"><ele>94.29</ele></trkpt><trkpt lat="49.64767" lon="-1.69608"><ele>94.53</ele></trkpt><trkpt lat="49.64758" lon="-1.69621"><ele>95.1</ele></trkpt><trkpt lat="49.64744" lon="-1.69639"><ele>95.79</ele></trkpt><trkpt lat="49.64736" lon="-1.6965"><ele>95.89</ele></trkpt><trkpt lat="49.6473" lon="-1.69657"><ele>96.54</ele></trkpt><trkpt lat="49.64719" lon="-1.6967"><ele>96.11</ele></trkpt><trkpt lat="49.64716" lon="-1.69674"><ele>96.14</ele></trkpt><trkpt lat="49.64711" lon="-1.69681"><ele>95.99</ele></trkpt><trkpt lat="49.64705" lon="-1.69693"><ele>95.68</ele></trkpt><trkpt lat="49.64704" lon="-1.69695"><ele>96.02</ele></trkpt><trkpt lat="49.64695" lon="-1.6971"><ele>95.78</ele></trkpt><trkpt lat="49.64691" lon="-1.69715"><ele>96</ele></trkpt><trkpt lat="49.64683" lon="-1.69726"><ele>96.04</ele></trkpt><trkpt lat="49.64678" lon="-1.6973"><ele>96.39</ele></trkpt><trkpt lat="49.64677" lon="-1.69731"><ele>96.27</ele></trkpt><trkpt lat="49.6466" lon="-1.6974"><ele>97.43</ele></trkpt><trkpt lat="49.64658" lon="-1.69741"><ele>97.43</ele></trkpt><trkpt lat="49.64648" lon="-1.69744"><ele>98.42</ele></trkpt><trkpt lat="49.64642" lon="-1.69745"><ele>98.56</ele></trkpt><trkpt lat="49.6463" lon="-1.69746"><ele>98.27</ele></trkpt><trkpt lat="49.64624" lon="-1.69746"><ele>97.98</ele></trkpt><trkpt lat="49.64625" lon="-1.69753"><ele>97.71</ele></trkpt><trkpt lat="49.64629" lon="-1.6977"><ele>96.68</ele></trkpt><trkpt lat="49.6463" lon="-1.69772"><ele>96.68</ele></trkpt><trkpt lat="49.64635" lon="-1.69786"><ele>95.59</ele></trkpt><trkpt lat="49.64638" lon="-1.69797"><ele>94.87</ele></trkpt><trkpt lat="49.64641" lon="-1.69805"><ele>94.13</ele></trkpt><trkpt lat="49.64646" lon="-1.69822"><ele>92.39</ele></trkpt><trkpt lat="49.64647" lon="-1.69824"><ele>92.39</ele></trkpt><trkpt lat="49.64654" lon="-1.69844"><ele>89.95</ele></trkpt><trkpt lat="49.64655" lon="-1.69846"><ele>89.95</ele></trkpt><trkpt lat="49.64657" lon="-1.69852"><ele>89.69</ele></trkpt><trkpt lat="49.64663" lon="-1.69871"><ele>88.09</ele></trkpt><trkpt lat="49.64667" lon="-1.69884"><ele>87.15</ele></trkpt><trkpt lat="49.64671" lon="-1.69896"><ele>86.55</ele></trkpt><trkpt lat="49.64678" lon="-1.69918"><ele>85.69</ele></trkpt><trkpt lat="49.64702" lon="-1.69994"><ele>82.69</ele></trkpt><trkpt lat="49.64702" lon="-1.69996"><ele>82.69</ele></trkpt><trkpt lat="49.64703" lon="-1.69996"><ele>82.69</ele></trkpt><trkpt lat="49.6471" lon="-1.70017"><ele>81.23</ele></trkpt><trkpt lat="49.64719" lon="-1.70039"><ele>79.77</ele></trkpt><trkpt lat="49.64732" lon="-1.70063"><ele>78.28</ele></trkpt><trkpt lat="49.64733" lon="-1.70064"><ele>78.28</ele></trkpt><trkpt lat="49.64738" lon="-1.70071"><ele>77.78</ele></trkpt><trkpt lat="49.64744" lon="-1.70086"><ele>76.64</ele></trkpt><trkpt lat="49.64753" lon="-1.70105"><ele>74.83</ele></trkpt><trkpt lat="49.64754" lon="-1.70109"><ele>74.51</ele></trkpt><trkpt lat="49.6476" lon="-1.70127"><ele>73.06</ele></trkpt><trkpt lat="49.64761" lon="-1.70134"><ele>72.19</ele></trkpt><trkpt lat="49.64764" lon="-1.70144"><ele>71.45</ele></trkpt><trkpt lat="49.64768" lon="-1.7016"><ele>69.65</ele></trkpt><trkpt lat="49.64769" lon="-1.70162"><ele>69.34</ele></trkpt><trkpt lat="49.64771" lon="-1.70169"><ele>68.31</ele></trkpt><trkpt lat="49.64774" lon="-1.70176"><ele>67.22</ele></trkpt><trkpt lat="49.64775" lon="-1.70181"><ele>66.04</ele></trkpt><trkpt lat="49.64777" lon="-1.70184"><ele>66.04</ele></trkpt><trkpt lat="49.64778" lon="-1.70184"><ele>65.65</ele></trkpt><trkpt lat="49.64779" lon="-1.70185"><ele>65.65</ele></trkpt><trkpt lat="49.64743" lon="-1.7022"><ele>65.2</ele></trkpt><trkpt lat="49.64737" lon="-1.70242"><ele>62.25</ele></trkpt><trkpt lat="49.6473" lon="-1.70238"><ele>63.68</ele></trkpt><trkpt lat="49.64704" lon="-1.70241"><ele>61.83</ele></trkpt><trkpt lat="49.64677" lon="-1.70234"><ele>62.91</ele></trkpt><trkpt lat="49.64652" lon="-1.70231"><ele>63.84</ele></trkpt><trkpt lat="49.64626" lon="-1.70237"><ele>63.22</ele></trkpt><trkpt lat="49.64585" lon="-1.70242"><ele>63.43</ele></trkpt><trkpt lat="49.64558" lon="-1.70222"><ele>63.24</ele></trkpt><trkpt lat="49.64534" lon="-1.70263"><ele>61.7</ele></trkpt><trkpt lat="49.64491" lon="-1.70311"><ele>62.88</ele></trkpt><trkpt lat="49.64466" lon="-1.70358"><ele>62.25</ele></trkpt><trkpt lat="49.64438" lon="-1.70395"><ele>63.21</ele></trkpt><trkpt lat="49.64432" lon="-1.70417"><ele>61.89</ele></trkpt><trkpt lat="49.64456" lon="-1.7042"><ele>62.64</ele></trkpt><trkpt lat="49.64501" lon="-1.70399"><ele>61.98</ele></trkpt><trkpt lat="49.6457" lon="-1.70361"><ele>62.79</ele></trkpt><trkpt lat="49.64623" lon="-1.70361"><ele>61.84</ele></trkpt><trkpt lat="49.64673" lon="-1.70388"><ele>62.21</ele></trkpt><trkpt lat="49.64725" lon="-1.7038"><ele>62.37</ele></trkpt><trkpt lat="49.64767" lon="-1.7037"><ele>64.05</ele></trkpt><trkpt lat="49.64787" lon="-1.70364"><ele>62.85</ele></trkpt><trkpt lat="49.64806" lon="-1.70365"><ele>66.07</ele></trkpt><trkpt lat="49.64811" lon="-1.70372"><ele>67.89</ele></trkpt><trkpt lat="49.64808" lon="-1.70374"><ele>68.78</ele></trkpt><trkpt lat="49.64804" lon="-1.70381"><ele>69.18</ele></trkpt><trkpt lat="49.64802" lon="-1.70388"><ele>70.97</ele></trkpt><trkpt lat="49.64802" lon="-1.70395"><ele>71.78</ele></trkpt><trkpt lat="49.64801" lon="-1.70428"><ele>76.85</ele></trkpt><trkpt lat="49.64801" lon="-1.70431"><ele>77.49</ele></trkpt><trkpt lat="49.64801" lon="-1.70441"><ele>78.82</ele></trkpt><trkpt lat="49.64802" lon="-1.70465"><ele>81.87</ele></trkpt><trkpt lat="49.64802" lon="-1.70479"><ele>83.66</ele></trkpt><trkpt lat="49.64805" lon="-1.70534"><ele>86.32</ele></trkpt><trkpt lat="49.64805" lon="-1.70546"><ele>87.01</ele></trkpt><trkpt lat="49.64807" lon="-1.70562"><ele>87.9</ele></trkpt><trkpt lat="49.64808" lon="-1.70578"><ele>88.34</ele></trkpt><trkpt lat="49.64809" lon="-1.70589"><ele>88.78</ele></trkpt><trkpt lat="49.64809" lon="-1.70598"><ele>89.16</ele></trkpt><trkpt lat="49.6481" lon="-1.70617"><ele>89.87</ele></trkpt><trkpt lat="49.64811" lon="-1.70643"><ele>90.72</ele></trkpt><trkpt lat="49.64811" lon="-1.70645"><ele>90.78</ele></trkpt><trkpt lat="49.64811" lon="-1.70656"><ele>90.9</ele></trkpt><trkpt lat="49.64809" lon="-1.70666"><ele>90.59</ele></trkpt><trkpt lat="49.64849" lon="-1.70673"><ele>87.9</ele></trkpt><trkpt lat="49.64863" lon="-1.70676"><ele>87.02</ele></trkpt><trkpt lat="49.64871" lon="-1.70678"><ele>86.42</ele></trkpt><trkpt lat="49.64905" lon="-1.70687"><ele>84.32</ele></trkpt><trkpt lat="49.64932" lon="-1.70692"><ele>82.6</ele></trkpt><trkpt lat="49.64934" lon="-1.70692"><ele>82.6</ele></trkpt><trkpt lat="49.64945" lon="-1.70692"><ele>82.17</ele></trkpt><trkpt lat="49.6495" lon="-1.70691"><ele>82.07</ele></trkpt><trkpt lat="49.64953" lon="-1.7069"><ele>82.07</ele></trkpt><trkpt lat="49.64961" lon="-1.70685"><ele>82.01</ele></trkpt><trkpt lat="49.64968" lon="-1.70679"><ele>81.98</ele></trkpt><trkpt lat="49.64973" lon="-1.70674"><ele>82.22</ele></trkpt><trkpt lat="49.64985" lon="-1.70659"><ele>82.17</ele></trkpt><trkpt lat="49.65003" lon="-1.70631"><ele>82.28</ele></trkpt><trkpt lat="49.65009" lon="-1.70624"><ele>82.15</ele></trkpt><trkpt lat="49.65022" lon="-1.70606"><ele>81.87</ele></trkpt><trkpt lat="49.65037" lon="-1.7059"><ele>80.77</ele></trkpt><trkpt lat="49.65057" lon="-1.70568"><ele>79.01</ele></trkpt><trkpt lat="49.65066" lon="-1.70562"><ele>78.12</ele></trkpt><trkpt lat="49.65068" lon="-1.70561"><ele>78.12</ele></trkpt><trkpt lat="49.6508" lon="-1.70555"><ele>77.04</ele></trkpt><trkpt lat="49.65094" lon="-1.7055"><ele>75.83</ele></trkpt><trkpt lat="49.65113" lon="-1.70542"><ele>73.68</ele></trkpt><trkpt lat="49.65115" lon="-1.70541"><ele>73.72</ele></trkpt><trkpt lat="49.65125" lon="-1.70536"><ele>72.9</ele></trkpt><trkpt lat="49.65134" lon="-1.70532"><ele>71.55</ele></trkpt><trkpt lat="49.6514" lon="-1.70529"><ele>71.2</ele></trkpt><trkpt lat="49.65152" lon="-1.70524"><ele>70.05</ele></trkpt><trkpt lat="49.65158" lon="-1.70522"><ele>69.73</ele></trkpt><trkpt lat="49.65185" lon="-1.70511"><ele>67.53</ele></trkpt><trkpt lat="49.65193" lon="-1.70507"><ele>67</ele></trkpt><trkpt lat="49.65202" lon="-1.705"><ele>66.39</ele></trkpt><trkpt lat="49.65209" lon="-1.70494"><ele>65.72</ele></trkpt><trkpt lat="49.65216" lon="-1.70487"><ele>65.31</ele></trkpt><trkpt lat="49.65229" lon="-1.70469"><ele>64.4</ele></trkpt><trkpt lat="49.65231" lon="-1.70467"><ele>64.22</ele></trkpt><trkpt lat="49.65244" lon="-1.70448"><ele>63.73</ele></trkpt><trkpt lat="49.65271" lon="-1.70412"><ele>60.89</ele></trkpt><trkpt lat="49.65285" lon="-1.70393"><ele>59.58</ele></trkpt><trkpt lat="49.65298" lon="-1.70375"><ele>58.22</ele></trkpt><trkpt lat="49.65309" lon="-1.7036"><ele>56.92</ele></trkpt><trkpt lat="49.65312" lon="-1.70356"><ele>56.42</ele></trkpt><trkpt lat="49.65316" lon="-1.70349"><ele>56.45</ele></trkpt><trkpt lat="49.65323" lon="-1.70334"><ele>55.45</ele></trkpt><trkpt lat="49.65328" lon="-1.7032"><ele>54.59</ele></trkpt><trkpt lat="49.65333" lon="-1.70302"><ele>53.64</ele></trkpt><trkpt lat="49.65336" lon="-1.70287"><ele>52.14</ele></trkpt><trkpt lat="49.65337" lon="-1.70275"><ele>51.47</ele></trkpt><trkpt lat="49.65339" lon="-1.70266"><ele>50.66</ele></trkpt><trkpt lat="49.6534" lon="-1.70257"><ele>48.37</ele></trkpt><trkpt lat="49.65345" lon="-1.70246"><ele>46.96</ele></trkpt><trkpt lat="49.65357" lon="-1.70227"><ele>44.57</ele></trkpt><trkpt lat="49.6536" lon="-1.70222"><ele>44.06</ele></trkpt><trkpt lat="49.65366" lon="-1.70214"><ele>42.14</ele></trkpt><trkpt lat="49.65371" lon="-1.70208"><ele>41.89</ele></trkpt><trkpt lat="49.65372" lon="-1.70205"><ele>41.7</ele></trkpt><trkpt lat="49.65384" lon="-1.7019"><ele>40.42</ele></trkpt><trkpt lat="49.6539" lon="-1.70182"><ele>38.13</ele></trkpt><trkpt lat="49.65397" lon="-1.70175"><ele>36.41</ele></trkpt><trkpt lat="49.65407" lon="-1.70166"><ele>36.27</ele></trkpt><trkpt lat="49.65427" lon="-1.7015"><ele>36.22</ele></trkpt><trkpt lat="49.6543" lon="-1.70147"><ele>35.22</ele></trkpt><trkpt lat="49.65437" lon="-1.70141"><ele>33.12</ele></trkpt><trkpt lat="49.65444" lon="-1.70133"><ele>31.8</ele></trkpt><trkpt lat="49.65445" lon="-1.70132"><ele>31.8</ele></trkpt><trkpt lat="49.65459" lon="-1.70117"><ele>29.89</ele></trkpt><trkpt lat="49.6546" lon="-1.70116"><ele>29.43</ele></trkpt><trkpt lat="49.65471" lon="-1.70102"><ele>28.48</ele></trkpt><trkpt lat="49.65474" lon="-1.70098"><ele>28.01</ele></trkpt><trkpt lat="49.65479" lon="-1.70091"><ele>27.24</ele></trkpt><trkpt lat="49.65487" lon="-1.70079"><ele>26</ele></trkpt><trkpt lat="49.65495" lon="-1.70064"><ele>24.66</ele></trkpt><trkpt lat="49.65498" lon="-1.70059"><ele>24.68</ele></trkpt><trkpt lat="49.65498" lon="-1.70057"><ele>24.68</ele></trkpt><trkpt lat="49.65504" lon="-1.70044"><ele>23.41</ele></trkpt><trkpt lat="49.65508" lon="-1.70034"><ele>22.74</ele></trkpt><trkpt lat="49.6551" lon="-1.70031"><ele>22.74</ele></trkpt><trkpt lat="49.65518" lon="-1.7001"><ele>21.54</ele></trkpt><trkpt lat="49.65523" lon="-1.69996"><ele>21.16</ele></trkpt><trkpt lat="49.65527" lon="-1.69986"><ele>20.84</ele></trkpt><trkpt lat="49.65528" lon="-1.69983"><ele>20.69</ele></trkpt><trkpt lat="49.65536" lon="-1.69967"><ele>19.98</ele></trkpt><trkpt lat="49.65513" lon="-1.69968"><ele>20.57</ele></trkpt><trkpt lat="49.65514" lon="-1.69943"><ele>21.8</ele></trkpt><trkpt lat="49.65519" lon="-1.69911"><ele>23.89</ele></trkpt><trkpt lat="49.65519" lon="-1.69901"><ele>25.18</ele></trkpt><trkpt lat="49.65518" lon="-1.69889"><ele>25.89</ele></trkpt><trkpt lat="49.65517" lon="-1.69886"><ele>26.07</ele></trkpt><trkpt lat="49.65515" lon="-1.69865"><ele>28.94</ele></trkpt><trkpt lat="49.65514" lon="-1.69858"><ele>29.52</ele></trkpt><trkpt lat="49.65512" lon="-1.69836"><ele>29.15</ele></trkpt><trkpt lat="49.65512" lon="-1.69831"><ele>29.24</ele></trkpt><trkpt lat="49.65512" lon="-1.69825"><ele>29.06</ele></trkpt><trkpt lat="49.65512" lon="-1.6981"><ele>28.48</ele></trkpt><trkpt lat="49.65513" lon="-1.69803"><ele>28.25</ele></trkpt><trkpt lat="49.65513" lon="-1.69787"><ele>27.8</ele></trkpt><trkpt lat="49.65511" lon="-1.69776"><ele>28.37</ele></trkpt><trkpt lat="49.65506" lon="-1.69744"><ele>27.45</ele></trkpt><trkpt lat="49.65513" lon="-1.69719"><ele>26.05</ele></trkpt><trkpt lat="49.65519" lon="-1.69697"><ele>25.37</ele></trkpt><trkpt lat="49.65529" lon="-1.69668"><ele>22.61</ele></trkpt><trkpt lat="49.65532" lon="-1.69659"><ele>22.65</ele></trkpt><trkpt lat="49.65536" lon="-1.69647"><ele>23.24</ele></trkpt><trkpt lat="49.65555" lon="-1.69606"><ele>19.84</ele></trkpt><trkpt lat="49.65573" lon="-1.6956"><ele>20.54</ele></trkpt><trkpt lat="49.65571" lon="-1.69551"><ele>21.17</ele></trkpt><trkpt lat="49.65567" lon="-1.69526"><ele>22.27</ele></trkpt><trkpt lat="49.65558" lon="-1.6949"><ele>22.34</ele></trkpt><trkpt lat="49.65579" lon="-1.69483"><ele>20.89</ele></trkpt><trkpt lat="49.65592" lon="-1.69467"><ele>22.49</ele></trkpt><trkpt lat="49.65599" lon="-1.69461"><ele>23.02</ele></trkpt><trkpt lat="49.65609" lon="-1.69452"><ele>23.51</ele></trkpt><trkpt lat="49.65611" lon="-1.69449"><ele>23.57</ele></trkpt><trkpt lat="49.65627" lon="-1.69432"><ele>23.71</ele></trkpt><trkpt lat="49.65642" lon="-1.69416"><ele>23.11</ele></trkpt><trkpt lat="49.65657" lon="-1.69402"><ele>22.38</ele></trkpt><trkpt lat="49.65662" lon="-1.69396"><ele>21.63</ele></trkpt><trkpt lat="49.65685" lon="-1.69369"><ele>21.86</ele></trkpt><trkpt lat="49.65689" lon="-1.69365"><ele>22.34</ele></trkpt><trkpt lat="49.65698" lon="-1.6935"><ele>22.14</ele></trkpt><trkpt lat="49.6571" lon="-1.69331"><ele>21.16</ele></trkpt><trkpt lat="49.65719" lon="-1.69312"><ele>20.39</ele></trkpt><trkpt lat="49.65724" lon="-1.69299"><ele>20.23</ele></trkpt><trkpt lat="49.65726" lon="-1.69273"><ele>19.3</ele></trkpt><trkpt lat="49.65727" lon="-1.69267"><ele>19.45</ele></trkpt><trkpt lat="49.65727" lon="-1.69238"><ele>19.8</ele></trkpt><trkpt lat="49.65727" lon="-1.69218"><ele>20.05</ele></trkpt><trkpt lat="49.65726" lon="-1.69203"><ele>20.19</ele></trkpt><trkpt lat="49.65726" lon="-1.6919"><ele>20.37</ele></trkpt><trkpt lat="49.65725" lon="-1.69176"><ele>21.55</ele></trkpt><trkpt lat="49.65727" lon="-1.69145"><ele>21.19</ele></trkpt><trkpt lat="49.65727" lon="-1.69128"><ele>21.41</ele></trkpt><trkpt lat="49.65728" lon="-1.69118"><ele>21.55</ele></trkpt><trkpt lat="49.65729" lon="-1.69091"><ele>22.28</ele></trkpt><trkpt lat="49.6573" lon="-1.6909"><ele>22.44</ele></trkpt><trkpt lat="49.65731" lon="-1.69063"><ele>22.68</ele></trkpt><trkpt lat="49.65731" lon="-1.69062"><ele>22.68</ele></trkpt><trkpt lat="49.65732" lon="-1.69035"><ele>23.18</ele></trkpt><trkpt lat="49.65734" lon="-1.6901"><ele>23.56</ele></trkpt><trkpt lat="49.65734" lon="-1.69002"><ele>23.74</ele></trkpt><trkpt lat="49.65731" lon="-1.68978"><ele>23.95</ele></trkpt><trkpt lat="49.65729" lon="-1.68976"><ele>24.2</ele></trkpt><trkpt lat="49.65732" lon="-1.68969"><ele>23.77</ele></trkpt><trkpt lat="49.65743" lon="-1.68937"><ele>22.49</ele></trkpt><trkpt lat="49.65756" lon="-1.68908"><ele>21.17</ele></trkpt><trkpt lat="49.65757" lon="-1.68908"><ele>21.17</ele></trkpt><trkpt lat="49.6575" lon="-1.68901"><ele>21.46</ele></trkpt><trkpt lat="49.65747" lon="-1.68897"><ele>21.66</ele></trkpt><trkpt lat="49.65729" lon="-1.68875"><ele>23.62</ele></trkpt><trkpt lat="49.65721" lon="-1.68867"><ele>24.61</ele></trkpt><trkpt lat="49.65717" lon="-1.68862"><ele>25.12</ele></trkpt><trkpt lat="49.65718" lon="-1.68858"><ele>24.83</ele></trkpt><trkpt lat="49.6572" lon="-1.68859"><ele>24.83</ele></trkpt><trkpt lat="49.65718" lon="-1.68819"><ele>23.91</ele></trkpt><trkpt lat="49.65718" lon="-1.68807"><ele>23.63</ele></trkpt><trkpt lat="49.65716" lon="-1.68785"><ele>24.31</ele></trkpt><trkpt lat="49.65716" lon="-1.68779"><ele>24.07</ele></trkpt><trkpt lat="49.65713" lon="-1.68749"><ele>24.4</ele></trkpt><trkpt lat="49.65711" lon="-1.68739"><ele>23.25</ele></trkpt><trkpt lat="49.65704" lon="-1.68709"><ele>22.86</ele></trkpt><trkpt lat="49.65701" lon="-1.68696"><ele>22.16</ele></trkpt><trkpt lat="49.65697" lon="-1.68682"><ele>21.8</ele></trkpt><trkpt lat="49.65683" lon="-1.68634"><ele>20.82</ele></trkpt><trkpt lat="49.65683" lon="-1.68633"><ele>20.82</ele></trkpt><trkpt lat="49.65677" lon="-1.68606"><ele>21.15</ele></trkpt><trkpt lat="49.65676" lon="-1.68602"><ele>20.58</ele></trkpt><trkpt lat="49.6567" lon="-1.68577"><ele>20.35</ele></trkpt><trkpt lat="49.65662" lon="-1.68548"><ele>19.09</ele></trkpt><trkpt lat="49.65656" lon="-1.6853"><ele>18.96</ele></trkpt><trkpt lat="49.65652" lon="-1.68515"><ele>19.22</ele></trkpt><trkpt lat="49.65648" lon="-1.68498"><ele>19.42</ele></trkpt><trkpt lat="49.65646" lon="-1.68474"><ele>17.7</ele></trkpt><trkpt lat="49.65647" lon="-1.6847"><ele>17.5</ele></trkpt><trkpt lat="49.65648" lon="-1.68466"><ele>17.37</ele></trkpt><trkpt lat="49.6566" lon="-1.68452"><ele>17.12</ele></trkpt><trkpt lat="49.65634" lon="-1.68402"><ele>16.4</ele></trkpt><trkpt lat="49.65624" lon="-1.68377"><ele>16.08</ele></trkpt><trkpt lat="49.65602" lon="-1.68333"><ele>15.74</ele></trkpt><trkpt lat="49.65594" lon="-1.6832"><ele>15.76</ele></trkpt><trkpt lat="49.65586" lon="-1.68295"><ele>15.98</ele></trkpt><trkpt lat="49.65578" lon="-1.6827"><ele>16.32</ele></trkpt><trkpt lat="49.65576" lon="-1.68263"><ele>16.29</ele></trkpt><trkpt lat="49.6558" lon="-1.68258"><ele>16.09</ele></trkpt><trkpt lat="49.65585" lon="-1.68249"><ele>15.92</ele></trkpt><trkpt lat="49.65591" lon="-1.68228"><ele>15.6</ele></trkpt><trkpt lat="49.65602" lon="-1.68187"><ele>15.05</ele></trkpt></trkseg></trk></gpx>
