<?xml version="1.0" encoding="UTF-8" standalone="no"?>
<gpx xmlns="http://www.topografix.com/GPX/1/1" version="1.1" xmlns:xsi="http://www.w3.org/2001/XMLSchema-instance" xsi:schemaLocation="http://www.topografix.com/GPX/1/1 http://www.topografix.com/GPX/1/1/gpx.xsd" creator="Cirkwi"><metadata><name><![CDATA[Sur les pas de Jean-François Millet - n°101]]></name><desc><![CDATA[Les lumières de la Hague sont incomparables et depuis toujours elles inspirent les artistes. Comme sous le pinceau de J.F Millet ou à travers la caméra de Polanski dans le fameux film «Tess», vous découvrirez au fil de cette balade des paysages sublimes. Partez du hameau de Gruchy, en descendant vers la Maison Natale de Jean-Françoise Millet puis suivez le sentier littoral (Gréville-Hague).  Autres départs possibles (Omonville-la-Rogue, La Hague) :   Du port du Hâble en longeant le port puis traversez le parking vers le camping, ou, Du Tourp, Maison de la Hague, en passant devant le manoir et l'auberge sur une route avant de continuer sur un chemin.   Coordonnées GPS :   49°40'50.8"N, 1°47'30.4"W - Gruchy  49°42'23.5"N, 1°50'11.5"W - Port du Hâble 49°41'18.1"N, 1°50'15.6"W - Le Tourp, Maison de la Hague  Suivez le circuit selon le sens inverse des aiguilles d'une montre. Le balisage est de couleur jaune. Le long du littoral, suivez le balisage du GR223 (rouge et blanc). Vous retrouverez ce circuit dans le topoguide "La Hague - Des Pieux et autour de Martinvast "de l'Office de tourisme du Cotentin.   Le sentier du littoral peut être très humide par portions l'hiver. Prévoyez des chaussures adaptées. Départ accessible avec le réseau de bus Cap Cotentin à l'arrêt "Gréville-Hague - Mairie" (à 1.1 km du circuit) - (plus d'infos sur capcotentin.fr)]]></desc><author><name><![CDATA[Cotentin unique]]></name></author><link href="http://fichier0.cirkwi.com/image/photo/circuit/1300x1300/60166/fr/0.jpg"><text><![CDATA[|]]></text></link><link href="http://fichier0.cirkwi.com/image/photo/circuit/1300x1300/60166/fr/1.jpg"><text><![CDATA[|© B. Almodovar]]></text></link><link href="http://fichier0.cirkwi.com/image/photo/circuit/1300x1300/60166/fr/2.jpg"><text><![CDATA[|© B. Almodovar]]></text></link><link href="http://fichier0.cirkwi.com/image/photo/circuit/1300x1300/60166/fr/3.jpg"><text><![CDATA[|© B. Almodovar]]></text></link><link href="http://fichier0.cirkwi.com/image/photo/circuit/1300x1300/60166/fr/4.jpg"><text><![CDATA[|© Cap Cotentin]]></text></link><link href="http://fichier0.cirkwi.com/image/photo/circuit/1300x1300/60166/fr/5.jpg"><text><![CDATA[|© Cap Cotentin]]></text></link><link href="http://fichier0.cirkwi.com/image/photo/circuit/1300x1300/60166/fr/6.jpg"><text><![CDATA[|© Cap Cotentin]]></text></link><time>2026-08-17T08:54:16Z</time></metadata><trk><trkseg><trkpt lat="49.6822" lon="-1.79126"><ele>93.9</ele></trkpt><trkpt lat="49.68228" lon="-1.79127"><ele>93.5</ele></trkpt><trkpt lat="49.68236" lon="-1.79128"><ele>93.29</ele></trkpt><trkpt lat="49.68242" lon="-1.79124"><ele>92.83</ele></trkpt><trkpt lat="49.68251" lon="-1.7912"><ele>92.37</ele></trkpt><trkpt lat="49.68255" lon="-1.79119"><ele>92.04</ele></trkpt><trkpt lat="49.68259" lon="-1.7912"><ele>91.63</ele></trkpt><trkpt lat="49.68268" lon="-1.79124"><ele>90.93</ele></trkpt><trkpt lat="49.68275" lon="-1.79125"><ele>90.8</ele></trkpt><trkpt lat="49.68282" lon="-1.79125"><ele>90.07</ele></trkpt><trkpt lat="49.68289" lon="-1.79124"><ele>89.52</ele></trkpt><trkpt lat="49.68301" lon="-1.79123"><ele>88.62</ele></trkpt><trkpt lat="49.6831" lon="-1.7912"><ele>87.81</ele></trkpt><trkpt lat="49.68322" lon="-1.79117"><ele>87.29</ele></trkpt><trkpt lat="49.68331" lon="-1.79111"><ele>86.7</ele></trkpt><trkpt lat="49.6834" lon="-1.79106"><ele>85.94</ele></trkpt><trkpt lat="49.68348" lon="-1.791"><ele>85.55</ele></trkpt><trkpt lat="49.68358" lon="-1.79095"><ele>84.63</ele></trkpt><trkpt lat="49.68366" lon="-1.79093"><ele>84.47</ele></trkpt><trkpt lat="49.68366" lon="-1.79092"><ele>84.47</ele></trkpt><trkpt lat="49.68358" lon="-1.79095"><ele>84.63</ele></trkpt><trkpt lat="49.68363" lon="-1.79078"><ele>83.96</ele></trkpt><trkpt lat="49.6837" lon="-1.79067"><ele>82.59</ele></trkpt><trkpt lat="49.68378" lon="-1.7906"><ele>82.16</ele></trkpt><trkpt lat="49.68382" lon="-1.79057"><ele>81.54</ele></trkpt><trkpt lat="49.68385" lon="-1.79055"><ele>80.85</ele></trkpt><trkpt lat="49.68397" lon="-1.7905"><ele>79.34</ele></trkpt><trkpt lat="49.684" lon="-1.7905"><ele>78.87</ele></trkpt><trkpt lat="49.68409" lon="-1.79047"><ele>77.83</ele></trkpt><trkpt lat="49.68412" lon="-1.79047"><ele>77.83</ele></trkpt><trkpt lat="49.68424" lon="-1.79044"><ele>75.76</ele></trkpt><trkpt lat="49.6843" lon="-1.79042"><ele>74.34</ele></trkpt><trkpt lat="49.68436" lon="-1.79037"><ele>73.71</ele></trkpt><trkpt lat="49.68439" lon="-1.79033"><ele>73</ele></trkpt><trkpt lat="49.68443" lon="-1.79028"><ele>72.1</ele></trkpt><trkpt lat="49.68446" lon="-1.79024"><ele>72.09</ele></trkpt><trkpt lat="49.6845" lon="-1.79018"><ele>70.91</ele></trkpt><trkpt lat="49.68456" lon="-1.79011"><ele>68.64</ele></trkpt><trkpt lat="49.68464" lon="-1.79001"><ele>67.34</ele></trkpt><trkpt lat="49.68472" lon="-1.78993"><ele>66.64</ele></trkpt><trkpt lat="49.68477" lon="-1.78989"><ele>64.85</ele></trkpt><trkpt lat="49.68478" lon="-1.78988"><ele>64.85</ele></trkpt><trkpt lat="49.68481" lon="-1.78984"><ele>65.83</ele></trkpt><trkpt lat="49.68484" lon="-1.78984"><ele>64.41</ele></trkpt><trkpt lat="49.68486" lon="-1.78983"><ele>62.39</ele></trkpt><trkpt lat="49.68488" lon="-1.78982"><ele>63.51</ele></trkpt><trkpt lat="49.6849" lon="-1.7898"><ele>61.7</ele></trkpt><trkpt lat="49.68491" lon="-1.78978"><ele>62.34</ele></trkpt><trkpt lat="49.68492" lon="-1.78977"><ele>62.34</ele></trkpt><trkpt lat="49.68494" lon="-1.78972"><ele>60.35</ele></trkpt><trkpt lat="49.68501" lon="-1.78951"><ele>58.26</ele></trkpt><trkpt lat="49.68505" lon="-1.7895"><ele>56.59</ele></trkpt><trkpt lat="49.68513" lon="-1.78949"><ele>52.95</ele></trkpt><trkpt lat="49.68515" lon="-1.78949"><ele>52.95</ele></trkpt><trkpt lat="49.68519" lon="-1.7895"><ele>51.26</ele></trkpt><trkpt lat="49.68522" lon="-1.78951"><ele>49.49</ele></trkpt><trkpt lat="49.68526" lon="-1.78952"><ele>47.64</ele></trkpt><trkpt lat="49.6853" lon="-1.78952"><ele>45.87</ele></trkpt><trkpt lat="49.68534" lon="-1.78951"><ele>44.06</ele></trkpt><trkpt lat="49.6854" lon="-1.78948"><ele>42.13</ele></trkpt><trkpt lat="49.68548" lon="-1.7894"><ele>37.55</ele></trkpt><trkpt lat="49.68552" lon="-1.78937"><ele>35.39</ele></trkpt><trkpt lat="49.68558" lon="-1.78931"><ele>33.8</ele></trkpt><trkpt lat="49.68568" lon="-1.78921"><ele>27.87</ele></trkpt><trkpt lat="49.68568" lon="-1.78928"><ele>26.83</ele></trkpt><trkpt lat="49.68569" lon="-1.7893"><ele>26.83</ele></trkpt><trkpt lat="49.6857" lon="-1.78931"><ele>26.83</ele></trkpt><trkpt lat="49.68571" lon="-1.7893"><ele>26.83</ele></trkpt><trkpt lat="49.68572" lon="-1.78929"><ele>25.2</ele></trkpt><trkpt lat="49.68573" lon="-1.78929"><ele>25.2</ele></trkpt><trkpt lat="49.68574" lon="-1.78929"><ele>25.2</ele></trkpt><trkpt lat="49.68575" lon="-1.78929"><ele>25.2</ele></trkpt><trkpt lat="49.68576" lon="-1.7893"><ele>24.02</ele></trkpt><trkpt lat="49.68578" lon="-1.78931"><ele>24.02</ele></trkpt><trkpt lat="49.68579" lon="-1.78933"><ele>25.11</ele></trkpt><trkpt lat="49.68579" lon="-1.78934"><ele>25.11</ele></trkpt><trkpt lat="49.68581" lon="-1.78939"><ele>24.51</ele></trkpt><trkpt lat="49.68582" lon="-1.78943"><ele>25.48</ele></trkpt><trkpt lat="49.68583" lon="-1.78945"><ele>26.65</ele></trkpt><trkpt lat="49.68583" lon="-1.78948"><ele>26.65</ele></trkpt><trkpt lat="49.68584" lon="-1.7895"><ele>27.83</ele></trkpt><trkpt lat="49.68585" lon="-1.78952"><ele>26.63</ele></trkpt><trkpt lat="49.68587" lon="-1.78954"><ele>27.8</ele></trkpt><trkpt lat="49.68589" lon="-1.78956"><ele>26.32</ele></trkpt><trkpt lat="49.68591" lon="-1.78958"><ele>27.4</ele></trkpt><trkpt lat="49.68594" lon="-1.78962"><ele>26.97</ele></trkpt><trkpt lat="49.68596" lon="-1.78966"><ele>28.18</ele></trkpt><trkpt lat="49.68598" lon="-1.78971"><ele>27.79</ele></trkpt><trkpt lat="49.686" lon="-1.78973"><ele>27.79</ele></trkpt><trkpt lat="49.68602" lon="-1.78976"><ele>28.07</ele></trkpt><trkpt lat="49.6861" lon="-1.78986"><ele>29.49</ele></trkpt><trkpt lat="49.68614" lon="-1.78989"><ele>30.64</ele></trkpt><trkpt lat="49.68616" lon="-1.78992"><ele>30.47</ele></trkpt><trkpt lat="49.68617" lon="-1.78992"><ele>30.47</ele></trkpt><trkpt lat="49.68618" lon="-1.78994"><ele>30.47</ele></trkpt><trkpt lat="49.6862" lon="-1.78997"><ele>29</ele></trkpt><trkpt lat="49.68621" lon="-1.78998"><ele>29</ele></trkpt><trkpt lat="49.68621" lon="-1.79001"><ele>28.8</ele></trkpt><trkpt lat="49.68622" lon="-1.79005"><ele>28.29</ele></trkpt><trkpt lat="49.68623" lon="-1.79007"><ele>26.38</ele></trkpt><trkpt lat="49.68623" lon="-1.79008"><ele>26.38</ele></trkpt><trkpt lat="49.68625" lon="-1.79017"><ele>26.37</ele></trkpt><trkpt lat="49.68628" lon="-1.79025"><ele>23.75</ele></trkpt><trkpt lat="49.68629" lon="-1.79028"><ele>24.98</ele></trkpt><trkpt lat="49.6863" lon="-1.79035"><ele>26.24</ele></trkpt><trkpt lat="49.68639" lon="-1.79065"><ele>23.12</ele></trkpt><trkpt lat="49.68641" lon="-1.7907"><ele>22.06</ele></trkpt><trkpt lat="49.68643" lon="-1.79074"><ele>23.12</ele></trkpt><trkpt lat="49.68643" lon="-1.79076"><ele>23.12</ele></trkpt><trkpt lat="49.68644" lon="-1.79079"><ele>23.61</ele></trkpt><trkpt lat="49.68644" lon="-1.79083"><ele>23.66</ele></trkpt><trkpt lat="49.68644" lon="-1.79092"><ele>24.4</ele></trkpt><trkpt lat="49.68644" lon="-1.79093"><ele>24.4</ele></trkpt><trkpt lat="49.68644" lon="-1.79105"><ele>25.59</ele></trkpt><trkpt lat="49.68644" lon="-1.79115"><ele>24.43</ele></trkpt><trkpt lat="49.68643" lon="-1.79123"><ele>22.93</ele></trkpt><trkpt lat="49.68643" lon="-1.79131"><ele>20.61</ele></trkpt><trkpt lat="49.68642" lon="-1.79135"><ele>20.09</ele></trkpt><trkpt lat="49.68641" lon="-1.79139"><ele>20.03</ele></trkpt><trkpt lat="49.6864" lon="-1.79142"><ele>19.87</ele></trkpt><trkpt lat="49.6864" lon="-1.79145"><ele>19.87</ele></trkpt><trkpt lat="49.6864" lon="-1.79147"><ele>19.55</ele></trkpt><trkpt lat="49.6864" lon="-1.79149"><ele>19.55</ele></trkpt><trkpt lat="49.6864" lon="-1.79153"><ele>19.25</ele></trkpt><trkpt lat="49.68639" lon="-1.79158"><ele>20.33</ele></trkpt><trkpt lat="49.68639" lon="-1.79161"><ele>20.3</ele></trkpt><trkpt lat="49.68637" lon="-1.79167"><ele>20.6</ele></trkpt><trkpt lat="49.68636" lon="-1.79168"><ele>21.04</ele></trkpt><trkpt lat="49.68634" lon="-1.79172"><ele>22.4</ele></trkpt><trkpt lat="49.68632" lon="-1.79177"><ele>22.58</ele></trkpt><trkpt lat="49.68631" lon="-1.79179"><ele>24.06</ele></trkpt><trkpt lat="49.68631" lon="-1.79182"><ele>24.11</ele></trkpt><trkpt lat="49.68631" lon="-1.79184"><ele>24.11</ele></trkpt><trkpt lat="49.68632" lon="-1.79188"><ele>22.61</ele></trkpt><trkpt lat="49.68633" lon="-1.79197"><ele>22.33</ele></trkpt><trkpt lat="49.68633" lon="-1.79199"><ele>22.39</ele></trkpt><trkpt lat="49.68633" lon="-1.79207"><ele>22.51</ele></trkpt><trkpt lat="49.68633" lon="-1.79218"><ele>22.38</ele></trkpt><trkpt lat="49.68632" lon="-1.79228"><ele>22.69</ele></trkpt><trkpt lat="49.6863" lon="-1.79244"><ele>23.8</ele></trkpt><trkpt lat="49.68626" lon="-1.79262"><ele>24.84</ele></trkpt><trkpt lat="49.68623" lon="-1.79283"><ele>24.74</ele></trkpt><trkpt lat="49.68621" lon="-1.79301"><ele>25.55</ele></trkpt><trkpt lat="49.68621" lon="-1.79308"><ele>25.8</ele></trkpt><trkpt lat="49.6862" lon="-1.79313"><ele>25.76</ele></trkpt><trkpt lat="49.6862" lon="-1.79326"><ele>25.92</ele></trkpt><trkpt lat="49.68621" lon="-1.79335"><ele>26.45</ele></trkpt><trkpt lat="49.68621" lon="-1.79336"><ele>26.45</ele></trkpt><trkpt lat="49.6862" lon="-1.79344"><ele>26.38</ele></trkpt><trkpt lat="49.68621" lon="-1.79357"><ele>26.84</ele></trkpt><trkpt lat="49.68623" lon="-1.79368"><ele>25.92</ele></trkpt><trkpt lat="49.68625" lon="-1.7938"><ele>26.31</ele></trkpt><trkpt lat="49.68627" lon="-1.79388"><ele>25.33</ele></trkpt><trkpt lat="49.68627" lon="-1.7939"><ele>25.33</ele></trkpt><trkpt lat="49.6863" lon="-1.79396"><ele>25.48</ele></trkpt><trkpt lat="49.68634" lon="-1.79404"><ele>24.69</ele></trkpt><trkpt lat="49.68636" lon="-1.79411"><ele>23.57</ele></trkpt><trkpt lat="49.6864" lon="-1.7942"><ele>22.71</ele></trkpt><trkpt lat="49.68641" lon="-1.79425"><ele>22.82</ele></trkpt><trkpt lat="49.68644" lon="-1.79433"><ele>22.91</ele></trkpt><trkpt lat="49.68646" lon="-1.79442"><ele>22.08</ele></trkpt><trkpt lat="49.68649" lon="-1.79459"><ele>21.33</ele></trkpt><trkpt lat="49.68649" lon="-1.79464"><ele>21.38</ele></trkpt><trkpt lat="49.6865" lon="-1.79467"><ele>21.38</ele></trkpt><trkpt lat="49.68651" lon="-1.79474"><ele>21.7</ele></trkpt><trkpt lat="49.68654" lon="-1.79486"><ele>20.97</ele></trkpt><trkpt lat="49.68654" lon="-1.79491"><ele>21.09</ele></trkpt><trkpt lat="49.68655" lon="-1.79512"><ele>21.1</ele></trkpt><trkpt lat="49.68655" lon="-1.79526"><ele>21.18</ele></trkpt><trkpt lat="49.68657" lon="-1.79534"><ele>21.2</ele></trkpt><trkpt lat="49.68656" lon="-1.79545"><ele>20.34</ele></trkpt><trkpt lat="49.68655" lon="-1.79556"><ele>19.16</ele></trkpt><trkpt lat="49.68654" lon="-1.79563"><ele>17.59</ele></trkpt><trkpt lat="49.68654" lon="-1.79571"><ele>20.4</ele></trkpt><trkpt lat="49.68655" lon="-1.79572"><ele>20.4</ele></trkpt><trkpt lat="49.68657" lon="-1.79572"><ele>20.4</ele></trkpt><trkpt lat="49.68661" lon="-1.79573"><ele>20.05</ele></trkpt><trkpt lat="49.68664" lon="-1.79575"><ele>20.67</ele></trkpt><trkpt lat="49.68667" lon="-1.79578"><ele>19.9</ele></trkpt><trkpt lat="49.6867" lon="-1.79583"><ele>19.67</ele></trkpt><trkpt lat="49.68673" lon="-1.79588"><ele>20.51</ele></trkpt><trkpt lat="49.68679" lon="-1.79595"><ele>19.31</ele></trkpt><trkpt lat="49.68683" lon="-1.79599"><ele>19.01</ele></trkpt><trkpt lat="49.68685" lon="-1.79603"><ele>19.43</ele></trkpt><trkpt lat="49.68686" lon="-1.79609"><ele>20.15</ele></trkpt><trkpt lat="49.68692" lon="-1.79613"><ele>19.48</ele></trkpt><trkpt lat="49.68696" lon="-1.79618"><ele>19.41</ele></trkpt><trkpt lat="49.68697" lon="-1.79624"><ele>19.85</ele></trkpt><trkpt lat="49.68698" lon="-1.79629"><ele>20.36</ele></trkpt><trkpt lat="49.68701" lon="-1.79633"><ele>20.24</ele></trkpt><trkpt lat="49.68717" lon="-1.79664"><ele>20.49</ele></trkpt><trkpt lat="49.68722" lon="-1.79676"><ele>19.77</ele></trkpt><trkpt lat="49.68726" lon="-1.79683"><ele>19.45</ele></trkpt><trkpt lat="49.68728" lon="-1.79693"><ele>20.33</ele></trkpt><trkpt lat="49.6873" lon="-1.79698"><ele>19.81</ele></trkpt><trkpt lat="49.68737" lon="-1.79706"><ele>20.18</ele></trkpt><trkpt lat="49.68746" lon="-1.7972"><ele>20.85</ele></trkpt><trkpt lat="49.68749" lon="-1.79724"><ele>21.02</ele></trkpt><trkpt lat="49.68751" lon="-1.79728"><ele>22.33</ele></trkpt><trkpt lat="49.68757" lon="-1.79735"><ele>22.07</ele></trkpt><trkpt lat="49.68764" lon="-1.79747"><ele>22.08</ele></trkpt><trkpt lat="49.68769" lon="-1.79774"><ele>18.85</ele></trkpt><trkpt lat="49.68771" lon="-1.79799"><ele>19.98</ele></trkpt><trkpt lat="49.68776" lon="-1.79812"><ele>19.29</ele></trkpt><trkpt lat="49.68782" lon="-1.79845"><ele>17.68</ele></trkpt><trkpt lat="49.68785" lon="-1.79881"><ele>19.24</ele></trkpt><trkpt lat="49.68787" lon="-1.79906"><ele>17.14</ele></trkpt><trkpt lat="49.68787" lon="-1.79916"><ele>16.9</ele></trkpt><trkpt lat="49.68784" lon="-1.79931"><ele>18.3</ele></trkpt><trkpt lat="49.68784" lon="-1.79936"><ele>18.39</ele></trkpt><trkpt lat="49.68784" lon="-1.7995"><ele>18.32</ele></trkpt><trkpt lat="49.68782" lon="-1.79978"><ele>17.92</ele></trkpt><trkpt lat="49.68778" lon="-1.80015"><ele>19.25</ele></trkpt><trkpt lat="49.68774" lon="-1.80029"><ele>19.94</ele></trkpt><trkpt lat="49.68771" lon="-1.80055"><ele>20.4</ele></trkpt><trkpt lat="49.68771" lon="-1.80063"><ele>20.02</ele></trkpt><trkpt lat="49.68763" lon="-1.801"><ele>21.08</ele></trkpt><trkpt lat="49.68762" lon="-1.80105"><ele>21.02</ele></trkpt><trkpt lat="49.68762" lon="-1.80124"><ele>20.8</ele></trkpt><trkpt lat="49.68762" lon="-1.80126"><ele>20.67</ele></trkpt><trkpt lat="49.68758" lon="-1.80145"><ele>20.24</ele></trkpt><trkpt lat="49.68755" lon="-1.80153"><ele>21.62</ele></trkpt><trkpt lat="49.68749" lon="-1.80161"><ele>22.02</ele></trkpt><trkpt lat="49.68748" lon="-1.80164"><ele>20.42</ele></trkpt><trkpt lat="49.68743" lon="-1.80182"><ele>22.53</ele></trkpt><trkpt lat="49.68742" lon="-1.80189"><ele>25.78</ele></trkpt><trkpt lat="49.68742" lon="-1.802"><ele>26.27</ele></trkpt><trkpt lat="49.68742" lon="-1.80201"><ele>26.27</ele></trkpt><trkpt lat="49.68745" lon="-1.80215"><ele>25.1</ele></trkpt><trkpt lat="49.68746" lon="-1.80228"><ele>25.4</ele></trkpt><trkpt lat="49.68747" lon="-1.80235"><ele>25.5</ele></trkpt><trkpt lat="49.68746" lon="-1.80248"><ele>25.84</ele></trkpt><trkpt lat="49.68744" lon="-1.80256"><ele>24.75</ele></trkpt><trkpt lat="49.68742" lon="-1.80262"><ele>27.04</ele></trkpt><trkpt lat="49.68744" lon="-1.80274"><ele>25.79</ele></trkpt><trkpt lat="49.68743" lon="-1.80284"><ele>26.11</ele></trkpt><trkpt lat="49.68746" lon="-1.80298"><ele>25.89</ele></trkpt><trkpt lat="49.68745" lon="-1.80318"><ele>26.04</ele></trkpt><trkpt lat="49.68748" lon="-1.80363"><ele>24.82</ele></trkpt><trkpt lat="49.68748" lon="-1.80367"><ele>24.73</ele></trkpt><trkpt lat="49.68748" lon="-1.8037"><ele>24.64</ele></trkpt><trkpt lat="49.68748" lon="-1.8042"><ele>22.66</ele></trkpt><trkpt lat="49.68748" lon="-1.80424"><ele>22.73</ele></trkpt><trkpt lat="49.6875" lon="-1.80442"><ele>23.44</ele></trkpt><trkpt lat="49.68751" lon="-1.80508"><ele>23.53</ele></trkpt><trkpt lat="49.68749" lon="-1.80513"><ele>23.42</ele></trkpt><trkpt lat="49.68745" lon="-1.8052"><ele>24.17</ele></trkpt><trkpt lat="49.68745" lon="-1.80526"><ele>24</ele></trkpt><trkpt lat="49.68745" lon="-1.80529"><ele>23.85</ele></trkpt><trkpt lat="49.68743" lon="-1.80547"><ele>23.82</ele></trkpt><trkpt lat="49.68744" lon="-1.80555"><ele>24.14</ele></trkpt><trkpt lat="49.68745" lon="-1.80583"><ele>25.26</ele></trkpt><trkpt lat="49.68746" lon="-1.80602"><ele>25.48</ele></trkpt><trkpt lat="49.6875" lon="-1.80612"><ele>24.59</ele></trkpt><trkpt lat="49.68753" lon="-1.80613"><ele>23.78</ele></trkpt><trkpt lat="49.68758" lon="-1.8062"><ele>22.92</ele></trkpt><trkpt lat="49.68759" lon="-1.80652"><ele>22.13</ele></trkpt><trkpt lat="49.68765" lon="-1.80663"><ele>19.33</ele></trkpt><trkpt lat="49.68767" lon="-1.80673"><ele>19.16</ele></trkpt><trkpt lat="49.68768" lon="-1.8068"><ele>18.99</ele></trkpt><trkpt lat="49.68768" lon="-1.80681"><ele>18.99</ele></trkpt><trkpt lat="49.68774" lon="-1.80695"><ele>16.84</ele></trkpt><trkpt lat="49.68775" lon="-1.807"><ele>16.51</ele></trkpt><trkpt lat="49.68777" lon="-1.80705"><ele>16.4</ele></trkpt><trkpt lat="49.68778" lon="-1.80708"><ele>15.09</ele></trkpt><trkpt lat="49.68779" lon="-1.80711"><ele>15.09</ele></trkpt><trkpt lat="49.68783" lon="-1.8072"><ele>15.83</ele></trkpt><trkpt lat="49.68788" lon="-1.80725"><ele>16.23</ele></trkpt><trkpt lat="49.68789" lon="-1.80726"><ele>17.53</ele></trkpt><trkpt lat="49.68792" lon="-1.80731"><ele>17.36</ele></trkpt><trkpt lat="49.68797" lon="-1.80749"><ele>20.31</ele></trkpt><trkpt lat="49.68799" lon="-1.80756"><ele>20.77</ele></trkpt><trkpt lat="49.68808" lon="-1.80776"><ele>21.5</ele></trkpt><trkpt lat="49.68808" lon="-1.80797"><ele>24.76</ele></trkpt><trkpt lat="49.68807" lon="-1.80799"><ele>26.59</ele></trkpt><trkpt lat="49.68806" lon="-1.80814"><ele>28.03</ele></trkpt><trkpt lat="49.68808" lon="-1.80827"><ele>27.87</ele></trkpt><trkpt lat="49.68811" lon="-1.80836"><ele>28.46</ele></trkpt><trkpt lat="49.68818" lon="-1.80843"><ele>27.26</ele></trkpt><trkpt lat="49.68821" lon="-1.80845"><ele>26.06</ele></trkpt><trkpt lat="49.68827" lon="-1.80849"><ele>25.43</ele></trkpt><trkpt lat="49.68837" lon="-1.80857"><ele>24.88</ele></trkpt><trkpt lat="49.68855" lon="-1.80871"><ele>21.62</ele></trkpt><trkpt lat="49.68868" lon="-1.80885"><ele>22.45</ele></trkpt><trkpt lat="49.68869" lon="-1.80887"><ele>22.45</ele></trkpt><trkpt lat="49.6889" lon="-1.80915"><ele>23.01</ele></trkpt><trkpt lat="49.68892" lon="-1.80928"><ele>24.88</ele></trkpt><trkpt lat="49.68896" lon="-1.80937"><ele>23.99</ele></trkpt><trkpt lat="49.68897" lon="-1.80948"><ele>26.06</ele></trkpt><trkpt lat="49.68898" lon="-1.80949"><ele>24.39</ele></trkpt><trkpt lat="49.68908" lon="-1.80966"><ele>22.48</ele></trkpt><trkpt lat="49.68908" lon="-1.80973"><ele>22.26</ele></trkpt><trkpt lat="49.68908" lon="-1.80976"><ele>21.76</ele></trkpt><trkpt lat="49.68906" lon="-1.80989"><ele>19.96</ele></trkpt><trkpt lat="49.68905" lon="-1.8101"><ele>20.11</ele></trkpt><trkpt lat="49.68902" lon="-1.81026"><ele>18.8</ele></trkpt><trkpt lat="49.68899" lon="-1.81041"><ele>19.41</ele></trkpt><trkpt lat="49.68892" lon="-1.81075"><ele>20.73</ele></trkpt><trkpt lat="49.68892" lon="-1.8108"><ele>20.57</ele></trkpt><trkpt lat="49.68893" lon="-1.81084"><ele>20.34</ele></trkpt><trkpt lat="49.68891" lon="-1.81102"><ele>20.2</ele></trkpt><trkpt lat="49.68889" lon="-1.81124"><ele>19.83</ele></trkpt><trkpt lat="49.68889" lon="-1.81131"><ele>19.47</ele></trkpt><trkpt lat="49.68889" lon="-1.81134"><ele>19.1</ele></trkpt><trkpt lat="49.68887" lon="-1.81145"><ele>19.29</ele></trkpt><trkpt lat="49.68887" lon="-1.81153"><ele>18.76</ele></trkpt><trkpt lat="49.68893" lon="-1.81175"><ele>17.46</ele></trkpt><trkpt lat="49.68896" lon="-1.81197"><ele>16.09</ele></trkpt><trkpt lat="49.68896" lon="-1.81215"><ele>16.41</ele></trkpt><trkpt lat="49.68896" lon="-1.81231"><ele>16.48</ele></trkpt><trkpt lat="49.689" lon="-1.81269"><ele>14.36</ele></trkpt><trkpt lat="49.68902" lon="-1.81295"><ele>12.44</ele></trkpt><trkpt lat="49.68902" lon="-1.81297"><ele>12.31</ele></trkpt><trkpt lat="49.68904" lon="-1.81327"><ele>11.2</ele></trkpt><trkpt lat="49.68902" lon="-1.8135"><ele>10.17</ele></trkpt><trkpt lat="49.68901" lon="-1.81352"><ele>10.36</ele></trkpt><trkpt lat="49.68889" lon="-1.81388"><ele>9.49</ele></trkpt><trkpt lat="49.68875" lon="-1.81399"><ele>10.2</ele></trkpt><trkpt lat="49.68872" lon="-1.81412"><ele>9.91</ele></trkpt><trkpt lat="49.68871" lon="-1.81417"><ele>10.07</ele></trkpt><trkpt lat="49.68869" lon="-1.81432"><ele>9.48</ele></trkpt><trkpt lat="49.68866" lon="-1.81452"><ele>8.33</ele></trkpt><trkpt lat="49.68852" lon="-1.81452"><ele>9.27</ele></trkpt><trkpt lat="49.68849" lon="-1.81455"><ele>8.84</ele></trkpt><trkpt lat="49.68848" lon="-1.81459"><ele>8.65</ele></trkpt><trkpt lat="49.68847" lon="-1.81464"><ele>8.97</ele></trkpt><trkpt lat="49.68847" lon="-1.8147"><ele>9.7</ele></trkpt><trkpt lat="49.6885" lon="-1.81472"><ele>9.97</ele></trkpt><trkpt lat="49.68867" lon="-1.81474"><ele>8.14</ele></trkpt><trkpt lat="49.68872" lon="-1.81501"><ele>8.83</ele></trkpt><trkpt lat="49.68872" lon="-1.81503"><ele>9.5</ele></trkpt><trkpt lat="49.68873" lon="-1.81519"><ele>10.43</ele></trkpt><trkpt lat="49.68876" lon="-1.81543"><ele>12.03</ele></trkpt><trkpt lat="49.68884" lon="-1.81564"><ele>14.29</ele></trkpt><trkpt lat="49.68891" lon="-1.81577"><ele>14.56</ele></trkpt><trkpt lat="49.68901" lon="-1.81598"><ele>15.86</ele></trkpt><trkpt lat="49.68902" lon="-1.81599"><ele>14.57</ele></trkpt><trkpt lat="49.68906" lon="-1.81606"><ele>14.56</ele></trkpt><trkpt lat="49.68911" lon="-1.81612"><ele>13.97</ele></trkpt><trkpt lat="49.68922" lon="-1.8162"><ele>12.7</ele></trkpt><trkpt lat="49.68934" lon="-1.81642"><ele>11.77</ele></trkpt><trkpt lat="49.68956" lon="-1.81663"><ele>12.66</ele></trkpt><trkpt lat="49.68957" lon="-1.81666"><ele>12.79</ele></trkpt><trkpt lat="49.68961" lon="-1.81673"><ele>12.55</ele></trkpt><trkpt lat="49.68964" lon="-1.81692"><ele>12.9</ele></trkpt><trkpt lat="49.68964" lon="-1.81696"><ele>12.78</ele></trkpt><trkpt lat="49.68961" lon="-1.81719"><ele>13.63</ele></trkpt><trkpt lat="49.68959" lon="-1.81735"><ele>13.79</ele></trkpt><trkpt lat="49.68959" lon="-1.8175"><ele>14.99</ele></trkpt><trkpt lat="49.68965" lon="-1.81786"><ele>17.57</ele></trkpt><trkpt lat="49.68966" lon="-1.818"><ele>18.36</ele></trkpt><trkpt lat="49.68963" lon="-1.81824"><ele>18.89</ele></trkpt><trkpt lat="49.68962" lon="-1.81828"><ele>18.89</ele></trkpt><trkpt lat="49.68958" lon="-1.81855"><ele>20.8</ele></trkpt><trkpt lat="49.68957" lon="-1.81858"><ele>22.68</ele></trkpt><trkpt lat="49.68957" lon="-1.81869"><ele>23.37</ele></trkpt><trkpt lat="49.68973" lon="-1.81902"><ele>20.42</ele></trkpt><trkpt lat="49.68977" lon="-1.8191"><ele>19.89</ele></trkpt><trkpt lat="49.68982" lon="-1.81933"><ele>20.2</ele></trkpt><trkpt lat="49.68986" lon="-1.81945"><ele>20.01</ele></trkpt><trkpt lat="49.68992" lon="-1.81953"><ele>18.95</ele></trkpt><trkpt lat="49.69005" lon="-1.81979"><ele>18.33</ele></trkpt><trkpt lat="49.69009" lon="-1.81994"><ele>18.07</ele></trkpt><trkpt lat="49.69018" lon="-1.82021"><ele>17.29</ele></trkpt><trkpt lat="49.6902" lon="-1.82024"><ele>17.71</ele></trkpt><trkpt lat="49.69026" lon="-1.82035"><ele>18.12</ele></trkpt><trkpt lat="49.69038" lon="-1.82067"><ele>17.86</ele></trkpt><trkpt lat="49.69042" lon="-1.82078"><ele>17.53</ele></trkpt><trkpt lat="49.69045" lon="-1.82093"><ele>16.9</ele></trkpt><trkpt lat="49.69046" lon="-1.82097"><ele>17.28</ele></trkpt><trkpt lat="49.69046" lon="-1.82115"><ele>18.13</ele></trkpt><trkpt lat="49.69045" lon="-1.8212"><ele>17.11</ele></trkpt><trkpt lat="49.69044" lon="-1.82124"><ele>17.11</ele></trkpt><trkpt lat="49.69039" lon="-1.82132"><ele>17.16</ele></trkpt><trkpt lat="49.6903" lon="-1.82135"><ele>20.46</ele></trkpt><trkpt lat="49.69015" lon="-1.82156"><ele>23</ele></trkpt><trkpt lat="49.69006" lon="-1.82174"><ele>24.9</ele></trkpt><trkpt lat="49.69003" lon="-1.82181"><ele>25.18</ele></trkpt><trkpt lat="49.68998" lon="-1.82198"><ele>23.11</ele></trkpt><trkpt lat="49.68994" lon="-1.82211"><ele>22.63</ele></trkpt><trkpt lat="49.68991" lon="-1.82224"><ele>23.65</ele></trkpt><trkpt lat="49.68991" lon="-1.82226"><ele>23.65</ele></trkpt><trkpt lat="49.68991" lon="-1.82243"><ele>23.31</ele></trkpt><trkpt lat="49.68994" lon="-1.82255"><ele>22.05</ele></trkpt><trkpt lat="49.68998" lon="-1.82263"><ele>21.38</ele></trkpt><trkpt lat="49.68999" lon="-1.82276"><ele>21.01</ele></trkpt><trkpt lat="49.69" lon="-1.82288"><ele>20.78</ele></trkpt><trkpt lat="49.69" lon="-1.82311"><ele>19.47</ele></trkpt><trkpt lat="49.69" lon="-1.8232"><ele>18.87</ele></trkpt><trkpt lat="49.69002" lon="-1.82354"><ele>18.96</ele></trkpt><trkpt lat="49.69003" lon="-1.82359"><ele>19.36</ele></trkpt><trkpt lat="49.69009" lon="-1.82374"><ele>18.1</ele></trkpt><trkpt lat="49.69012" lon="-1.82388"><ele>18.14</ele></trkpt><trkpt lat="49.69014" lon="-1.82397"><ele>17.96</ele></trkpt><trkpt lat="49.69022" lon="-1.82424"><ele>17.91</ele></trkpt><trkpt lat="49.69032" lon="-1.8244"><ele>18.03</ele></trkpt><trkpt lat="49.69041" lon="-1.82458"><ele>18.29</ele></trkpt><trkpt lat="49.69045" lon="-1.82466"><ele>18.67</ele></trkpt><trkpt lat="49.69052" lon="-1.82478"><ele>18.35</ele></trkpt><trkpt lat="49.69067" lon="-1.82509"><ele>19.25</ele></trkpt><trkpt lat="49.69081" lon="-1.82532"><ele>19.58</ele></trkpt><trkpt lat="49.6909" lon="-1.82547"><ele>19.37</ele></trkpt><trkpt lat="49.69092" lon="-1.8255"><ele>19.18</ele></trkpt><trkpt lat="49.69105" lon="-1.82568"><ele>19.28</ele></trkpt><trkpt lat="49.69118" lon="-1.82577"><ele>19.3</ele></trkpt><trkpt lat="49.69125" lon="-1.8258"><ele>19.16</ele></trkpt><trkpt lat="49.69133" lon="-1.82581"><ele>18.92</ele></trkpt><trkpt lat="49.69144" lon="-1.82579"><ele>18.28</ele></trkpt><trkpt lat="49.69175" lon="-1.82568"><ele>17.28</ele></trkpt><trkpt lat="49.69191" lon="-1.82562"><ele>17.38</ele></trkpt><trkpt lat="49.69209" lon="-1.82563"><ele>17.94</ele></trkpt><trkpt lat="49.69215" lon="-1.82566"><ele>18.44</ele></trkpt><trkpt lat="49.69222" lon="-1.82574"><ele>19.9</ele></trkpt><trkpt lat="49.69225" lon="-1.8258"><ele>20.13</ele></trkpt><trkpt lat="49.69228" lon="-1.82587"><ele>19.11</ele></trkpt><trkpt lat="49.69232" lon="-1.82605"><ele>19.19</ele></trkpt><trkpt lat="49.69236" lon="-1.82628"><ele>17.96</ele></trkpt><trkpt lat="49.6924" lon="-1.8264"><ele>17.19</ele></trkpt><trkpt lat="49.69245" lon="-1.82654"><ele>15.83</ele></trkpt><trkpt lat="49.69249" lon="-1.82684"><ele>16.26</ele></trkpt><trkpt lat="49.69252" lon="-1.82703"><ele>16.08</ele></trkpt><trkpt lat="49.69252" lon="-1.82719"><ele>16.13</ele></trkpt><trkpt lat="49.69251" lon="-1.82739"><ele>16.26</ele></trkpt><trkpt lat="49.6925" lon="-1.82739"><ele>16.26</ele></trkpt><trkpt lat="49.6925" lon="-1.82743"><ele>16.2</ele></trkpt><trkpt lat="49.69247" lon="-1.82756"><ele>17.46</ele></trkpt><trkpt lat="49.69249" lon="-1.82767"><ele>17.56</ele></trkpt><trkpt lat="49.69269" lon="-1.82796"><ele>19.28</ele></trkpt><trkpt lat="49.69274" lon="-1.82801"><ele>19.46</ele></trkpt><trkpt lat="49.69275" lon="-1.82802"><ele>18.63</ele></trkpt><trkpt lat="49.69295" lon="-1.82823"><ele>21.19</ele></trkpt><trkpt lat="49.69325" lon="-1.82857"><ele>24.79</ele></trkpt><trkpt lat="49.69344" lon="-1.82879"><ele>24.88</ele></trkpt><trkpt lat="49.69357" lon="-1.82891"><ele>26.24</ele></trkpt><trkpt lat="49.69363" lon="-1.82899"><ele>26.76</ele></trkpt><trkpt lat="49.69369" lon="-1.82906"><ele>28.31</ele></trkpt><trkpt lat="49.69387" lon="-1.82924"><ele>29.24</ele></trkpt><trkpt lat="49.6941" lon="-1.82943"><ele>30.47</ele></trkpt><trkpt lat="49.6942" lon="-1.8295"><ele>31.13</ele></trkpt><trkpt lat="49.69421" lon="-1.82951"><ele>30.95</ele></trkpt><trkpt lat="49.69437" lon="-1.82958"><ele>31.73</ele></trkpt><trkpt lat="49.69444" lon="-1.82962"><ele>31.81</ele></trkpt><trkpt lat="49.69454" lon="-1.82965"><ele>30.57</ele></trkpt><trkpt lat="49.69466" lon="-1.82969"><ele>29.6</ele></trkpt><trkpt lat="49.69472" lon="-1.8297"><ele>29.97</ele></trkpt><trkpt lat="49.69479" lon="-1.82971"><ele>27.98</ele></trkpt><trkpt lat="49.69486" lon="-1.82973"><ele>27.11</ele></trkpt><trkpt lat="49.6949" lon="-1.82972"><ele>26.63</ele></trkpt><trkpt lat="49.69493" lon="-1.82972"><ele>26.63</ele></trkpt><trkpt lat="49.69499" lon="-1.82968"><ele>25.7</ele></trkpt><trkpt lat="49.69516" lon="-1.8295"><ele>23.01</ele></trkpt><trkpt lat="49.69524" lon="-1.82945"><ele>22.16</ele></trkpt><trkpt lat="49.69538" lon="-1.8294"><ele>20.36</ele></trkpt><trkpt lat="49.69539" lon="-1.8294"><ele>20.36</ele></trkpt><trkpt lat="49.69549" lon="-1.8293"><ele>17.8</ele></trkpt><trkpt lat="49.69554" lon="-1.82927"><ele>17.2</ele></trkpt><trkpt lat="49.69556" lon="-1.82926"><ele>16.5</ele></trkpt><trkpt lat="49.69572" lon="-1.82922"><ele>15.04</ele></trkpt><trkpt lat="49.69583" lon="-1.82919"><ele>15.38</ele></trkpt><trkpt lat="49.69589" lon="-1.8292"><ele>16.03</ele></trkpt><trkpt lat="49.69608" lon="-1.82921"><ele>15.14</ele></trkpt><trkpt lat="49.69625" lon="-1.82929"><ele>16.64</ele></trkpt><trkpt lat="49.69643" lon="-1.82936"><ele>17.73</ele></trkpt><trkpt lat="49.6967" lon="-1.82946"><ele>16.64</ele></trkpt><trkpt lat="49.69683" lon="-1.82952"><ele>16.53</ele></trkpt><trkpt lat="49.69694" lon="-1.82957"><ele>17.12</ele></trkpt><trkpt lat="49.69704" lon="-1.82963"><ele>16.93</ele></trkpt><trkpt lat="49.69716" lon="-1.82972"><ele>17.43</ele></trkpt><trkpt lat="49.69733" lon="-1.82983"><ele>17.77</ele></trkpt><trkpt lat="49.69749" lon="-1.82995"><ele>18.05</ele></trkpt><trkpt lat="49.69756" lon="-1.83"><ele>18.84</ele></trkpt><trkpt lat="49.69771" lon="-1.83"><ele>20.16</ele></trkpt><trkpt lat="49.69778" lon="-1.82998"><ele>20.79</ele></trkpt><trkpt lat="49.69801" lon="-1.82986"><ele>22.95</ele></trkpt><trkpt lat="49.69804" lon="-1.82985"><ele>23.96</ele></trkpt><trkpt lat="49.6981" lon="-1.82984"><ele>24.25</ele></trkpt><trkpt lat="49.69816" lon="-1.82986"><ele>23.9</ele></trkpt><trkpt lat="49.6982" lon="-1.82993"><ele>25.25</ele></trkpt><trkpt lat="49.69823" lon="-1.83002"><ele>24.89</ele></trkpt><trkpt lat="49.69827" lon="-1.83014"><ele>24.51</ele></trkpt><trkpt lat="49.69836" lon="-1.8305"><ele>22.62</ele></trkpt><trkpt lat="49.69838" lon="-1.83063"><ele>20.88</ele></trkpt><trkpt lat="49.69839" lon="-1.83093"><ele>20.74</ele></trkpt><trkpt lat="49.69839" lon="-1.83094"><ele>20.74</ele></trkpt><trkpt lat="49.69841" lon="-1.83106"><ele>21.63</ele></trkpt><trkpt lat="49.69856" lon="-1.83143"><ele>21.41</ele></trkpt><trkpt lat="49.69883" lon="-1.83223"><ele>26.74</ele></trkpt><trkpt lat="49.69893" lon="-1.83236"><ele>26.19</ele></trkpt><trkpt lat="49.69905" lon="-1.83247"><ele>25.49</ele></trkpt><trkpt lat="49.69916" lon="-1.83262"><ele>26.13</ele></trkpt><trkpt lat="49.69928" lon="-1.83268"><ele>26.13</ele></trkpt><trkpt lat="49.69945" lon="-1.83284"><ele>28.53</ele></trkpt><trkpt lat="49.69964" lon="-1.83293"><ele>29.83</ele></trkpt><trkpt lat="49.69973" lon="-1.83295"><ele>29.4</ele></trkpt><trkpt lat="49.69988" lon="-1.83297"><ele>30.06</ele></trkpt><trkpt lat="49.70007" lon="-1.83298"><ele>29.96</ele></trkpt><trkpt lat="49.70009" lon="-1.83298"><ele>30.2</ele></trkpt><trkpt lat="49.70021" lon="-1.83298"><ele>30.85</ele></trkpt><trkpt lat="49.70053" lon="-1.83301"><ele>35.13</ele></trkpt><trkpt lat="49.70064" lon="-1.83301"><ele>36.27</ele></trkpt><trkpt lat="49.70073" lon="-1.83298"><ele>36.05</ele></trkpt><trkpt lat="49.70098" lon="-1.83284"><ele>36.33</ele></trkpt><trkpt lat="49.70105" lon="-1.8328"><ele>37</ele></trkpt><trkpt lat="49.7013" lon="-1.83272"><ele>38.39</ele></trkpt><trkpt lat="49.70151" lon="-1.83268"><ele>41.13</ele></trkpt><trkpt lat="49.70158" lon="-1.83267"><ele>42.36</ele></trkpt><trkpt lat="49.70163" lon="-1.8327"><ele>44.58</ele></trkpt><trkpt lat="49.7017" lon="-1.83281"><ele>44.66</ele></trkpt><trkpt lat="49.70172" lon="-1.83283"><ele>42.9</ele></trkpt><trkpt lat="49.70174" lon="-1.83284"><ele>42.9</ele></trkpt><trkpt lat="49.70178" lon="-1.83285"><ele>41.38</ele></trkpt><trkpt lat="49.70181" lon="-1.83286"><ele>39.55</ele></trkpt><trkpt lat="49.70184" lon="-1.83298"><ele>38.44</ele></trkpt><trkpt lat="49.70186" lon="-1.83304"><ele>36.2</ele></trkpt><trkpt lat="49.70189" lon="-1.83306"><ele>35.99</ele></trkpt><trkpt lat="49.70193" lon="-1.83303"><ele>34.34</ele></trkpt><trkpt lat="49.70197" lon="-1.83297"><ele>32.69</ele></trkpt><trkpt lat="49.70208" lon="-1.83276"><ele>26.96</ele></trkpt><trkpt lat="49.70214" lon="-1.83268"><ele>25.33</ele></trkpt><trkpt lat="49.7022" lon="-1.83259"><ele>22.12</ele></trkpt><trkpt lat="49.70221" lon="-1.83256"><ele>22.21</ele></trkpt><trkpt lat="49.70222" lon="-1.83254"><ele>22.21</ele></trkpt><trkpt lat="49.70225" lon="-1.83246"><ele>20.69</ele></trkpt><trkpt lat="49.70228" lon="-1.83243"><ele>18.83</ele></trkpt><trkpt lat="49.70231" lon="-1.83243"><ele>18.83</ele></trkpt><trkpt lat="49.70235" lon="-1.83244"><ele>17.26</ele></trkpt><trkpt lat="49.70242" lon="-1.83245"><ele>14.95</ele></trkpt><trkpt lat="49.70249" lon="-1.83246"><ele>14.43</ele></trkpt><trkpt lat="49.70253" lon="-1.83245"><ele>13.93</ele></trkpt><trkpt lat="49.70255" lon="-1.83245"><ele>13.66</ele></trkpt><trkpt lat="49.70268" lon="-1.83243"><ele>12.32</ele></trkpt><trkpt lat="49.70271" lon="-1.83242"><ele>11.77</ele></trkpt><trkpt lat="49.70283" lon="-1.83239"><ele>9.94</ele></trkpt><trkpt lat="49.70289" lon="-1.83248"><ele>9.61</ele></trkpt><trkpt lat="49.70289" lon="-1.8326"><ele>9.76</ele></trkpt><trkpt lat="49.70289" lon="-1.83278"><ele>9.91</ele></trkpt><trkpt lat="49.70289" lon="-1.83288"><ele>9.93</ele></trkpt><trkpt lat="49.7029" lon="-1.83316"><ele>10.45</ele></trkpt><trkpt lat="49.70291" lon="-1.8334"><ele>11.58</ele></trkpt><trkpt lat="49.7029" lon="-1.83349"><ele>11.51</ele></trkpt><trkpt lat="49.70286" lon="-1.83361"><ele>12.86</ele></trkpt><trkpt lat="49.70284" lon="-1.83377"><ele>13.03</ele></trkpt><trkpt lat="49.70284" lon="-1.8338"><ele>13.22</ele></trkpt><trkpt lat="49.70286" lon="-1.83397"><ele>13.64</ele></trkpt><trkpt lat="49.7029" lon="-1.83424"><ele>13.62</ele></trkpt><trkpt lat="49.7029" lon="-1.83426"><ele>13.68</ele></trkpt><trkpt lat="49.70291" lon="-1.8343"><ele>13.96</ele></trkpt><trkpt lat="49.70295" lon="-1.83449"><ele>13.63</ele></trkpt><trkpt lat="49.70296" lon="-1.83451"><ele>13.79</ele></trkpt><trkpt lat="49.70303" lon="-1.83471"><ele>12.97</ele></trkpt><trkpt lat="49.70306" lon="-1.83485"><ele>12.49</ele></trkpt><trkpt lat="49.70307" lon="-1.83487"><ele>12.49</ele></trkpt><trkpt lat="49.70313" lon="-1.83499"><ele>12.22</ele></trkpt><trkpt lat="49.70314" lon="-1.83502"><ele>11.85</ele></trkpt><trkpt lat="49.70318" lon="-1.83509"><ele>11.7</ele></trkpt><trkpt lat="49.70322" lon="-1.83523"><ele>11.57</ele></trkpt><trkpt lat="49.70326" lon="-1.83535"><ele>11.5</ele></trkpt><trkpt lat="49.7033" lon="-1.83537"><ele>11.14</ele></trkpt><trkpt lat="49.70333" lon="-1.83542"><ele>10.41</ele></trkpt><trkpt lat="49.70344" lon="-1.83564"><ele>9.52</ele></trkpt><trkpt lat="49.70345" lon="-1.83566"><ele>9.52</ele></trkpt><trkpt lat="49.70353" lon="-1.83573"><ele>9.36</ele></trkpt><trkpt lat="49.70362" lon="-1.83576"><ele>8.98</ele></trkpt><trkpt lat="49.70377" lon="-1.83582"><ele>8.42</ele></trkpt><trkpt lat="49.70382" lon="-1.83587"><ele>8.41</ele></trkpt><trkpt lat="49.70394" lon="-1.83595"><ele>7.55</ele></trkpt><trkpt lat="49.70412" lon="-1.83598"><ele>6.66</ele></trkpt><trkpt lat="49.7043" lon="-1.83602"><ele>6.26</ele></trkpt><trkpt lat="49.70435" lon="-1.83603"><ele>5.99</ele></trkpt><trkpt lat="49.70447" lon="-1.83604"><ele>5.56</ele></trkpt><trkpt lat="49.70465" lon="-1.83607"><ele>5.42</ele></trkpt><trkpt lat="49.70476" lon="-1.83608"><ele>5.08</ele></trkpt><trkpt lat="49.70483" lon="-1.83611"><ele>5.16</ele></trkpt><trkpt lat="49.70501" lon="-1.83617"><ele>4.81</ele></trkpt><trkpt lat="49.70525" lon="-1.83629"><ele>5.3</ele></trkpt><trkpt lat="49.70544" lon="-1.83642"><ele>5.3</ele></trkpt><trkpt lat="49.70551" lon="-1.83647"><ele>5.05</ele></trkpt><trkpt lat="49.70564" lon="-1.83645"><ele>5.08</ele></trkpt><trkpt lat="49.70565" lon="-1.83667"><ele>4.52</ele></trkpt><trkpt lat="49.70563" lon="-1.83695"><ele>4.26</ele></trkpt><trkpt lat="49.70563" lon="-1.83698"><ele>4.26</ele></trkpt><trkpt lat="49.70562" lon="-1.83707"><ele>4.37</ele></trkpt><trkpt lat="49.70562" lon="-1.83713"><ele>4.37</ele></trkpt><trkpt lat="49.7056" lon="-1.83722"><ele>4.38</ele></trkpt><trkpt lat="49.70558" lon="-1.8373"><ele>4.44</ele></trkpt><trkpt lat="49.70553" lon="-1.83739"><ele>4.45</ele></trkpt><trkpt lat="49.70492" lon="-1.83823"><ele>5.6</ele></trkpt><trkpt lat="49.70488" lon="-1.83836"><ele>5.58</ele></trkpt><trkpt lat="49.70486" lon="-1.83845"><ele>5.46</ele></trkpt><trkpt lat="49.70481" lon="-1.83876"><ele>5.61</ele></trkpt><trkpt lat="49.70477" lon="-1.83884"><ele>5.8</ele></trkpt><trkpt lat="49.70472" lon="-1.839"><ele>5.85</ele></trkpt><trkpt lat="49.70466" lon="-1.83913"><ele>6.04</ele></trkpt><trkpt lat="49.70457" lon="-1.8395"><ele>6.67</ele></trkpt><trkpt lat="49.70445" lon="-1.83988"><ele>7.66</ele></trkpt><trkpt lat="49.70446" lon="-1.83994"><ele>7.53</ele></trkpt><trkpt lat="49.70451" lon="-1.84002"><ele>7.22</ele></trkpt><trkpt lat="49.70447" lon="-1.8402"><ele>7.41</ele></trkpt><trkpt lat="49.70444" lon="-1.84033"><ele>7.51</ele></trkpt><trkpt lat="49.7044" lon="-1.84048"><ele>8.01</ele></trkpt><trkpt lat="49.70438" lon="-1.84057"><ele>8.05</ele></trkpt><trkpt lat="49.70434" lon="-1.84072"><ele>8.38</ele></trkpt><trkpt lat="49.70429" lon="-1.84088"><ele>8.91</ele></trkpt><trkpt lat="49.70427" lon="-1.84093"><ele>8.96</ele></trkpt><trkpt lat="49.70436" lon="-1.84106"><ele>8.8</ele></trkpt><trkpt lat="49.70448" lon="-1.84123"><ele>8.8</ele></trkpt><trkpt lat="49.70459" lon="-1.8414"><ele>8.81</ele></trkpt><trkpt lat="49.70463" lon="-1.84147"><ele>8.78</ele></trkpt><trkpt lat="49.70457" lon="-1.84156"><ele>8.86</ele></trkpt><trkpt lat="49.70414" lon="-1.84229"><ele>10.13</ele></trkpt><trkpt lat="49.70409" lon="-1.84239"><ele>10.15</ele></trkpt><trkpt lat="49.70406" lon="-1.84244"><ele>10.49</ele></trkpt><trkpt lat="49.70381" lon="-1.84288"><ele>11.48</ele></trkpt><trkpt lat="49.70375" lon="-1.84296"><ele>11.5</ele></trkpt><trkpt lat="49.70347" lon="-1.84327"><ele>12.95</ele></trkpt><trkpt lat="49.7034" lon="-1.84332"><ele>13.25</ele></trkpt><trkpt lat="49.70319" lon="-1.84358"><ele>13.31</ele></trkpt><trkpt lat="49.70311" lon="-1.84342"><ele>13.22</ele></trkpt><trkpt lat="49.70305" lon="-1.84329"><ele>13.09</ele></trkpt><trkpt lat="49.70304" lon="-1.84323"><ele>13.35</ele></trkpt><trkpt lat="49.70303" lon="-1.84317"><ele>13.26</ele></trkpt><trkpt lat="49.70273" lon="-1.84363"><ele>14.07</ele></trkpt><trkpt lat="49.70264" lon="-1.84375"><ele>14.42</ele></trkpt><trkpt lat="49.70249" lon="-1.84398"><ele>15.57</ele></trkpt><trkpt lat="49.70244" lon="-1.844"><ele>15.82</ele></trkpt><trkpt lat="49.70238" lon="-1.844"><ele>15.95</ele></trkpt><trkpt lat="49.70232" lon="-1.84397"><ele>16.04</ele></trkpt><trkpt lat="49.70228" lon="-1.84393"><ele>15.94</ele></trkpt><trkpt lat="49.70219" lon="-1.84384"><ele>16.61</ele></trkpt><trkpt lat="49.70207" lon="-1.8439"><ele>16.73</ele></trkpt><trkpt lat="49.70199" lon="-1.84398"><ele>16.99</ele></trkpt><trkpt lat="49.70193" lon="-1.84402"><ele>17.29</ele></trkpt><trkpt lat="49.70184" lon="-1.84404"><ele>17.85</ele></trkpt><trkpt lat="49.70171" lon="-1.84406"><ele>18.24</ele></trkpt><trkpt lat="49.70156" lon="-1.84406"><ele>18.82</ele></trkpt><trkpt lat="49.70149" lon="-1.84407"><ele>18.93</ele></trkpt><trkpt lat="49.70129" lon="-1.84413"><ele>19.76</ele></trkpt><trkpt lat="49.70108" lon="-1.84423"><ele>20.48</ele></trkpt><trkpt lat="49.70092" lon="-1.84433"><ele>21.12</ele></trkpt><trkpt lat="49.70088" lon="-1.84436"><ele>21.03</ele></trkpt><trkpt lat="49.70081" lon="-1.84438"><ele>21.47</ele></trkpt><trkpt lat="49.70072" lon="-1.84436"><ele>21.89</ele></trkpt><trkpt lat="49.70069" lon="-1.84443"><ele>22.02</ele></trkpt><trkpt lat="49.70065" lon="-1.84451"><ele>22.3</ele></trkpt><trkpt lat="49.70058" lon="-1.8446"><ele>23.04</ele></trkpt><trkpt lat="49.7003" lon="-1.84479"><ele>24.11</ele></trkpt><trkpt lat="49.70025" lon="-1.84481"><ele>24.82</ele></trkpt><trkpt lat="49.70004" lon="-1.8449"><ele>25.59</ele></trkpt><trkpt lat="49.69955" lon="-1.84491"><ele>27.42</ele></trkpt><trkpt lat="49.69914" lon="-1.84519"><ele>34.39</ele></trkpt><trkpt lat="49.69841" lon="-1.84482"><ele>33.13</ele></trkpt><trkpt lat="49.69778" lon="-1.84452"><ele>41.12</ele></trkpt><trkpt lat="49.69739" lon="-1.84451"><ele>45.46</ele></trkpt><trkpt lat="49.69728" lon="-1.84455"><ele>46.13</ele></trkpt><trkpt lat="49.69711" lon="-1.84461"><ele>47.08</ele></trkpt><trkpt lat="49.69697" lon="-1.84466"><ele>47.75</ele></trkpt><trkpt lat="49.69676" lon="-1.84472"><ele>48.56</ele></trkpt><trkpt lat="49.69658" lon="-1.84477"><ele>49.11</ele></trkpt><trkpt lat="49.69652" lon="-1.84479"><ele>49.81</ele></trkpt><trkpt lat="49.6964" lon="-1.8448"><ele>50.32</ele></trkpt><trkpt lat="49.69635" lon="-1.84481"><ele>49.84</ele></trkpt><trkpt lat="49.69624" lon="-1.84481"><ele>50.08</ele></trkpt><trkpt lat="49.69622" lon="-1.8448"><ele>51.09</ele></trkpt><trkpt lat="49.69614" lon="-1.84477"><ele>50.68</ele></trkpt><trkpt lat="49.69604" lon="-1.84465"><ele>51.29</ele></trkpt><trkpt lat="49.69592" lon="-1.84451"><ele>50.92</ele></trkpt><trkpt lat="49.6959" lon="-1.84448"><ele>51.44</ele></trkpt><trkpt lat="49.69578" lon="-1.84443"><ele>51.67</ele></trkpt><trkpt lat="49.69575" lon="-1.84444"><ele>51.75</ele></trkpt><trkpt lat="49.69558" lon="-1.84445"><ele>52.99</ele></trkpt><trkpt lat="49.6954" lon="-1.84446"><ele>52.64</ele></trkpt><trkpt lat="49.69532" lon="-1.84447"><ele>52.19</ele></trkpt><trkpt lat="49.69509" lon="-1.84446"><ele>50.65</ele></trkpt><trkpt lat="49.69505" lon="-1.84446"><ele>50.48</ele></trkpt><trkpt lat="49.69504" lon="-1.84446"><ele>50.48</ele></trkpt><trkpt lat="49.69486" lon="-1.84446"><ele>50.5</ele></trkpt><trkpt lat="49.69468" lon="-1.84445"><ele>51.53</ele></trkpt><trkpt lat="49.69462" lon="-1.84445"><ele>51.49</ele></trkpt><trkpt lat="49.69428" lon="-1.84445"><ele>51.36</ele></trkpt><trkpt lat="49.6942" lon="-1.84454"><ele>52.1</ele></trkpt><trkpt lat="49.69417" lon="-1.84459"><ele>51.14</ele></trkpt><trkpt lat="49.69405" lon="-1.84476"><ele>51.51</ele></trkpt><trkpt lat="49.69392" lon="-1.8449"><ele>52.03</ele></trkpt><trkpt lat="49.69389" lon="-1.84494"><ele>52.3</ele></trkpt><trkpt lat="49.69374" lon="-1.8451"><ele>52.93</ele></trkpt><trkpt lat="49.69358" lon="-1.84529"><ele>53.79</ele></trkpt><trkpt lat="49.69352" lon="-1.84538"><ele>54.38</ele></trkpt><trkpt lat="49.69338" lon="-1.84557"><ele>54.78</ele></trkpt><trkpt lat="49.69334" lon="-1.84566"><ele>54.85</ele></trkpt><trkpt lat="49.69324" lon="-1.84585"><ele>55.23</ele></trkpt><trkpt lat="49.69323" lon="-1.84587"><ele>55.23</ele></trkpt><trkpt lat="49.69314" lon="-1.84611"><ele>54.69</ele></trkpt><trkpt lat="49.69311" lon="-1.84617"><ele>54.85</ele></trkpt><trkpt lat="49.69304" lon="-1.84635"><ele>55.13</ele></trkpt><trkpt lat="49.69296" lon="-1.84657"><ele>56.21</ele></trkpt><trkpt lat="49.69295" lon="-1.84658"><ele>56.21</ele></trkpt><trkpt lat="49.69285" lon="-1.84674"><ele>57.07</ele></trkpt><trkpt lat="49.69282" lon="-1.84678"><ele>57.51</ele></trkpt><trkpt lat="49.6927" lon="-1.8469"><ele>58.22</ele></trkpt><trkpt lat="49.69255" lon="-1.84699"><ele>59.05</ele></trkpt><trkpt lat="49.69219" lon="-1.84717"><ele>61.16</ele></trkpt><trkpt lat="49.6921" lon="-1.84721"><ele>61.72</ele></trkpt><trkpt lat="49.69189" lon="-1.8473"><ele>62.8</ele></trkpt><trkpt lat="49.69184" lon="-1.84732"><ele>62.6</ele></trkpt><trkpt lat="49.69173" lon="-1.84737"><ele>62.85</ele></trkpt><trkpt lat="49.69157" lon="-1.84743"><ele>63.78</ele></trkpt><trkpt lat="49.69149" lon="-1.84747"><ele>64.24</ele></trkpt><trkpt lat="49.6914" lon="-1.8475"><ele>64.35</ele></trkpt><trkpt lat="49.69097" lon="-1.84769"><ele>72.16</ele></trkpt><trkpt lat="49.69092" lon="-1.84771"><ele>72.38</ele></trkpt><trkpt lat="49.69082" lon="-1.84779"><ele>73.38</ele></trkpt><trkpt lat="49.69076" lon="-1.84774"><ele>72.79</ele></trkpt><trkpt lat="49.69067" lon="-1.8477"><ele>72.36</ele></trkpt><trkpt lat="49.69058" lon="-1.84761"><ele>71.45</ele></trkpt><trkpt lat="49.69046" lon="-1.84742"><ele>73.13</ele></trkpt><trkpt lat="49.69043" lon="-1.84737"><ele>73.08</ele></trkpt><trkpt lat="49.69038" lon="-1.84733"><ele>73.6</ele></trkpt><trkpt lat="49.69033" lon="-1.84728"><ele>73.15</ele></trkpt><trkpt lat="49.6902" lon="-1.84723"><ele>73.33</ele></trkpt><trkpt lat="49.69014" lon="-1.84722"><ele>73.37</ele></trkpt><trkpt lat="49.69008" lon="-1.84722"><ele>73.05</ele></trkpt><trkpt lat="49.6899" lon="-1.84724"><ele>72.12</ele></trkpt><trkpt lat="49.68961" lon="-1.84733"><ele>72.35</ele></trkpt><trkpt lat="49.68933" lon="-1.84738"><ele>73.55</ele></trkpt><trkpt lat="49.68912" lon="-1.84742"><ele>74.36</ele></trkpt><trkpt lat="49.68899" lon="-1.84741"><ele>72.93</ele></trkpt><trkpt lat="49.68897" lon="-1.84729"><ele>73.1</ele></trkpt><trkpt lat="49.68894" lon="-1.84709"><ele>73.09</ele></trkpt><trkpt lat="49.68883" lon="-1.84691"><ele>73.21</ele></trkpt><trkpt lat="49.68882" lon="-1.84689"><ele>73.25</ele></trkpt><trkpt lat="49.68876" lon="-1.84673"><ele>72.7</ele></trkpt><trkpt lat="49.68876" lon="-1.84665"><ele>72.49</ele></trkpt><trkpt lat="49.68876" lon="-1.84662"><ele>72.35</ele></trkpt><trkpt lat="49.68884" lon="-1.8464"><ele>73.77</ele></trkpt><trkpt lat="49.68884" lon="-1.84639"><ele>73.77</ele></trkpt><trkpt lat="49.68884" lon="-1.8463"><ele>74.43</ele></trkpt><trkpt lat="49.68883" lon="-1.84612"><ele>75.38</ele></trkpt><trkpt lat="49.68883" lon="-1.84611"><ele>75.38</ele></trkpt><trkpt lat="49.68877" lon="-1.84586"><ele>77.23</ele></trkpt><trkpt lat="49.68877" lon="-1.84583"><ele>77.41</ele></trkpt><trkpt lat="49.6887" lon="-1.84562"><ele>79.26</ele></trkpt><trkpt lat="49.68864" lon="-1.84541"><ele>81.38</ele></trkpt><trkpt lat="49.68863" lon="-1.84532"><ele>82.67</ele></trkpt><trkpt lat="49.6886" lon="-1.84519"><ele>82.75</ele></trkpt><trkpt lat="49.68859" lon="-1.84508"><ele>84.28</ele></trkpt><trkpt lat="49.68859" lon="-1.84507"><ele>84.28</ele></trkpt><trkpt lat="49.6886" lon="-1.84502"><ele>84.66</ele></trkpt><trkpt lat="49.68861" lon="-1.8448"><ele>87.16</ele></trkpt><trkpt lat="49.68862" lon="-1.84474"><ele>87.51</ele></trkpt><trkpt lat="49.68861" lon="-1.84453"><ele>89.86</ele></trkpt><trkpt lat="49.6886" lon="-1.84425"><ele>92.17</ele></trkpt><trkpt lat="49.6886" lon="-1.84421"><ele>92.62</ele></trkpt><trkpt lat="49.6886" lon="-1.84397"><ele>95.12</ele></trkpt><trkpt lat="49.6886" lon="-1.84391"><ele>95.53</ele></trkpt><trkpt lat="49.68861" lon="-1.84369"><ele>97.9</ele></trkpt><trkpt lat="49.68861" lon="-1.84342"><ele>101.33</ele></trkpt><trkpt lat="49.68861" lon="-1.84331"><ele>102.24</ele></trkpt><trkpt lat="49.68858" lon="-1.84314"><ele>104.99</ele></trkpt><trkpt lat="49.68852" lon="-1.84303"><ele>106.8</ele></trkpt><trkpt lat="49.68848" lon="-1.84292"><ele>108.66</ele></trkpt><trkpt lat="49.68848" lon="-1.84281"><ele>109.24</ele></trkpt><trkpt lat="49.68848" lon="-1.84262"><ele>110.17</ele></trkpt><trkpt lat="49.68847" lon="-1.84256"><ele>110.18</ele></trkpt><trkpt lat="49.68839" lon="-1.84188"><ele>113.3</ele></trkpt><trkpt lat="49.68829" lon="-1.84128"><ele>114.77</ele></trkpt><trkpt lat="49.68825" lon="-1.84101"><ele>115.3</ele></trkpt><trkpt lat="49.68822" lon="-1.84066"><ele>116.16</ele></trkpt><trkpt lat="49.68823" lon="-1.84056"><ele>116.31</ele></trkpt><trkpt lat="49.68823" lon="-1.84046"><ele>116.36</ele></trkpt><trkpt lat="49.68822" lon="-1.84019"><ele>116.27</ele></trkpt><trkpt lat="49.68822" lon="-1.84018"><ele>116.27</ele></trkpt><trkpt lat="49.6882" lon="-1.84002"><ele>116.27</ele></trkpt><trkpt lat="49.6882" lon="-1.83999"><ele>116.12</ele></trkpt><trkpt lat="49.68817" lon="-1.83991"><ele>116.04</ele></trkpt><trkpt lat="49.68812" lon="-1.83976"><ele>115.96</ele></trkpt><trkpt lat="49.68809" lon="-1.83967"><ele>116.05</ele></trkpt><trkpt lat="49.68806" lon="-1.83959"><ele>116.16</ele></trkpt><trkpt lat="49.68801" lon="-1.83944"><ele>116.12</ele></trkpt><trkpt lat="49.68801" lon="-1.83942"><ele>116</ele></trkpt><trkpt lat="49.68798" lon="-1.83931"><ele>116.07</ele></trkpt><trkpt lat="49.68801" lon="-1.83916"><ele>115.27</ele></trkpt><trkpt lat="49.68813" lon="-1.83882"><ele>113.97</ele></trkpt><trkpt lat="49.6882" lon="-1.83868"><ele>113.57</ele></trkpt><trkpt lat="49.68827" lon="-1.83853"><ele>113.21</ele></trkpt><trkpt lat="49.68832" lon="-1.83838"><ele>112.91</ele></trkpt><trkpt lat="49.68844" lon="-1.83798"><ele>112.07</ele></trkpt><trkpt lat="49.68828" lon="-1.83783"><ele>111.85</ele></trkpt><trkpt lat="49.68826" lon="-1.83781"><ele>111.85</ele></trkpt><trkpt lat="49.68814" lon="-1.83766"><ele>110.96</ele></trkpt><trkpt lat="49.68801" lon="-1.8375"><ele>109.83</ele></trkpt><trkpt lat="49.68789" lon="-1.83732"><ele>108.42</ele></trkpt><trkpt lat="49.6878" lon="-1.83724"><ele>108.02</ele></trkpt><trkpt lat="49.68765" lon="-1.837"><ele>107.84</ele></trkpt><trkpt lat="49.68747" lon="-1.83656"><ele>108.57</ele></trkpt><trkpt lat="49.68743" lon="-1.83646"><ele>108.43</ele></trkpt><trkpt lat="49.6873" lon="-1.83609"><ele>108.6</ele></trkpt><trkpt lat="49.68726" lon="-1.83599"><ele>108.73</ele></trkpt><trkpt lat="49.68725" lon="-1.83598"><ele>108.83</ele></trkpt><trkpt lat="49.68717" lon="-1.83576"><ele>110.29</ele></trkpt><trkpt lat="49.68709" lon="-1.83553"><ele>109.12</ele></trkpt><trkpt lat="49.68699" lon="-1.83528"><ele>110.96</ele></trkpt><trkpt lat="49.68698" lon="-1.83527"><ele>110.4</ele></trkpt><trkpt lat="49.6868" lon="-1.83481"><ele>111.22</ele></trkpt><trkpt lat="49.68662" lon="-1.83438"><ele>112.13</ele></trkpt><trkpt lat="49.68661" lon="-1.83433"><ele>112.45</ele></trkpt><trkpt lat="49.68642" lon="-1.83385"><ele>109.85</ele></trkpt><trkpt lat="49.6864" lon="-1.83379"><ele>109.18</ele></trkpt><trkpt lat="49.68624" lon="-1.83344"><ele>106.7</ele></trkpt><trkpt lat="49.68622" lon="-1.83339"><ele>106.43</ele></trkpt><trkpt lat="49.68619" lon="-1.83331"><ele>103.53</ele></trkpt><trkpt lat="49.68611" lon="-1.83312"><ele>98.7</ele></trkpt><trkpt lat="49.68602" lon="-1.83294"><ele>95.67</ele></trkpt><trkpt lat="49.68599" lon="-1.83288"><ele>94.79</ele></trkpt><trkpt lat="49.68592" lon="-1.83283"><ele>93.43</ele></trkpt><trkpt lat="49.68579" lon="-1.83282"><ele>92.56</ele></trkpt><trkpt lat="49.68579" lon="-1.8328"><ele>92.56</ele></trkpt><trkpt lat="49.68579" lon="-1.83274"><ele>93.29</ele></trkpt><trkpt lat="49.68584" lon="-1.83269"><ele>93.08</ele></trkpt><trkpt lat="49.68586" lon="-1.83266"><ele>92.41</ele></trkpt><trkpt lat="49.68625" lon="-1.83228"><ele>93.81</ele></trkpt><trkpt lat="49.6863" lon="-1.83225"><ele>94.62</ele></trkpt><trkpt lat="49.68639" lon="-1.8322"><ele>94.01</ele></trkpt><trkpt lat="49.68643" lon="-1.83212"><ele>94.55</ele></trkpt><trkpt lat="49.68643" lon="-1.83206"><ele>95.27</ele></trkpt><trkpt lat="49.68644" lon="-1.83199"><ele>96.64</ele></trkpt><trkpt lat="49.6864" lon="-1.83183"><ele>98.27</ele></trkpt><trkpt lat="49.68634" lon="-1.83161"><ele>101.26</ele></trkpt><trkpt lat="49.68624" lon="-1.83137"><ele>102.12</ele></trkpt><trkpt lat="49.68623" lon="-1.83134"><ele>101.97</ele></trkpt><trkpt lat="49.6862" lon="-1.83125"><ele>101.75</ele></trkpt><trkpt lat="49.68618" lon="-1.83121"><ele>101.83</ele></trkpt><trkpt lat="49.68609" lon="-1.83103"><ele>101.71</ele></trkpt><trkpt lat="49.68605" lon="-1.83086"><ele>102.92</ele></trkpt><trkpt lat="49.68605" lon="-1.83083"><ele>103.48</ele></trkpt><trkpt lat="49.68603" lon="-1.83054"><ele>105.3</ele></trkpt><trkpt lat="49.68602" lon="-1.83035"><ele>106.36</ele></trkpt><trkpt lat="49.68601" lon="-1.83024"><ele>107.68</ele></trkpt><trkpt lat="49.68594" lon="-1.82991"><ele>110.37</ele></trkpt><trkpt lat="49.68592" lon="-1.82982"><ele>110.64</ele></trkpt><trkpt lat="49.68585" lon="-1.8296"><ele>110.82</ele></trkpt><trkpt lat="49.68584" lon="-1.82957"><ele>111.33</ele></trkpt><trkpt lat="49.68576" lon="-1.8294"><ele>111.18</ele></trkpt><trkpt lat="49.68574" lon="-1.82935"><ele>111.35</ele></trkpt><trkpt lat="49.68565" lon="-1.82909"><ele>110.98</ele></trkpt><trkpt lat="49.68565" lon="-1.82907"><ele>110.98</ele></trkpt><trkpt lat="49.68558" lon="-1.82884"><ele>110.64</ele></trkpt><trkpt lat="49.6855" lon="-1.82859"><ele>109.58</ele></trkpt><trkpt lat="49.68542" lon="-1.82834"><ele>108.97</ele></trkpt><trkpt lat="49.68535" lon="-1.82809"><ele>108.18</ele></trkpt><trkpt lat="49.68533" lon="-1.82802"><ele>107.75</ele></trkpt><trkpt lat="49.68531" lon="-1.82798"><ele>108.47</ele></trkpt><trkpt lat="49.68526" lon="-1.82785"><ele>106.85</ele></trkpt><trkpt lat="49.68522" lon="-1.82776"><ele>106.28</ele></trkpt><trkpt lat="49.68514" lon="-1.82762"><ele>106.1</ele></trkpt><trkpt lat="49.68508" lon="-1.8275"><ele>105.89</ele></trkpt><trkpt lat="49.68507" lon="-1.82739"><ele>105.95</ele></trkpt><trkpt lat="49.68504" lon="-1.82729"><ele>105.67</ele></trkpt><trkpt lat="49.68486" lon="-1.82685"><ele>103.84</ele></trkpt><trkpt lat="49.68483" lon="-1.82677"><ele>103.1</ele></trkpt><trkpt lat="49.68482" lon="-1.82675"><ele>103.1</ele></trkpt><trkpt lat="49.68473" lon="-1.82655"><ele>102.74</ele></trkpt><trkpt lat="49.68471" lon="-1.82652"><ele>102.34</ele></trkpt><trkpt lat="49.68464" lon="-1.82638"><ele>101.7</ele></trkpt><trkpt lat="49.68462" lon="-1.82632"><ele>101.03</ele></trkpt><trkpt lat="49.68461" lon="-1.82629"><ele>101.05</ele></trkpt><trkpt lat="49.6845" lon="-1.82608"><ele>99.54</ele></trkpt><trkpt lat="49.68432" lon="-1.82574"><ele>96.94</ele></trkpt><trkpt lat="49.68425" lon="-1.82563"><ele>96.11</ele></trkpt><trkpt lat="49.68418" lon="-1.82551"><ele>95.29</ele></trkpt><trkpt lat="49.68416" lon="-1.82547"><ele>94.96</ele></trkpt><trkpt lat="49.68413" lon="-1.82543"><ele>94.8</ele></trkpt><trkpt lat="49.68406" lon="-1.82532"><ele>93.86</ele></trkpt><trkpt lat="49.68403" lon="-1.82527"><ele>93.87</ele></trkpt><trkpt lat="49.68401" lon="-1.82524"><ele>93.87</ele></trkpt><trkpt lat="49.68401" lon="-1.82523"><ele>93.97</ele></trkpt><trkpt lat="49.68394" lon="-1.82515"><ele>93.42</ele></trkpt><trkpt lat="49.68389" lon="-1.82509"><ele>93.66</ele></trkpt><trkpt lat="49.68389" lon="-1.82508"><ele>93.66</ele></trkpt><trkpt lat="49.68387" lon="-1.82505"><ele>93.65</ele></trkpt><trkpt lat="49.68378" lon="-1.82492"><ele>94.07</ele></trkpt><trkpt lat="49.68377" lon="-1.8249"><ele>94.07</ele></trkpt><trkpt lat="49.68374" lon="-1.82485"><ele>94.24</ele></trkpt><trkpt lat="49.68373" lon="-1.82482"><ele>94.6</ele></trkpt><trkpt lat="49.68369" lon="-1.82468"><ele>95.07</ele></trkpt><trkpt lat="49.68368" lon="-1.82465"><ele>95.26</ele></trkpt><trkpt lat="49.68367" lon="-1.8246"><ele>95.41</ele></trkpt><trkpt lat="49.68363" lon="-1.82439"><ele>96.77</ele></trkpt><trkpt lat="49.68362" lon="-1.82435"><ele>96.88</ele></trkpt><trkpt lat="49.68362" lon="-1.82433"><ele>96.97</ele></trkpt><trkpt lat="49.6836" lon="-1.82425"><ele>97.94</ele></trkpt><trkpt lat="49.68357" lon="-1.82413"><ele>98.93</ele></trkpt><trkpt lat="49.68355" lon="-1.82408"><ele>99.51</ele></trkpt><trkpt lat="49.68354" lon="-1.82404"><ele>99.68</ele></trkpt><trkpt lat="49.68349" lon="-1.82388"><ele>101.02</ele></trkpt><trkpt lat="49.68348" lon="-1.82382"><ele>102.49</ele></trkpt><trkpt lat="49.68345" lon="-1.82372"><ele>103.1</ele></trkpt><trkpt lat="49.68341" lon="-1.82363"><ele>103.71</ele></trkpt><trkpt lat="49.68331" lon="-1.82343"><ele>105.72</ele></trkpt><trkpt lat="49.68321" lon="-1.82319"><ele>106.91</ele></trkpt><trkpt lat="49.6832" lon="-1.82318"><ele>106.91</ele></trkpt><trkpt lat="49.68299" lon="-1.82276"><ele>110.66</ele></trkpt><trkpt lat="49.68295" lon="-1.8227"><ele>111.16</ele></trkpt><trkpt lat="49.68286" lon="-1.82253"><ele>111.37</ele></trkpt><trkpt lat="49.68284" lon="-1.8225"><ele>111.9</ele></trkpt><trkpt lat="49.68283" lon="-1.82249"><ele>111.81</ele></trkpt><trkpt lat="49.68276" lon="-1.8224"><ele>112.09</ele></trkpt><trkpt lat="49.68272" lon="-1.82236"><ele>111.9</ele></trkpt><trkpt lat="49.68268" lon="-1.82231"><ele>111.87</ele></trkpt><trkpt lat="49.68258" lon="-1.82223"><ele>111.66</ele></trkpt><trkpt lat="49.68255" lon="-1.82219"><ele>111.43</ele></trkpt><trkpt lat="49.6825" lon="-1.82213"><ele>111.08</ele></trkpt><trkpt lat="49.68247" lon="-1.82201"><ele>110.38</ele></trkpt><trkpt lat="49.6824" lon="-1.82176"><ele>110.52</ele></trkpt><trkpt lat="49.68233" lon="-1.8215"><ele>110.35</ele></trkpt><trkpt lat="49.68225" lon="-1.82125"><ele>110.01</ele></trkpt><trkpt lat="49.68218" lon="-1.82099"><ele>109.32</ele></trkpt><trkpt lat="49.68209" lon="-1.82067"><ele>108.23</ele></trkpt><trkpt lat="49.68205" lon="-1.82055"><ele>107.74</ele></trkpt><trkpt lat="49.68203" lon="-1.82049"><ele>107.46</ele></trkpt><trkpt lat="49.682" lon="-1.82044"><ele>107.8</ele></trkpt><trkpt lat="49.68196" lon="-1.82016"><ele>107.93</ele></trkpt><trkpt lat="49.68192" lon="-1.81989"><ele>110.02</ele></trkpt><trkpt lat="49.68189" lon="-1.81962"><ele>112.4</ele></trkpt><trkpt lat="49.68188" lon="-1.8196"><ele>112.53</ele></trkpt><trkpt lat="49.68184" lon="-1.81927"><ele>114.6</ele></trkpt><trkpt lat="49.68185" lon="-1.81914"><ele>114.42</ele></trkpt><trkpt lat="49.68186" lon="-1.819"><ele>114.74</ele></trkpt><trkpt lat="49.68189" lon="-1.81873"><ele>114.85</ele></trkpt><trkpt lat="49.6819" lon="-1.81871"><ele>114.52</ele></trkpt><trkpt lat="49.68192" lon="-1.81863"><ele>114.52</ele></trkpt><trkpt lat="49.68197" lon="-1.81847"><ele>114.36</ele></trkpt><trkpt lat="49.682" lon="-1.81833"><ele>113.63</ele></trkpt><trkpt lat="49.68204" lon="-1.81825"><ele>112.85</ele></trkpt><trkpt lat="49.68206" lon="-1.81824"><ele>112.85</ele></trkpt><trkpt lat="49.6822" lon="-1.81808"><ele>110.73</ele></trkpt><trkpt lat="49.68228" lon="-1.81799"><ele>109.56</ele></trkpt><trkpt lat="49.68236" lon="-1.81793"><ele>108.57</ele></trkpt><trkpt lat="49.68241" lon="-1.81789"><ele>107.82</ele></trkpt><trkpt lat="49.68252" lon="-1.81784"><ele>107.13</ele></trkpt><trkpt lat="49.68258" lon="-1.81781"><ele>107.24</ele></trkpt><trkpt lat="49.68263" lon="-1.8178"><ele>106.49</ele></trkpt><trkpt lat="49.68283" lon="-1.81776"><ele>106.19</ele></trkpt><trkpt lat="49.68288" lon="-1.81775"><ele>105.8</ele></trkpt><trkpt lat="49.683" lon="-1.81772"><ele>104.62</ele></trkpt><trkpt lat="49.68323" lon="-1.81765"><ele>102.06</ele></trkpt><trkpt lat="49.68324" lon="-1.81765"><ele>102.06</ele></trkpt><trkpt lat="49.68339" lon="-1.81764"><ele>101.24</ele></trkpt><trkpt lat="49.68377" lon="-1.81763"><ele>97.02</ele></trkpt><trkpt lat="49.6838" lon="-1.81762"><ele>96.71</ele></trkpt><trkpt lat="49.68387" lon="-1.81762"><ele>96.07</ele></trkpt><trkpt lat="49.68395" lon="-1.81763"><ele>95.72</ele></trkpt><trkpt lat="49.68407" lon="-1.81764"><ele>95.74</ele></trkpt><trkpt lat="49.68426" lon="-1.81768"><ele>94.23</ele></trkpt><trkpt lat="49.68431" lon="-1.81769"><ele>93.58</ele></trkpt><trkpt lat="49.68441" lon="-1.81771"><ele>92.29</ele></trkpt><trkpt lat="49.68442" lon="-1.81771"><ele>92.29</ele></trkpt><trkpt lat="49.68449" lon="-1.81773"><ele>91.91</ele></trkpt><trkpt lat="49.68466" lon="-1.81779"><ele>90.2</ele></trkpt><trkpt lat="49.68478" lon="-1.81783"><ele>89.53</ele></trkpt><trkpt lat="49.68484" lon="-1.81787"><ele>89.03</ele></trkpt><trkpt lat="49.68491" lon="-1.81786"><ele>88.16</ele></trkpt><trkpt lat="49.68493" lon="-1.8177"><ele>87.26</ele></trkpt><trkpt lat="49.68494" lon="-1.81763"><ele>86.15</ele></trkpt><trkpt lat="49.68494" lon="-1.81759"><ele>85.85</ele></trkpt><trkpt lat="49.68494" lon="-1.81749"><ele>85.23</ele></trkpt><trkpt lat="49.68495" lon="-1.81731"><ele>84.18</ele></trkpt><trkpt lat="49.68496" lon="-1.81703"><ele>82.4</ele></trkpt><trkpt lat="49.68497" lon="-1.81693"><ele>81.79</ele></trkpt><trkpt lat="49.685" lon="-1.81644"><ele>77.72</ele></trkpt><trkpt lat="49.68503" lon="-1.81623"><ele>75.87</ele></trkpt><trkpt lat="49.68507" lon="-1.81593"><ele>72.88</ele></trkpt><trkpt lat="49.68509" lon="-1.81573"><ele>70.76</ele></trkpt><trkpt lat="49.68512" lon="-1.81556"><ele>68.26</ele></trkpt><trkpt lat="49.68514" lon="-1.81549"><ele>67.27</ele></trkpt><trkpt lat="49.68516" lon="-1.8153"><ele>64.58</ele></trkpt><trkpt lat="49.68516" lon="-1.81527"><ele>64.19</ele></trkpt><trkpt lat="49.68513" lon="-1.8151"><ele>62.4</ele></trkpt><trkpt lat="49.68509" lon="-1.81496"><ele>61.01</ele></trkpt><trkpt lat="49.68508" lon="-1.81494"><ele>61.01</ele></trkpt><trkpt lat="49.68506" lon="-1.81486"><ele>60.59</ele></trkpt><trkpt lat="49.68504" lon="-1.8148"><ele>58.08</ele></trkpt><trkpt lat="49.68501" lon="-1.81469"><ele>57.84</ele></trkpt><trkpt lat="49.68497" lon="-1.81452"><ele>55.4</ele></trkpt><trkpt lat="49.68496" lon="-1.81442"><ele>54.14</ele></trkpt><trkpt lat="49.68492" lon="-1.81419"><ele>51.77</ele></trkpt><trkpt lat="49.68492" lon="-1.81415"><ele>51.26</ele></trkpt><trkpt lat="49.68488" lon="-1.8139"><ele>50.27</ele></trkpt><trkpt lat="49.68488" lon="-1.81388"><ele>50.27</ele></trkpt><trkpt lat="49.68483" lon="-1.81364"><ele>48.82</ele></trkpt><trkpt lat="49.68482" lon="-1.81362"><ele>48.82</ele></trkpt><trkpt lat="49.68479" lon="-1.81357"><ele>48.34</ele></trkpt><trkpt lat="49.68468" lon="-1.81352"><ele>45.82</ele></trkpt><trkpt lat="49.6846" lon="-1.8135"><ele>44.34</ele></trkpt><trkpt lat="49.68457" lon="-1.81349"><ele>44.21</ele></trkpt><trkpt lat="49.68449" lon="-1.81344"><ele>42.8</ele></trkpt><trkpt lat="49.68445" lon="-1.81342"><ele>41.72</ele></trkpt><trkpt lat="49.68435" lon="-1.81338"><ele>40.75</ele></trkpt><trkpt lat="49.68436" lon="-1.81331"><ele>40.39</ele></trkpt><trkpt lat="49.68438" lon="-1.81319"><ele>38.12</ele></trkpt><trkpt lat="49.68438" lon="-1.81314"><ele>38.14</ele></trkpt><trkpt lat="49.68439" lon="-1.81304"><ele>38.93</ele></trkpt><trkpt lat="49.68441" lon="-1.81283"><ele>39.37</ele></trkpt><trkpt lat="49.68441" lon="-1.81276"><ele>40.28</ele></trkpt><trkpt lat="49.68442" lon="-1.81266"><ele>41.22</ele></trkpt><trkpt lat="49.6844" lon="-1.81249"><ele>43.45</ele></trkpt><trkpt lat="49.68439" lon="-1.81243"><ele>45.22</ele></trkpt><trkpt lat="49.68431" lon="-1.81203"><ele>49.58</ele></trkpt><trkpt lat="49.68428" lon="-1.81196"><ele>50.05</ele></trkpt><trkpt lat="49.68422" lon="-1.81179"><ele>52.82</ele></trkpt><trkpt lat="49.6842" lon="-1.81172"><ele>53.11</ele></trkpt><trkpt lat="49.68416" lon="-1.81161"><ele>54.68</ele></trkpt><trkpt lat="49.68414" lon="-1.81158"><ele>55.4</ele></trkpt><trkpt lat="49.68413" lon="-1.81156"><ele>55.4</ele></trkpt><trkpt lat="49.68402" lon="-1.81136"><ele>58.26</ele></trkpt><trkpt lat="49.68386" lon="-1.81107"><ele>61.3</ele></trkpt><trkpt lat="49.68374" lon="-1.81092"><ele>62.79</ele></trkpt><trkpt lat="49.68374" lon="-1.81089"><ele>63.4</ele></trkpt><trkpt lat="49.68375" lon="-1.81087"><ele>63.4</ele></trkpt><trkpt lat="49.68382" lon="-1.81069"><ele>65.97</ele></trkpt><trkpt lat="49.68383" lon="-1.81065"><ele>66.41</ele></trkpt><trkpt lat="49.68391" lon="-1.81039"><ele>70.08</ele></trkpt><trkpt lat="49.68392" lon="-1.81034"><ele>71.65</ele></trkpt><trkpt lat="49.68398" lon="-1.81014"><ele>73.96</ele></trkpt><trkpt lat="49.68398" lon="-1.81011"><ele>74.6</ele></trkpt><trkpt lat="49.68401" lon="-1.81001"><ele>75.16</ele></trkpt><trkpt lat="49.68403" lon="-1.80987"><ele>76.67</ele></trkpt><trkpt lat="49.68408" lon="-1.80961"><ele>78.92</ele></trkpt><trkpt lat="49.68371" lon="-1.80951"><ele>79.67</ele></trkpt><trkpt lat="49.68363" lon="-1.80949"><ele>79.57</ele></trkpt><trkpt lat="49.68353" lon="-1.80945"><ele>79.85</ele></trkpt><trkpt lat="49.68342" lon="-1.80943"><ele>80.44</ele></trkpt><trkpt lat="49.6833" lon="-1.80938"><ele>80.88</ele></trkpt><trkpt lat="49.68318" lon="-1.80931"><ele>81.57</ele></trkpt><trkpt lat="49.68315" lon="-1.80924"><ele>82.06</ele></trkpt><trkpt lat="49.68316" lon="-1.80918"><ele>82.67</ele></trkpt><trkpt lat="49.68317" lon="-1.80912"><ele>82.85</ele></trkpt><trkpt lat="49.68323" lon="-1.8087"><ele>82.51</ele></trkpt><trkpt lat="49.68326" lon="-1.80857"><ele>82.51</ele></trkpt><trkpt lat="49.68328" lon="-1.80843"><ele>81.81</ele></trkpt><trkpt lat="49.6833" lon="-1.80831"><ele>81.41</ele></trkpt><trkpt lat="49.68331" lon="-1.80816"><ele>80.32</ele></trkpt><trkpt lat="49.68332" lon="-1.80805"><ele>79.76</ele></trkpt><trkpt lat="49.68333" lon="-1.80788"><ele>79.11</ele></trkpt><trkpt lat="49.68335" lon="-1.80771"><ele>78.83</ele></trkpt><trkpt lat="49.68335" lon="-1.80756"><ele>79.11</ele></trkpt><trkpt lat="49.68336" lon="-1.80743"><ele>79.23</ele></trkpt><trkpt lat="49.68336" lon="-1.80736"><ele>79.8</ele></trkpt><trkpt lat="49.68337" lon="-1.80723"><ele>80.41</ele></trkpt><trkpt lat="49.68338" lon="-1.80718"><ele>80.63</ele></trkpt><trkpt lat="49.68338" lon="-1.80715"><ele>80.83</ele></trkpt><trkpt lat="49.68338" lon="-1.80713"><ele>80.83</ele></trkpt><trkpt lat="49.68337" lon="-1.80697"><ele>81.59</ele></trkpt><trkpt lat="49.68336" lon="-1.80685"><ele>82.1</ele></trkpt><trkpt lat="49.68335" lon="-1.80672"><ele>83.36</ele></trkpt><trkpt lat="49.6833" lon="-1.80642"><ele>83.88</ele></trkpt><trkpt lat="49.68326" lon="-1.80621"><ele>84.66</ele></trkpt><trkpt lat="49.68321" lon="-1.80595"><ele>85.26</ele></trkpt><trkpt lat="49.68319" lon="-1.80586"><ele>85.27</ele></trkpt><trkpt lat="49.68316" lon="-1.80579"><ele>85.65</ele></trkpt><trkpt lat="49.68307" lon="-1.8055"><ele>87.06</ele></trkpt><trkpt lat="49.68305" lon="-1.80545"><ele>87.37</ele></trkpt><trkpt lat="49.68299" lon="-1.8053"><ele>88.59</ele></trkpt><trkpt lat="49.68288" lon="-1.80505"><ele>90.29</ele></trkpt><trkpt lat="49.68282" lon="-1.80485"><ele>91.33</ele></trkpt><trkpt lat="49.68281" lon="-1.80482"><ele>91.72</ele></trkpt><trkpt lat="49.6828" lon="-1.8048"><ele>91.98</ele></trkpt><trkpt lat="49.68275" lon="-1.80449"><ele>93.87</ele></trkpt><trkpt lat="49.68273" lon="-1.80441"><ele>94.51</ele></trkpt><trkpt lat="49.68273" lon="-1.80425"><ele>95.3</ele></trkpt><trkpt lat="49.68273" lon="-1.80396"><ele>96.96</ele></trkpt><trkpt lat="49.68276" lon="-1.80374"><ele>98.29</ele></trkpt><trkpt lat="49.68276" lon="-1.80373"><ele>98.51</ele></trkpt><trkpt lat="49.68277" lon="-1.80367"><ele>98.75</ele></trkpt><trkpt lat="49.68277" lon="-1.80366"><ele>98.75</ele></trkpt><trkpt lat="49.68285" lon="-1.8032"><ele>100.96</ele></trkpt><trkpt lat="49.68286" lon="-1.80318"><ele>100.96</ele></trkpt><trkpt lat="49.68286" lon="-1.80313"><ele>101.48</ele></trkpt><trkpt lat="49.68291" lon="-1.80271"><ele>103.41</ele></trkpt><trkpt lat="49.68293" lon="-1.80265"><ele>103.35</ele></trkpt><trkpt lat="49.68297" lon="-1.80246"><ele>103.96</ele></trkpt><trkpt lat="49.68301" lon="-1.80235"><ele>104.2</ele></trkpt><trkpt lat="49.68306" lon="-1.80227"><ele>104.2</ele></trkpt><trkpt lat="49.68337" lon="-1.80198"><ele>103.82</ele></trkpt><trkpt lat="49.68348" lon="-1.80181"><ele>103.69</ele></trkpt><trkpt lat="49.68351" lon="-1.80173"><ele>103.59</ele></trkpt><trkpt lat="49.68352" lon="-1.80169"><ele>103.47</ele></trkpt><trkpt lat="49.68353" lon="-1.80162"><ele>103.37</ele></trkpt><trkpt lat="49.68353" lon="-1.80137"><ele>103.01</ele></trkpt><trkpt lat="49.68352" lon="-1.80125"><ele>102.93</ele></trkpt><trkpt lat="49.6835" lon="-1.80116"><ele>102.94</ele></trkpt><trkpt lat="49.68344" lon="-1.80092"><ele>103.18</ele></trkpt><trkpt lat="49.68333" lon="-1.80054"><ele>104.5</ele></trkpt><trkpt lat="49.68332" lon="-1.80049"><ele>104.58</ele></trkpt><trkpt lat="49.68329" lon="-1.80039"><ele>104.79</ele></trkpt><trkpt lat="49.68324" lon="-1.80018"><ele>104.77</ele></trkpt><trkpt lat="49.68323" lon="-1.80013"><ele>104.66</ele></trkpt><trkpt lat="49.68317" lon="-1.79987"><ele>104.44</ele></trkpt><trkpt lat="49.68307" lon="-1.79943"><ele>103.89</ele></trkpt><trkpt lat="49.68293" lon="-1.79882"><ele>103.13</ele></trkpt><trkpt lat="49.68287" lon="-1.79856"><ele>103.01</ele></trkpt><trkpt lat="49.68283" lon="-1.79839"><ele>103.11</ele></trkpt><trkpt lat="49.68281" lon="-1.7983"><ele>103.07</ele></trkpt><trkpt lat="49.68276" lon="-1.7981"><ele>103.05</ele></trkpt><trkpt lat="49.68274" lon="-1.79804"><ele>103.36</ele></trkpt><trkpt lat="49.6827" lon="-1.79788"><ele>103.71</ele></trkpt><trkpt lat="49.68258" lon="-1.79757"><ele>104.51</ele></trkpt><trkpt lat="49.68257" lon="-1.79755"><ele>104.92</ele></trkpt><trkpt lat="49.68256" lon="-1.7975"><ele>105.05</ele></trkpt><trkpt lat="49.68249" lon="-1.7973"><ele>106.29</ele></trkpt><trkpt lat="49.68242" lon="-1.79707"><ele>107.14</ele></trkpt><trkpt lat="49.68235" lon="-1.79679"><ele>108.47</ele></trkpt><trkpt lat="49.68231" lon="-1.79659"><ele>109.32</ele></trkpt><trkpt lat="49.68223" lon="-1.79627"><ele>110.4</ele></trkpt><trkpt lat="49.68216" lon="-1.79598"><ele>111.21</ele></trkpt><trkpt lat="49.68211" lon="-1.79581"><ele>111.89</ele></trkpt><trkpt lat="49.6821" lon="-1.79575"><ele>112.32</ele></trkpt><trkpt lat="49.68208" lon="-1.79566"><ele>112.45</ele></trkpt><trkpt lat="49.68203" lon="-1.79547"><ele>112.97</ele></trkpt><trkpt lat="49.68198" lon="-1.79524"><ele>113.33</ele></trkpt><trkpt lat="49.68195" lon="-1.79511"><ele>113.58</ele></trkpt><trkpt lat="49.68192" lon="-1.79501"><ele>113.57</ele></trkpt><trkpt lat="49.68188" lon="-1.79485"><ele>113.45</ele></trkpt><trkpt lat="49.68168" lon="-1.79408"><ele>110.55</ele></trkpt><trkpt lat="49.68165" lon="-1.79399"><ele>109.82</ele></trkpt><trkpt lat="49.68159" lon="-1.79384"><ele>109.52</ele></trkpt><trkpt lat="49.6815" lon="-1.79356"><ele>109.32</ele></trkpt><trkpt lat="49.68139" lon="-1.79321"><ele>108.2</ele></trkpt><trkpt lat="49.68127" lon="-1.79284"><ele>107.38</ele></trkpt><trkpt lat="49.68115" lon="-1.79246"><ele>106.51</ele></trkpt><trkpt lat="49.68098" lon="-1.79193"><ele>105.38</ele></trkpt><trkpt lat="49.68095" lon="-1.79184"><ele>105.04</ele></trkpt><trkpt lat="49.68085" lon="-1.79147"><ele>104.09</ele></trkpt><trkpt lat="49.68082" lon="-1.79142"><ele>103.9</ele></trkpt><trkpt lat="49.68085" lon="-1.79141"><ele>103.76</ele></trkpt><trkpt lat="49.68092" lon="-1.79138"><ele>103.09</ele></trkpt><trkpt lat="49.68107" lon="-1.79135"><ele>102.19</ele></trkpt><trkpt lat="49.68112" lon="-1.79134"><ele>101.51</ele></trkpt><trkpt lat="49.68117" lon="-1.79134"><ele>101.13</ele></trkpt><trkpt lat="49.6813" lon="-1.79131"><ele>100.22</ele></trkpt><trkpt lat="49.68148" lon="-1.79127"><ele>98.85</ele></trkpt><trkpt lat="49.68166" lon="-1.79124"><ele>97.28</ele></trkpt><trkpt lat="49.68185" lon="-1.79121"><ele>95.51</ele></trkpt><trkpt lat="49.68199" lon="-1.79118"><ele>94.62</ele></trkpt><trkpt lat="49.68204" lon="-1.79118"><ele>94.49</ele></trkpt><trkpt lat="49.68208" lon="-1.79119"><ele>94.35</ele></trkpt><trkpt lat="49.68213" lon="-1.79122"><ele>94.26</ele></trkpt><trkpt lat="49.68219" lon="-1.79126"><ele>94.2</ele></trkpt><trkpt lat="49.6822" lon="-1.79126"><ele>93.9</ele></trkpt></trkseg></trk></gpx>
