<?xml version="1.0" encoding="UTF-8" standalone="no"?>
<gpx xmlns="http://www.topografix.com/GPX/1/1" version="1.1" xmlns:xsi="http://www.w3.org/2001/XMLSchema-instance" xsi:schemaLocation="http://www.topografix.com/GPX/1/1 http://www.topografix.com/GPX/1/1/gpx.xsd" creator="Cirkwi"><metadata><name><![CDATA[Les secrets de la Sinope]]></name><desc><![CDATA[Depuis Quinéville, gardez le cap grâce au fort de la Hougue face à vous. Le fleuve de la Sinope vous accompagne à mesure que vous vous enfoncez dans les terres jusqu'au village de Lestre. En chemin vers Ozeville, profitez des points de vue sur la campagne et sur les côtes situées non loin ! Partez de la place du lieutenant-colonel R.H. Strumph. Dirigez-vous vers la mer et prenez à gauche sur le boulevard maritime, vers le port (Quinéville). Coordonnées GPS : 49°30'54.3"N, 1°17'12.6"W Suivez le circuit selon le sens inverse des aiguilles d'une montre. Le balisage est de couleur jaune. Vous avez la possibilité de raccourcir le circuit au niveau du pont bleu. Vous retrouverez ce circuit dans le topoguide "La Manche à pied" édité par la FFRandonnée et distribué dans les Bureaux d'information touristiques de l'Office de tourisme du Cotentin. Vous retrouverez aussi deux boucles plus petites (6 et 7 km) dans le topoguide "Val-de-Saire - de Barfleur aux plages du D-DAY" de l'Office de tourisme du Cotentin.   En fonction de la météo, certains chemins peuvent être boueux et glissants. Prévoyez des chaussures adaptées. Dénivelé important sur la première moitié, traversée en deux fois de la RD4. Passage très humide le long du ruisseau du Bouillon, à l'ouest du circuit. Départ accessible avec le réseau de bus Cap Cotentin à l'arrêt "Quinéville - Rue de la Poste"  (plus d'infos sur capcotentin.fr)]]></desc><author><name><![CDATA[Cotentin unique]]></name></author><link href="http://fichier0.cirkwi.com/image/photo/circuit/1300x1300/428163/fr/0.jpg"><text><![CDATA[|@Marc Leouge]]></text></link><link href="http://fichier0.cirkwi.com/image/photo/circuit/1300x1300/428163/fr/1.jpg"><text><![CDATA[|@Marc Lerouge]]></text></link><link href="http://fichier0.cirkwi.com/image/photo/circuit/1300x1300/428163/fr/2.jpg"><text><![CDATA[|@Marc Lerouge]]></text></link><link href="http://fichier0.cirkwi.com/image/photo/circuit/1300x1300/428163/fr/3.jpg"><text><![CDATA[|@Marc Lerouge]]></text></link><time>2026-08-04T14:28:34Z</time></metadata><wpt lat="49.5162376" lon="-1.2925029"><ele>2</ele><name><![CDATA[Déviation au port sinope]]></name><desc><![CDATA[Contourner par la route en raison de travaux sur un mur de soutènement]]></desc></wpt><trk><trkseg><trkpt lat="49.51527" lon="-1.28598"><ele>4.34</ele></trkpt><trkpt lat="49.51564" lon="-1.28661"><ele>4.22</ele></trkpt><trkpt lat="49.51587" lon="-1.28655"><ele>4.5</ele></trkpt><trkpt lat="49.51702" lon="-1.28822"><ele>5.03</ele></trkpt><trkpt lat="49.51714" lon="-1.29048"><ele>3.78</ele></trkpt><trkpt lat="49.51711" lon="-1.29042"><ele>3.85</ele></trkpt><trkpt lat="49.5171" lon="-1.29043"><ele>3.82</ele></trkpt><trkpt lat="49.51705" lon="-1.29045"><ele>4.01</ele></trkpt><trkpt lat="49.51709" lon="-1.29058"><ele>3.81</ele></trkpt><trkpt lat="49.51708" lon="-1.29062"><ele>3.82</ele></trkpt><trkpt lat="49.51705" lon="-1.29071"><ele>3.84</ele></trkpt><trkpt lat="49.517" lon="-1.2908"><ele>3.89</ele></trkpt><trkpt lat="49.51693" lon="-1.29088"><ele>3.92</ele></trkpt><trkpt lat="49.51686" lon="-1.29096"><ele>4.02</ele></trkpt><trkpt lat="49.51688" lon="-1.29088"><ele>4.07</ele></trkpt><trkpt lat="49.51688" lon="-1.29084"><ele>4.06</ele></trkpt><trkpt lat="49.51688" lon="-1.29076"><ele>4.06</ele></trkpt><trkpt lat="49.51686" lon="-1.29068"><ele>4.06</ele></trkpt><trkpt lat="49.51682" lon="-1.29063"><ele>4.2</ele></trkpt><trkpt lat="49.51679" lon="-1.2906"><ele>4.29</ele></trkpt><trkpt lat="49.51675" lon="-1.29059"><ele>4.4</ele></trkpt><trkpt lat="49.51652" lon="-1.29072"><ele>4.42</ele></trkpt><trkpt lat="49.51642" lon="-1.29073"><ele>4.42</ele></trkpt><trkpt lat="49.51634" lon="-1.29072"><ele>4.12</ele></trkpt><trkpt lat="49.51624" lon="-1.29067"><ele>3.96</ele></trkpt><trkpt lat="49.51614" lon="-1.29056"><ele>3.94</ele></trkpt><trkpt lat="49.51589" lon="-1.29017"><ele>4.08</ele></trkpt><trkpt lat="49.51582" lon="-1.29006"><ele>4.25</ele></trkpt><trkpt lat="49.51579" lon="-1.29004"><ele>4.23</ele></trkpt><trkpt lat="49.51557" lon="-1.28992"><ele>4.31</ele></trkpt><trkpt lat="49.51557" lon="-1.28995"><ele>4.25</ele></trkpt><trkpt lat="49.51545" lon="-1.29066"><ele>3.98</ele></trkpt><trkpt lat="49.51542" lon="-1.29083"><ele>3.95</ele></trkpt><trkpt lat="49.51536" lon="-1.29131"><ele>3.95</ele></trkpt><trkpt lat="49.51531" lon="-1.29186"><ele>4.09</ele></trkpt><trkpt lat="49.51533" lon="-1.29234"><ele>3.87</ele></trkpt><trkpt lat="49.51534" lon="-1.29255"><ele>3.7</ele></trkpt><trkpt lat="49.5154" lon="-1.29311"><ele>3.66</ele></trkpt><trkpt lat="49.51544" lon="-1.2931"><ele>3.74</ele></trkpt><trkpt lat="49.5155" lon="-1.29313"><ele>3.81</ele></trkpt><trkpt lat="49.51558" lon="-1.29325"><ele>3.94</ele></trkpt><trkpt lat="49.51578" lon="-1.2935"><ele>3.91</ele></trkpt><trkpt lat="49.5159" lon="-1.29363"><ele>3.73</ele></trkpt><trkpt lat="49.516" lon="-1.29373"><ele>3.74</ele></trkpt><trkpt lat="49.51603" lon="-1.29374"><ele>3.74</ele></trkpt><trkpt lat="49.51602" lon="-1.29379"><ele>3.64</ele></trkpt><trkpt lat="49.51604" lon="-1.29381"><ele>3.73</ele></trkpt><trkpt lat="49.51612" lon="-1.29372"><ele>3.72</ele></trkpt><trkpt lat="49.51616" lon="-1.29367"><ele>3.66</ele></trkpt><trkpt lat="49.5162" lon="-1.29359"><ele>3.67</ele></trkpt><trkpt lat="49.51629" lon="-1.29342"><ele>3.75</ele></trkpt><trkpt lat="49.51643" lon="-1.29315"><ele>4.17</ele></trkpt><trkpt lat="49.51657" lon="-1.29291"><ele>4.65</ele></trkpt><trkpt lat="49.51663" lon="-1.29282"><ele>1.52</ele></trkpt><trkpt lat="49.51664" lon="-1.29279"><ele>1.52</ele></trkpt><trkpt lat="49.51667" lon="-1.29273"><ele>3.85</ele></trkpt><trkpt lat="49.51671" lon="-1.29264"><ele>4.33</ele></trkpt><trkpt lat="49.51673" lon="-1.29263"><ele>4.08</ele></trkpt><trkpt lat="49.51671" lon="-1.29237"><ele>4.23</ele></trkpt><trkpt lat="49.51675" lon="-1.29214"><ele>4.2</ele></trkpt><trkpt lat="49.51688" lon="-1.29188"><ele>3.86</ele></trkpt><trkpt lat="49.51705" lon="-1.29169"><ele>4.07</ele></trkpt><trkpt lat="49.51728" lon="-1.29159"><ele>4.08</ele></trkpt><trkpt lat="49.51755" lon="-1.29162"><ele>3.69</ele></trkpt><trkpt lat="49.51774" lon="-1.29161"><ele>3.59</ele></trkpt><trkpt lat="49.5179" lon="-1.29158"><ele>4.12</ele></trkpt><trkpt lat="49.5181" lon="-1.29146"><ele>4.29</ele></trkpt><trkpt lat="49.51834" lon="-1.29118"><ele>3.99</ele></trkpt><trkpt lat="49.5185" lon="-1.2906"><ele>3.81</ele></trkpt><trkpt lat="49.51858" lon="-1.29032"><ele>3.96</ele></trkpt><trkpt lat="49.51876" lon="-1.2903"><ele>4.06</ele></trkpt><trkpt lat="49.51899" lon="-1.29027"><ele>4.03</ele></trkpt><trkpt lat="49.51917" lon="-1.29005"><ele>4.52</ele></trkpt><trkpt lat="49.51957" lon="-1.29007"><ele>4.59</ele></trkpt><trkpt lat="49.52" lon="-1.29018"><ele>4.49</ele></trkpt><trkpt lat="49.52033" lon="-1.29035"><ele>4.46</ele></trkpt><trkpt lat="49.52165" lon="-1.29104"><ele>4.36</ele></trkpt><trkpt lat="49.52214" lon="-1.29139"><ele>4.39</ele></trkpt><trkpt lat="49.52254" lon="-1.29164"><ele>4.42</ele></trkpt><trkpt lat="49.5231" lon="-1.29223"><ele>4.39</ele></trkpt><trkpt lat="49.52388" lon="-1.29314"><ele>4.56</ele></trkpt><trkpt lat="49.5245" lon="-1.29388"><ele>4.49</ele></trkpt><trkpt lat="49.52487" lon="-1.29427"><ele>4.77</ele></trkpt><trkpt lat="49.52557" lon="-1.29498"><ele>4.49</ele></trkpt><trkpt lat="49.52618" lon="-1.29551"><ele>4.53</ele></trkpt><trkpt lat="49.52665" lon="-1.29577"><ele>4.84</ele></trkpt><trkpt lat="49.52725" lon="-1.29639"><ele>4.95</ele></trkpt><trkpt lat="49.52758" lon="-1.29663"><ele>4.7</ele></trkpt><trkpt lat="49.52811" lon="-1.29706"><ele>4.27</ele></trkpt><trkpt lat="49.52846" lon="-1.29733"><ele>4.15</ele></trkpt><trkpt lat="49.5282" lon="-1.29787"><ele>4.11</ele></trkpt><trkpt lat="49.52705" lon="-1.29937"><ele>4.21</ele></trkpt><trkpt lat="49.52515" lon="-1.30208"><ele>3.49</ele></trkpt><trkpt lat="49.5241" lon="-1.30367"><ele>4.11</ele></trkpt><trkpt lat="49.52386" lon="-1.30408"><ele>3.93</ele></trkpt><trkpt lat="49.52299" lon="-1.30556"><ele>4.85</ele></trkpt><trkpt lat="49.52207" lon="-1.3073"><ele>5.88</ele></trkpt><trkpt lat="49.52127" lon="-1.30887"><ele>6.78</ele></trkpt><trkpt lat="49.52096" lon="-1.30948"><ele>7.83</ele></trkpt><trkpt lat="49.52077" lon="-1.30975"><ele>8.67</ele></trkpt><trkpt lat="49.52069" lon="-1.30977"><ele>8.9</ele></trkpt><trkpt lat="49.52059" lon="-1.30973"><ele>9.14</ele></trkpt><trkpt lat="49.52016" lon="-1.3094"><ele>9.89</ele></trkpt><trkpt lat="49.52002" lon="-1.30934"><ele>10</ele></trkpt><trkpt lat="49.51991" lon="-1.30934"><ele>10.02</ele></trkpt><trkpt lat="49.51983" lon="-1.30939"><ele>10.13</ele></trkpt><trkpt lat="49.51976" lon="-1.30948"><ele>10.54</ele></trkpt><trkpt lat="49.5198" lon="-1.30962"><ele>10.78</ele></trkpt><trkpt lat="49.51981" lon="-1.30978"><ele>11.57</ele></trkpt><trkpt lat="49.51979" lon="-1.31107"><ele>17.11</ele></trkpt><trkpt lat="49.51977" lon="-1.31127"><ele>17.72</ele></trkpt><trkpt lat="49.51944" lon="-1.31115"><ele>17.25</ele></trkpt><trkpt lat="49.51932" lon="-1.31122"><ele>16.89</ele></trkpt><trkpt lat="49.51914" lon="-1.31174"><ele>18.21</ele></trkpt><trkpt lat="49.51896" lon="-1.31151"><ele>16.84</ele></trkpt><trkpt lat="49.51888" lon="-1.31176"><ele>19.41</ele></trkpt><trkpt lat="49.51883" lon="-1.31216"><ele>20.28</ele></trkpt><trkpt lat="49.51844" lon="-1.31213"><ele>21.99</ele></trkpt><trkpt lat="49.51907" lon="-1.31219"><ele>20.02</ele></trkpt><trkpt lat="49.51931" lon="-1.31216"><ele>18.93</ele></trkpt><trkpt lat="49.51945" lon="-1.31247"><ele>18.06</ele></trkpt><trkpt lat="49.5193" lon="-1.31272"><ele>17.73</ele></trkpt><trkpt lat="49.51927" lon="-1.31304"><ele>17.3</ele></trkpt><trkpt lat="49.51929" lon="-1.31368"><ele>17.39</ele></trkpt><trkpt lat="49.51919" lon="-1.31393"><ele>17.48</ele></trkpt><trkpt lat="49.51905" lon="-1.31386"><ele>16.84</ele></trkpt><trkpt lat="49.51888" lon="-1.31381"><ele>13.69</ele></trkpt><trkpt lat="49.51878" lon="-1.31391"><ele>12.8</ele></trkpt><trkpt lat="49.51852" lon="-1.31455"><ele>12.47</ele></trkpt><trkpt lat="49.51794" lon="-1.31594"><ele>11.91</ele></trkpt><trkpt lat="49.51776" lon="-1.31679"><ele>15.93</ele></trkpt><trkpt lat="49.51747" lon="-1.31823"><ele>10.8</ele></trkpt><trkpt lat="49.51797" lon="-1.31822"><ele>14.96</ele></trkpt><trkpt lat="49.51833" lon="-1.31813"><ele>19.02</ele></trkpt><trkpt lat="49.51865" lon="-1.31867"><ele>22.75</ele></trkpt><trkpt lat="49.51897" lon="-1.31898"><ele>24.4</ele></trkpt><trkpt lat="49.51941" lon="-1.31956"><ele>27.12</ele></trkpt><trkpt lat="49.51976" lon="-1.31972"><ele>26.02</ele></trkpt><trkpt lat="49.51987" lon="-1.31979"><ele>25.66</ele></trkpt><trkpt lat="49.51999" lon="-1.31991"><ele>25.62</ele></trkpt><trkpt lat="49.52115" lon="-1.32116"><ele>26.07</ele></trkpt><trkpt lat="49.52162" lon="-1.32149"><ele>25.84</ele></trkpt><trkpt lat="49.52184" lon="-1.32158"><ele>25.58</ele></trkpt><trkpt lat="49.52218" lon="-1.32159"><ele>25.15</ele></trkpt><trkpt lat="49.52217" lon="-1.32261"><ele>23.96</ele></trkpt><trkpt lat="49.52221" lon="-1.3233"><ele>22.96</ele></trkpt><trkpt lat="49.52229" lon="-1.32401"><ele>21.12</ele></trkpt><trkpt lat="49.52249" lon="-1.32497"><ele>21.09</ele></trkpt><trkpt lat="49.52266" lon="-1.32569"><ele>22.1</ele></trkpt><trkpt lat="49.52198" lon="-1.32723"><ele>22.35</ele></trkpt><trkpt lat="49.52236" lon="-1.32811"><ele>23.18</ele></trkpt><trkpt lat="49.52282" lon="-1.32869"><ele>23.17</ele></trkpt><trkpt lat="49.5234" lon="-1.32961"><ele>19.32</ele></trkpt><trkpt lat="49.52377" lon="-1.33003"><ele>17.17</ele></trkpt><trkpt lat="49.52415" lon="-1.33061"><ele>15.67</ele></trkpt><trkpt lat="49.5247" lon="-1.33128"><ele>15.97</ele></trkpt><trkpt lat="49.52497" lon="-1.33183"><ele>16.11</ele></trkpt><trkpt lat="49.52506" lon="-1.33232"><ele>16.25</ele></trkpt><trkpt lat="49.52515" lon="-1.33244"><ele>16.4</ele></trkpt><trkpt lat="49.52573" lon="-1.33266"><ele>17.5</ele></trkpt><trkpt lat="49.52619" lon="-1.33273"><ele>19.19</ele></trkpt><trkpt lat="49.52607" lon="-1.33445"><ele>25.62</ele></trkpt><trkpt lat="49.52614" lon="-1.335"><ele>26.55</ele></trkpt><trkpt lat="49.52614" lon="-1.33574"><ele>26.88</ele></trkpt><trkpt lat="49.52593" lon="-1.33617"><ele>28.55</ele></trkpt><trkpt lat="49.52556" lon="-1.33672"><ele>28.74</ele></trkpt><trkpt lat="49.52537" lon="-1.33708"><ele>29.46</ele></trkpt><trkpt lat="49.5251" lon="-1.33745"><ele>29.54</ele></trkpt><trkpt lat="49.52486" lon="-1.33764"><ele>29.42</ele></trkpt><trkpt lat="49.52451" lon="-1.33782"><ele>29.6</ele></trkpt><trkpt lat="49.52396" lon="-1.33808"><ele>29.45</ele></trkpt><trkpt lat="49.52372" lon="-1.33816"><ele>28.5</ele></trkpt><trkpt lat="49.52349" lon="-1.33848"><ele>26.69</ele></trkpt><trkpt lat="49.52339" lon="-1.33862"><ele>26.61</ele></trkpt><trkpt lat="49.52315" lon="-1.33864"><ele>19.96</ele></trkpt><trkpt lat="49.52255" lon="-1.3386"><ele>13.9</ele></trkpt><trkpt lat="49.52202" lon="-1.3386"><ele>13.66</ele></trkpt><trkpt lat="49.52156" lon="-1.33885"><ele>13.73</ele></trkpt><trkpt lat="49.52108" lon="-1.3391"><ele>14.38</ele></trkpt><trkpt lat="49.52049" lon="-1.3395"><ele>16.03</ele></trkpt><trkpt lat="49.52017" lon="-1.33982"><ele>17.19</ele></trkpt><trkpt lat="49.51988" lon="-1.34011"><ele>17.56</ele></trkpt><trkpt lat="49.5197" lon="-1.34018"><ele>18.82</ele></trkpt><trkpt lat="49.51934" lon="-1.3401"><ele>20.67</ele></trkpt><trkpt lat="49.51912" lon="-1.34021"><ele>20.91</ele></trkpt><trkpt lat="49.51902" lon="-1.34289"><ele>32.69</ele></trkpt><trkpt lat="49.51897" lon="-1.3432"><ele>33.7</ele></trkpt><trkpt lat="49.51884" lon="-1.34362"><ele>35.06</ele></trkpt><trkpt lat="49.51873" lon="-1.34375"><ele>35.4</ele></trkpt><trkpt lat="49.5185" lon="-1.34387"><ele>35.62</ele></trkpt><trkpt lat="49.51828" lon="-1.34404"><ele>35.53</ele></trkpt><trkpt lat="49.51789" lon="-1.34436"><ele>33.86</ele></trkpt><trkpt lat="49.51776" lon="-1.34468"><ele>34.25</ele></trkpt><trkpt lat="49.5176" lon="-1.34513"><ele>33.8</ele></trkpt><trkpt lat="49.51746" lon="-1.34548"><ele>33.89</ele></trkpt><trkpt lat="49.51723" lon="-1.34573"><ele>33.2</ele></trkpt><trkpt lat="49.51707" lon="-1.34575"><ele>32.57</ele></trkpt><trkpt lat="49.51676" lon="-1.34578"><ele>31.02</ele></trkpt><trkpt lat="49.51643" lon="-1.34526"><ele>30.51</ele></trkpt><trkpt lat="49.51627" lon="-1.34506"><ele>31.55</ele></trkpt><trkpt lat="49.51597" lon="-1.34491"><ele>32.69</ele></trkpt><trkpt lat="49.51562" lon="-1.34475"><ele>33.58</ele></trkpt><trkpt lat="49.51447" lon="-1.344"><ele>36.76</ele></trkpt><trkpt lat="49.51395" lon="-1.34375"><ele>39.35</ele></trkpt><trkpt lat="49.51349" lon="-1.34359"><ele>41.45</ele></trkpt><trkpt lat="49.51323" lon="-1.34346"><ele>43.45</ele></trkpt><trkpt lat="49.51296" lon="-1.34326"><ele>45.04</ele></trkpt><trkpt lat="49.51243" lon="-1.34268"><ele>44.79</ele></trkpt><trkpt lat="49.51332" lon="-1.34165"><ele>39.65</ele></trkpt><trkpt lat="49.51386" lon="-1.34072"><ele>37.05</ele></trkpt><trkpt lat="49.5143" lon="-1.34006"><ele>36.79</ele></trkpt><trkpt lat="49.5147" lon="-1.33956"><ele>34.68</ele></trkpt><trkpt lat="49.51478" lon="-1.33925"><ele>34.66</ele></trkpt><trkpt lat="49.51486" lon="-1.33811"><ele>34.98</ele></trkpt><trkpt lat="49.51499" lon="-1.33706"><ele>33.5</ele></trkpt><trkpt lat="49.51514" lon="-1.33606"><ele>33.29</ele></trkpt><trkpt lat="49.51558" lon="-1.33615"><ele>35.55</ele></trkpt><trkpt lat="49.5163" lon="-1.33635"><ele>36.39</ele></trkpt><trkpt lat="49.51703" lon="-1.33644"><ele>35.78</ele></trkpt><trkpt lat="49.51712" lon="-1.33587"><ele>35.56</ele></trkpt><trkpt lat="49.51731" lon="-1.33532"><ele>34.71</ele></trkpt><trkpt lat="49.51763" lon="-1.33476"><ele>34.33</ele></trkpt><trkpt lat="49.51784" lon="-1.33441"><ele>34.29</ele></trkpt><trkpt lat="49.5182" lon="-1.33398"><ele>33.65</ele></trkpt><trkpt lat="49.51858" lon="-1.33342"><ele>31.93</ele></trkpt><trkpt lat="49.51875" lon="-1.33304"><ele>31.15</ele></trkpt><trkpt lat="49.51834" lon="-1.33274"><ele>31.63</ele></trkpt><trkpt lat="49.51799" lon="-1.33233"><ele>30.44</ele></trkpt><trkpt lat="49.51776" lon="-1.33212"><ele>29.51</ele></trkpt><trkpt lat="49.51746" lon="-1.33179"><ele>27.93</ele></trkpt><trkpt lat="49.51716" lon="-1.33134"><ele>26.05</ele></trkpt><trkpt lat="49.51679" lon="-1.33096"><ele>21.87</ele></trkpt><trkpt lat="49.5165" lon="-1.33075"><ele>17.82</ele></trkpt><trkpt lat="49.51582" lon="-1.33022"><ele>14.5</ele></trkpt><trkpt lat="49.51584" lon="-1.32961"><ele>12.84</ele></trkpt><trkpt lat="49.51573" lon="-1.32921"><ele>12.68</ele></trkpt><trkpt lat="49.51555" lon="-1.32903"><ele>13.75</ele></trkpt><trkpt lat="49.51544" lon="-1.3289"><ele>13.42</ele></trkpt><trkpt lat="49.51552" lon="-1.32836"><ele>13.14</ele></trkpt><trkpt lat="49.51525" lon="-1.32808"><ele>17.51</ele></trkpt><trkpt lat="49.51515" lon="-1.32788"><ele>20.97</ele></trkpt><trkpt lat="49.51512" lon="-1.32758"><ele>24.11</ele></trkpt><trkpt lat="49.51507" lon="-1.32734"><ele>25.92</ele></trkpt><trkpt lat="49.51493" lon="-1.32708"><ele>28.73</ele></trkpt><trkpt lat="49.51446" lon="-1.32667"><ele>35.4</ele></trkpt><trkpt lat="49.51425" lon="-1.32623"><ele>37.7</ele></trkpt><trkpt lat="49.51443" lon="-1.32596"><ele>36.84</ele></trkpt><trkpt lat="49.51474" lon="-1.3251"><ele>29.85</ele></trkpt><trkpt lat="49.51487" lon="-1.32445"><ele>25.48</ele></trkpt><trkpt lat="49.51489" lon="-1.32383"><ele>24</ele></trkpt><trkpt lat="49.51484" lon="-1.32267"><ele>27.45</ele></trkpt><trkpt lat="49.51501" lon="-1.32244"><ele>26.91</ele></trkpt><trkpt lat="49.51517" lon="-1.32187"><ele>23.17</ele></trkpt><trkpt lat="49.51523" lon="-1.32159"><ele>22.95</ele></trkpt><trkpt lat="49.51524" lon="-1.32133"><ele>22.86</ele></trkpt><trkpt lat="49.51523" lon="-1.32108"><ele>22.38</ele></trkpt><trkpt lat="49.51519" lon="-1.32054"><ele>22.45</ele></trkpt><trkpt lat="49.51519" lon="-1.32032"><ele>22.31</ele></trkpt><trkpt lat="49.51524" lon="-1.32009"><ele>20.67</ele></trkpt><trkpt lat="49.51556" lon="-1.31937"><ele>15.62</ele></trkpt><trkpt lat="49.51561" lon="-1.3192"><ele>14.93</ele></trkpt><trkpt lat="49.5157" lon="-1.31882"><ele>13.76</ele></trkpt><trkpt lat="49.51579" lon="-1.31863"><ele>13.13</ele></trkpt><trkpt lat="49.51595" lon="-1.31837"><ele>11.03</ele></trkpt><trkpt lat="49.51606" lon="-1.31827"><ele>10.03</ele></trkpt><trkpt lat="49.51645" lon="-1.316"><ele>16.25</ele></trkpt><trkpt lat="49.51515" lon="-1.31553"><ele>30.78</ele></trkpt><trkpt lat="49.51593" lon="-1.31293"><ele>40.14</ele></trkpt><trkpt lat="49.5151" lon="-1.30764"><ele>37.33</ele></trkpt><trkpt lat="49.51465" lon="-1.30576"><ele>35.63</ele></trkpt><trkpt lat="49.5155" lon="-1.30497"><ele>27.46</ele></trkpt><trkpt lat="49.51525" lon="-1.3039"><ele>25.4</ele></trkpt><trkpt lat="49.51471" lon="-1.303"><ele>30.13</ele></trkpt><trkpt lat="49.51424" lon="-1.30376"><ele>32.53</ele></trkpt><trkpt lat="49.51427" lon="-1.30375"><ele>32.19</ele></trkpt><trkpt lat="49.51426" lon="-1.30369"><ele>32.6</ele></trkpt><trkpt lat="49.51408" lon="-1.30342"><ele>33.64</ele></trkpt><trkpt lat="49.51384" lon="-1.30305"><ele>34.47</ele></trkpt><trkpt lat="49.51375" lon="-1.30284"><ele>34.86</ele></trkpt><trkpt lat="49.51373" lon="-1.30286"><ele>34.86</ele></trkpt><trkpt lat="49.51343" lon="-1.30329"><ele>36.72</ele></trkpt><trkpt lat="49.51321" lon="-1.30354"><ele>37.49</ele></trkpt><trkpt lat="49.5132" lon="-1.30354"><ele>37.49</ele></trkpt><trkpt lat="49.51312" lon="-1.30362"><ele>37.53</ele></trkpt><trkpt lat="49.51294" lon="-1.3038"><ele>37.32</ele></trkpt><trkpt lat="49.51271" lon="-1.30385"><ele>37.42</ele></trkpt><trkpt lat="49.51268" lon="-1.30371"><ele>37.68</ele></trkpt><trkpt lat="49.51254" lon="-1.30325"><ele>37.91</ele></trkpt><trkpt lat="49.51244" lon="-1.30295"><ele>37.6</ele></trkpt><trkpt lat="49.51239" lon="-1.30277"><ele>37.28</ele></trkpt><trkpt lat="49.51228" lon="-1.30243"><ele>36.98</ele></trkpt><trkpt lat="49.51206" lon="-1.30183"><ele>34.86</ele></trkpt><trkpt lat="49.51212" lon="-1.30184"><ele>35.68</ele></trkpt><trkpt lat="49.51216" lon="-1.3018"><ele>35.55</ele></trkpt><trkpt lat="49.51229" lon="-1.30166"><ele>35.22</ele></trkpt><trkpt lat="49.51236" lon="-1.30157"><ele>35.05</ele></trkpt><trkpt lat="49.51247" lon="-1.30136"><ele>34.5</ele></trkpt><trkpt lat="49.51256" lon="-1.30108"><ele>33.38</ele></trkpt><trkpt lat="49.51265" lon="-1.3009"><ele>32.55</ele></trkpt><trkpt lat="49.51302" lon="-1.3005"><ele>30</ele></trkpt><trkpt lat="49.51308" lon="-1.30045"><ele>29.71</ele></trkpt><trkpt lat="49.51332" lon="-1.30027"><ele>28.63</ele></trkpt><trkpt lat="49.51358" lon="-1.30012"><ele>27.97</ele></trkpt><trkpt lat="49.51383" lon="-1.29991"><ele>26.58</ele></trkpt><trkpt lat="49.51403" lon="-1.2997"><ele>23.16</ele></trkpt><trkpt lat="49.51407" lon="-1.29975"><ele>23.2</ele></trkpt><trkpt lat="49.51403" lon="-1.2997"><ele>23.16</ele></trkpt><trkpt lat="49.51376" lon="-1.29926"><ele>22.02</ele></trkpt><trkpt lat="49.51359" lon="-1.29895"><ele>21.35</ele></trkpt><trkpt lat="49.51352" lon="-1.29877"><ele>21.51</ele></trkpt><trkpt lat="49.5136" lon="-1.29885"><ele>20.94</ele></trkpt><trkpt lat="49.51252" lon="-1.29781"><ele>27.77</ele></trkpt><trkpt lat="49.51219" lon="-1.29725"><ele>28.53</ele></trkpt><trkpt lat="49.512" lon="-1.2939"><ele>17.08</ele></trkpt><trkpt lat="49.5122" lon="-1.29255"><ele>15.09</ele></trkpt><trkpt lat="49.51276" lon="-1.29001"><ele>8.05</ele></trkpt><trkpt lat="49.51344" lon="-1.28954"><ele>5.8</ele></trkpt><trkpt lat="49.5146" lon="-1.2895"><ele>4.27</ele></trkpt><trkpt lat="49.51496" lon="-1.2875"><ele>5.03</ele></trkpt><trkpt lat="49.51521" lon="-1.28625"><ele>4.66</ele></trkpt><trkpt lat="49.51519" lon="-1.28592"><ele>4.48</ele></trkpt></trkseg></trk></gpx>
