<?xml version="1.0" encoding="UTF-8" standalone="no"?>
<gpx xmlns="http://www.topografix.com/GPX/1/1" version="1.1" xmlns:xsi="http://www.w3.org/2001/XMLSchema-instance" xsi:schemaLocation="http://www.topografix.com/GPX/1/1 http://www.topografix.com/GPX/1/1/gpx.xsd" creator="Cirkwi"><metadata><name><![CDATA[La Fauconnière]]></name><desc><![CDATA[Ce parcours de niveau vert propose une agréable alternance entre milieu urbain et espaces naturels insoupçonnés. Au départ de la place du Général de Gaulle, vous longez les quais avant d’aborder une longue montée menant au parc de la Fauconnière. Le tracé redescend ensuite vers le Vallon Sauvage, en empruntant des sentiers et chemins agréables, parfois légèrement techniques, offrant une belle parenthèse de nature en cœur de ville. Après la remontée du Vallon Sauvage, une section plus urbaine vous permettra de rejoindre le Vallon des Roquettes, puis de descendre en direction de la voie du Homet. Vous retrouverez ensuite le centre-ville en suivant cette voie douce jusqu’à la gare, avant de conclure la boucle le long des emblématiques quais du port de Cherbourg. Le parcours est balisé à l’aide de balises autocollantes ou en dibond « Trail », portant le numéro 1 sur fond vert, ainsi que par un balisage « Trail » en peinture jaune. ⚠️ Attention : certaines portions peuvent être glissantes par mauvais temps. Il est recommandé de porter des chaussures avec de bons crampons. Pour les sorties nocturnes, pensez également à vous munir de lampes frontales et de vêtements réfléchissants.]]></desc><author><name><![CDATA[Cotentin unique]]></name></author><link href="http://fichier0.cirkwi.com/image/photo/circuit/1300x1300/1112659/fr/0.jpg"><text><![CDATA[|Alix Anger Valognes]]></text></link><link href="http://fichier0.cirkwi.com/image/photo/circuit/1300x1300/1112659/fr/1.jpg"><text><![CDATA[|Aymeric Picot]]></text></link><link href="http://fichier0.cirkwi.com/image/photo/circuit/1300x1300/1112659/fr/2.jpg"><text><![CDATA[|Alix Anger Valognes]]></text></link><link href="http://fichier0.cirkwi.com/image/photo/circuit/1300x1300/1112659/fr/3.jpg"><text><![CDATA[|Aymeric Picot]]></text></link><link href="http://fichier0.cirkwi.com/image/photo/circuit/1300x1300/1112659/fr/4.jpg"><text><![CDATA[|Alix Anger Valognes]]></text></link><link href="http://fichier0.cirkwi.com/image/photo/circuit/1300x1300/1112659/fr/5.jpg"><text><![CDATA[|Ville de Chebourg]]></text></link><time>2026-08-17T13:09:39Z</time></metadata><trk><trkseg><trkpt lat="49.63799" lon="-1.62241"><ele>4.41</ele></trkpt><trkpt lat="49.63794" lon="-1.62159"><ele>4.5</ele></trkpt><trkpt lat="49.63701" lon="-1.62175"><ele>4.39</ele></trkpt><trkpt lat="49.637" lon="-1.62164"><ele>4.07</ele></trkpt><trkpt lat="49.63694" lon="-1.62078"><ele>3.81</ele></trkpt><trkpt lat="49.63696" lon="-1.62062"><ele>3.81</ele></trkpt><trkpt lat="49.63692" lon="-1.62003"><ele>3.81</ele></trkpt><trkpt lat="49.6369" lon="-1.61978"><ele>3.98</ele></trkpt><trkpt lat="49.63686" lon="-1.61972"><ele>4.18</ele></trkpt><trkpt lat="49.63685" lon="-1.61952"><ele>4.72</ele></trkpt><trkpt lat="49.63664" lon="-1.61903"><ele>4.55</ele></trkpt><trkpt lat="49.63656" lon="-1.6173"><ele>4.74</ele></trkpt><trkpt lat="49.63642" lon="-1.61729"><ele>4.75</ele></trkpt><trkpt lat="49.63615" lon="-1.61733"><ele>4.68</ele></trkpt><trkpt lat="49.63432" lon="-1.61765"><ele>4.73</ele></trkpt><trkpt lat="49.63381" lon="-1.61771"><ele>4.71</ele></trkpt><trkpt lat="49.63378" lon="-1.61744"><ele>3.8</ele></trkpt><trkpt lat="49.63369" lon="-1.61752"><ele>3.6</ele></trkpt><trkpt lat="49.6334" lon="-1.61756"><ele>4.13</ele></trkpt><trkpt lat="49.63334" lon="-1.61752"><ele>4.23</ele></trkpt><trkpt lat="49.6333" lon="-1.61752"><ele>4.33</ele></trkpt><trkpt lat="49.63215" lon="-1.6177"><ele>3.97</ele></trkpt><trkpt lat="49.63102" lon="-1.61792"><ele>2.59</ele></trkpt><trkpt lat="49.62963" lon="-1.61815"><ele>3.59</ele></trkpt><trkpt lat="49.62963" lon="-1.6195"><ele>8.67</ele></trkpt><trkpt lat="49.62965" lon="-1.61958"><ele>9.72</ele></trkpt><trkpt lat="49.62968" lon="-1.61962"><ele>11.43</ele></trkpt><trkpt lat="49.62956" lon="-1.61976"><ele>14.62</ele></trkpt><trkpt lat="49.62901" lon="-1.62"><ele>19.72</ele></trkpt><trkpt lat="49.62872" lon="-1.62005"><ele>22.22</ele></trkpt><trkpt lat="49.62864" lon="-1.62012"><ele>22.85</ele></trkpt><trkpt lat="49.62859" lon="-1.62024"><ele>24.04</ele></trkpt><trkpt lat="49.62862" lon="-1.62037"><ele>24.97</ele></trkpt><trkpt lat="49.62867" lon="-1.62041"><ele>25.43</ele></trkpt><trkpt lat="49.62901" lon="-1.62046"><ele>29.46</ele></trkpt><trkpt lat="49.6291" lon="-1.62058"><ele>30.83</ele></trkpt><trkpt lat="49.6291" lon="-1.62067"><ele>31.46</ele></trkpt><trkpt lat="49.62902" lon="-1.62082"><ele>32.73</ele></trkpt><trkpt lat="49.62828" lon="-1.62101"><ele>40.07</ele></trkpt><trkpt lat="49.62795" lon="-1.62114"><ele>43.96</ele></trkpt><trkpt lat="49.62778" lon="-1.62127"><ele>46.56</ele></trkpt><trkpt lat="49.6277" lon="-1.62145"><ele>48.43</ele></trkpt><trkpt lat="49.62767" lon="-1.62163"><ele>50.08</ele></trkpt><trkpt lat="49.6277" lon="-1.62185"><ele>51.85</ele></trkpt><trkpt lat="49.62779" lon="-1.62205"><ele>53.96</ele></trkpt><trkpt lat="49.62792" lon="-1.62217"><ele>55.87</ele></trkpt><trkpt lat="49.62807" lon="-1.62222"><ele>57.46</ele></trkpt><trkpt lat="49.62803" lon="-1.6223"><ele>59.09</ele></trkpt><trkpt lat="49.62806" lon="-1.62237"><ele>60.9</ele></trkpt><trkpt lat="49.62799" lon="-1.62246"><ele>63.45</ele></trkpt><trkpt lat="49.628" lon="-1.62253"><ele>63.2</ele></trkpt><trkpt lat="49.6271" lon="-1.62307"><ele>72.59</ele></trkpt><trkpt lat="49.62682" lon="-1.62322"><ele>74.13</ele></trkpt><trkpt lat="49.62654" lon="-1.6233"><ele>75.42</ele></trkpt><trkpt lat="49.62628" lon="-1.62306"><ele>76.1</ele></trkpt><trkpt lat="49.62616" lon="-1.62301"><ele>76.7</ele></trkpt><trkpt lat="49.62603" lon="-1.62301"><ele>78.11</ele></trkpt><trkpt lat="49.62589" lon="-1.6229"><ele>79.16</ele></trkpt><trkpt lat="49.62582" lon="-1.62286"><ele>79.98</ele></trkpt><trkpt lat="49.62552" lon="-1.62286"><ele>82.46</ele></trkpt><trkpt lat="49.62496" lon="-1.62337"><ele>87.92</ele></trkpt><trkpt lat="49.62484" lon="-1.62351"><ele>87.6</ele></trkpt><trkpt lat="49.62457" lon="-1.62286"><ele>88.92</ele></trkpt><trkpt lat="49.62445" lon="-1.62262"><ele>89.38</ele></trkpt><trkpt lat="49.6241" lon="-1.62267"><ele>93.12</ele></trkpt><trkpt lat="49.62395" lon="-1.62276"><ele>95.97</ele></trkpt><trkpt lat="49.62395" lon="-1.62289"><ele>96.75</ele></trkpt><trkpt lat="49.624" lon="-1.62316"><ele>97.97</ele></trkpt><trkpt lat="49.62399" lon="-1.62324"><ele>99.32</ele></trkpt><trkpt lat="49.62398" lon="-1.62331"><ele>99.55</ele></trkpt><trkpt lat="49.62394" lon="-1.62342"><ele>100.4</ele></trkpt><trkpt lat="49.62388" lon="-1.62346"><ele>100.91</ele></trkpt><trkpt lat="49.62376" lon="-1.62345"><ele>101.97</ele></trkpt><trkpt lat="49.62369" lon="-1.6234"><ele>102.32</ele></trkpt><trkpt lat="49.62364" lon="-1.62318"><ele>101.81</ele></trkpt><trkpt lat="49.62366" lon="-1.62309"><ele>101.2</ele></trkpt><trkpt lat="49.62378" lon="-1.62289"><ele>98.8</ele></trkpt><trkpt lat="49.62371" lon="-1.62284"><ele>97.45</ele></trkpt><trkpt lat="49.6236" lon="-1.62285"><ele>93.67</ele></trkpt><trkpt lat="49.62355" lon="-1.62294"><ele>93.93</ele></trkpt><trkpt lat="49.62346" lon="-1.62317"><ele>94.48</ele></trkpt><trkpt lat="49.6235" lon="-1.62342"><ele>95.89</ele></trkpt><trkpt lat="49.62349" lon="-1.62345"><ele>95.41</ele></trkpt><trkpt lat="49.62341" lon="-1.62341"><ele>93.42</ele></trkpt><trkpt lat="49.62335" lon="-1.62328"><ele>89.56</ele></trkpt><trkpt lat="49.62322" lon="-1.62266"><ele>80.85</ele></trkpt><trkpt lat="49.6231" lon="-1.62238"><ele>78.39</ele></trkpt><trkpt lat="49.62284" lon="-1.62169"><ele>73.87</ele></trkpt><trkpt lat="49.62279" lon="-1.62171"><ele>73.69</ele></trkpt><trkpt lat="49.62274" lon="-1.62185"><ele>73.7</ele></trkpt><trkpt lat="49.62286" lon="-1.62248"><ele>74.57</ele></trkpt><trkpt lat="49.62281" lon="-1.62258"><ele>73.93</ele></trkpt><trkpt lat="49.62267" lon="-1.62271"><ele>71.9</ele></trkpt><trkpt lat="49.62263" lon="-1.62286"><ele>69.98</ele></trkpt><trkpt lat="49.62263" lon="-1.62303"><ele>68.33</ele></trkpt><trkpt lat="49.62272" lon="-1.62358"><ele>64.45</ele></trkpt><trkpt lat="49.62282" lon="-1.62379"><ele>64.32</ele></trkpt><trkpt lat="49.62288" lon="-1.62489"><ele>59.24</ele></trkpt><trkpt lat="49.62282" lon="-1.62486"><ele>58.72</ele></trkpt><trkpt lat="49.62278" lon="-1.62489"><ele>56.94</ele></trkpt><trkpt lat="49.62272" lon="-1.62482"><ele>56.13</ele></trkpt><trkpt lat="49.62267" lon="-1.62483"><ele>55.11</ele></trkpt><trkpt lat="49.62268" lon="-1.6249"><ele>55</ele></trkpt><trkpt lat="49.62258" lon="-1.62502"><ele>49.89</ele></trkpt><trkpt lat="49.62261" lon="-1.62527"><ele>49.14</ele></trkpt><trkpt lat="49.62282" lon="-1.62612"><ele>46.47</ele></trkpt><trkpt lat="49.6228" lon="-1.62625"><ele>43.28</ele></trkpt><trkpt lat="49.62273" lon="-1.6263"><ele>40.82</ele></trkpt><trkpt lat="49.62282" lon="-1.62668"><ele>40.04</ele></trkpt><trkpt lat="49.62281" lon="-1.62703"><ele>40.29</ele></trkpt><trkpt lat="49.62288" lon="-1.62741"><ele>39.67</ele></trkpt><trkpt lat="49.62287" lon="-1.62759"><ele>39.28</ele></trkpt><trkpt lat="49.62313" lon="-1.62804"><ele>43.95</ele></trkpt><trkpt lat="49.62307" lon="-1.62862"><ele>46.01</ele></trkpt><trkpt lat="49.62288" lon="-1.62877"><ele>45.17</ele></trkpt><trkpt lat="49.62285" lon="-1.62881"><ele>46.13</ele></trkpt><trkpt lat="49.62284" lon="-1.62882"><ele>44.77</ele></trkpt><trkpt lat="49.62283" lon="-1.62885"><ele>44.77</ele></trkpt><trkpt lat="49.62249" lon="-1.62913"><ele>40.85</ele></trkpt><trkpt lat="49.62212" lon="-1.62928"><ele>35.12</ele></trkpt><trkpt lat="49.62196" lon="-1.62931"><ele>33.02</ele></trkpt><trkpt lat="49.62184" lon="-1.62948"><ele>32.66</ele></trkpt><trkpt lat="49.62178" lon="-1.62948"><ele>32.27</ele></trkpt><trkpt lat="49.62157" lon="-1.62961"><ele>28.9</ele></trkpt><trkpt lat="49.62154" lon="-1.62968"><ele>28.03</ele></trkpt><trkpt lat="49.62152" lon="-1.62993"><ele>27.45</ele></trkpt><trkpt lat="49.62154" lon="-1.63027"><ele>25.22</ele></trkpt><trkpt lat="49.62157" lon="-1.63046"><ele>25.43</ele></trkpt><trkpt lat="49.62168" lon="-1.63066"><ele>25.95</ele></trkpt><trkpt lat="49.62165" lon="-1.63079"><ele>28.12</ele></trkpt><trkpt lat="49.62173" lon="-1.63097"><ele>29.99</ele></trkpt><trkpt lat="49.62217" lon="-1.63158"><ele>33.68</ele></trkpt><trkpt lat="49.6223" lon="-1.63202"><ele>37.07</ele></trkpt><trkpt lat="49.62236" lon="-1.63239"><ele>40.28</ele></trkpt><trkpt lat="49.62236" lon="-1.63269"><ele>43.72</ele></trkpt><trkpt lat="49.6224" lon="-1.63288"><ele>44.43</ele></trkpt><trkpt lat="49.62251" lon="-1.6332"><ele>45.8</ele></trkpt><trkpt lat="49.62274" lon="-1.63333"><ele>45.25</ele></trkpt><trkpt lat="49.62279" lon="-1.63376"><ele>49.25</ele></trkpt><trkpt lat="49.6229" lon="-1.63421"><ele>52.17</ele></trkpt><trkpt lat="49.62306" lon="-1.63456"><ele>54.15</ele></trkpt><trkpt lat="49.62373" lon="-1.6352"><ele>57.09</ele></trkpt><trkpt lat="49.62371" lon="-1.63554"><ele>60.99</ele></trkpt><trkpt lat="49.62363" lon="-1.63597"><ele>65.93</ele></trkpt><trkpt lat="49.62364" lon="-1.63607"><ele>67.41</ele></trkpt><trkpt lat="49.62356" lon="-1.63628"><ele>70.29</ele></trkpt><trkpt lat="49.62349" lon="-1.63681"><ele>74.04</ele></trkpt><trkpt lat="49.62344" lon="-1.63688"><ele>74.49</ele></trkpt><trkpt lat="49.6234" lon="-1.6372"><ele>76.5</ele></trkpt><trkpt lat="49.62327" lon="-1.63752"><ele>79.45</ele></trkpt><trkpt lat="49.62303" lon="-1.63794"><ele>81.52</ele></trkpt><trkpt lat="49.62285" lon="-1.63817"><ele>81.9</ele></trkpt><trkpt lat="49.6226" lon="-1.63839"><ele>80.67</ele></trkpt><trkpt lat="49.62275" lon="-1.63873"><ele>81.81</ele></trkpt><trkpt lat="49.62296" lon="-1.63883"><ele>81.8</ele></trkpt><trkpt lat="49.62319" lon="-1.63867"><ele>82.3</ele></trkpt><trkpt lat="49.62328" lon="-1.63865"><ele>82.77</ele></trkpt><trkpt lat="49.62334" lon="-1.63868"><ele>83.16</ele></trkpt><trkpt lat="49.62383" lon="-1.64008"><ele>88.35</ele></trkpt><trkpt lat="49.62405" lon="-1.64044"><ele>90.18</ele></trkpt><trkpt lat="49.62413" lon="-1.6405"><ele>90.27</ele></trkpt><trkpt lat="49.62449" lon="-1.64097"><ele>91.87</ele></trkpt><trkpt lat="49.62473" lon="-1.64134"><ele>92.94</ele></trkpt><trkpt lat="49.62508" lon="-1.64213"><ele>94.09</ele></trkpt><trkpt lat="49.62515" lon="-1.64282"><ele>95.86</ele></trkpt><trkpt lat="49.62547" lon="-1.64343"><ele>96.65</ele></trkpt><trkpt lat="49.62564" lon="-1.64436"><ele>97.08</ele></trkpt><trkpt lat="49.62576" lon="-1.64491"><ele>93.93</ele></trkpt><trkpt lat="49.62581" lon="-1.64503"><ele>93.45</ele></trkpt><trkpt lat="49.62653" lon="-1.64591"><ele>91.25</ele></trkpt><trkpt lat="49.62707" lon="-1.64674"><ele>91.89</ele></trkpt><trkpt lat="49.62725" lon="-1.64705"><ele>92.07</ele></trkpt><trkpt lat="49.6273" lon="-1.64717"><ele>92.11</ele></trkpt><trkpt lat="49.62735" lon="-1.64745"><ele>92.51</ele></trkpt><trkpt lat="49.6273" lon="-1.6476"><ele>92.85</ele></trkpt><trkpt lat="49.62722" lon="-1.64772"><ele>93.12</ele></trkpt><trkpt lat="49.62734" lon="-1.64799"><ele>93.58</ele></trkpt><trkpt lat="49.62724" lon="-1.64818"><ele>93.78</ele></trkpt><trkpt lat="49.62746" lon="-1.64916"><ele>94.91</ele></trkpt><trkpt lat="49.62759" lon="-1.64956"><ele>93.83</ele></trkpt><trkpt lat="49.62796" lon="-1.65002"><ele>89.99</ele></trkpt><trkpt lat="49.62828" lon="-1.64964"><ele>88.57</ele></trkpt><trkpt lat="49.62835" lon="-1.64965"><ele>87.92</ele></trkpt><trkpt lat="49.62845" lon="-1.64972"><ele>87.1</ele></trkpt><trkpt lat="49.62873" lon="-1.65014"><ele>84.06</ele></trkpt><trkpt lat="49.62888" lon="-1.65026"><ele>82.54</ele></trkpt><trkpt lat="49.6292" lon="-1.65043"><ele>78.99</ele></trkpt><trkpt lat="49.63004" lon="-1.65079"><ele>71.14</ele></trkpt><trkpt lat="49.63005" lon="-1.65074"><ele>71.2</ele></trkpt><trkpt lat="49.63008" lon="-1.65075"><ele>71</ele></trkpt><trkpt lat="49.63038" lon="-1.65055"><ele>72.95</ele></trkpt><trkpt lat="49.63062" lon="-1.65044"><ele>70.85</ele></trkpt><trkpt lat="49.63092" lon="-1.65012"><ele>69.41</ele></trkpt><trkpt lat="49.63138" lon="-1.64954"><ele>69.58</ele></trkpt><trkpt lat="49.6315" lon="-1.64943"><ele>70.24</ele></trkpt><trkpt lat="49.63161" lon="-1.64943"><ele>68.93</ele></trkpt><trkpt lat="49.6319" lon="-1.64936"><ele>65.76</ele></trkpt><trkpt lat="49.63192" lon="-1.64931"><ele>67.23</ele></trkpt><trkpt lat="49.63214" lon="-1.64942"><ele>61.89</ele></trkpt><trkpt lat="49.63236" lon="-1.64948"><ele>61.68</ele></trkpt><trkpt lat="49.63259" lon="-1.64952"><ele>61.8</ele></trkpt><trkpt lat="49.63283" lon="-1.6495"><ele>61.9</ele></trkpt><trkpt lat="49.63317" lon="-1.64939"><ele>62.42</ele></trkpt><trkpt lat="49.63333" lon="-1.64927"><ele>62.44</ele></trkpt><trkpt lat="49.63343" lon="-1.64907"><ele>60.08</ele></trkpt><trkpt lat="49.63345" lon="-1.64893"><ele>58.43</ele></trkpt><trkpt lat="49.63353" lon="-1.64889"><ele>63.59</ele></trkpt><trkpt lat="49.63385" lon="-1.64874"><ele>59.19</ele></trkpt><trkpt lat="49.63409" lon="-1.6487"><ele>56.57</ele></trkpt><trkpt lat="49.63432" lon="-1.64876"><ele>54.84</ele></trkpt><trkpt lat="49.63472" lon="-1.64857"><ele>53.41</ele></trkpt><trkpt lat="49.63483" lon="-1.64848"><ele>53.37</ele></trkpt><trkpt lat="49.63537" lon="-1.64775"><ele>49.98</ele></trkpt><trkpt lat="49.63555" lon="-1.64759"><ele>48.68</ele></trkpt><trkpt lat="49.63558" lon="-1.64733"><ele>48.21</ele></trkpt><trkpt lat="49.63567" lon="-1.64726"><ele>47.6</ele></trkpt><trkpt lat="49.63586" lon="-1.64728"><ele>46.26</ele></trkpt><trkpt lat="49.63605" lon="-1.64717"><ele>45.22</ele></trkpt><trkpt lat="49.63715" lon="-1.64617"><ele>37.13</ele></trkpt><trkpt lat="49.63738" lon="-1.64588"><ele>35.84</ele></trkpt><trkpt lat="49.63761" lon="-1.64564"><ele>33.94</ele></trkpt><trkpt lat="49.63792" lon="-1.6451"><ele>32.17</ele></trkpt><trkpt lat="49.63839" lon="-1.64403"><ele>29.1</ele></trkpt><trkpt lat="49.63847" lon="-1.6438"><ele>28.61</ele></trkpt><trkpt lat="49.63859" lon="-1.64288"><ele>26.23</ele></trkpt><trkpt lat="49.63868" lon="-1.6424"><ele>24.65</ele></trkpt><trkpt lat="49.63903" lon="-1.64085"><ele>21.77</ele></trkpt><trkpt lat="49.63947" lon="-1.63924"><ele>19.28</ele></trkpt><trkpt lat="49.63926" lon="-1.63908"><ele>19.02</ele></trkpt><trkpt lat="49.63916" lon="-1.63898"><ele>18.93</ele></trkpt><trkpt lat="49.63911" lon="-1.63884"><ele>18.72</ele></trkpt><trkpt lat="49.63904" lon="-1.63818"><ele>19.35</ele></trkpt><trkpt lat="49.63911" lon="-1.63793"><ele>19.6</ele></trkpt><trkpt lat="49.63925" lon="-1.63758"><ele>18.56</ele></trkpt><trkpt lat="49.63931" lon="-1.63729"><ele>17.89</ele></trkpt><trkpt lat="49.63936" lon="-1.63688"><ele>17.03</ele></trkpt><trkpt lat="49.63937" lon="-1.6367"><ele>16.53</ele></trkpt><trkpt lat="49.63929" lon="-1.63568"><ele>14.31</ele></trkpt><trkpt lat="49.63932" lon="-1.63551"><ele>16.85</ele></trkpt><trkpt lat="49.63937" lon="-1.6354"><ele>13.18</ele></trkpt><trkpt lat="49.63791" lon="-1.63391"><ele>15.56</ele></trkpt><trkpt lat="49.63576" lon="-1.63176"><ele>16.07</ele></trkpt><trkpt lat="49.63543" lon="-1.63142"><ele>17.58</ele></trkpt><trkpt lat="49.63475" lon="-1.63047"><ele>15.51</ele></trkpt><trkpt lat="49.63433" lon="-1.62975"><ele>16.31</ele></trkpt><trkpt lat="49.63399" lon="-1.62906"><ele>15.12</ele></trkpt><trkpt lat="49.63379" lon="-1.62858"><ele>14.43</ele></trkpt><trkpt lat="49.63363" lon="-1.62805"><ele>14.34</ele></trkpt><trkpt lat="49.63349" lon="-1.62748"><ele>14.06</ele></trkpt><trkpt lat="49.63339" lon="-1.62688"><ele>15.61</ele></trkpt><trkpt lat="49.63276" lon="-1.62185"><ele>10.08</ele></trkpt><trkpt lat="49.63283" lon="-1.62187"><ele>8.68</ele></trkpt><trkpt lat="49.63326" lon="-1.62178"><ele>4.79</ele></trkpt><trkpt lat="49.63359" lon="-1.62194"><ele>4.79</ele></trkpt><trkpt lat="49.63372" lon="-1.62199"><ele>4.84</ele></trkpt><trkpt lat="49.63393" lon="-1.62195"><ele>4.63</ele></trkpt><trkpt lat="49.63413" lon="-1.62191"><ele>4.57</ele></trkpt><trkpt lat="49.63426" lon="-1.62202"><ele>4.38</ele></trkpt><trkpt lat="49.63426" lon="-1.62203"><ele>4.45</ele></trkpt><trkpt lat="49.63429" lon="-1.62206"><ele>4.45</ele></trkpt><trkpt lat="49.63435" lon="-1.62208"><ele>4.37</ele></trkpt><trkpt lat="49.6345" lon="-1.62209"><ele>4.36</ele></trkpt><trkpt lat="49.63484" lon="-1.62206"><ele>4.44</ele></trkpt><trkpt lat="49.63492" lon="-1.62205"><ele>4.45</ele></trkpt><trkpt lat="49.63519" lon="-1.62197"><ele>4.27</ele></trkpt><trkpt lat="49.6356" lon="-1.62189"><ele>4.25</ele></trkpt><trkpt lat="49.63562" lon="-1.62201"><ele>4.69</ele></trkpt><trkpt lat="49.63563" lon="-1.62201"><ele>4.71</ele></trkpt><trkpt lat="49.63566" lon="-1.6224"><ele>4.23</ele></trkpt><trkpt lat="49.63569" lon="-1.62283"><ele>3.85</ele></trkpt><trkpt lat="49.63598" lon="-1.62278"><ele>3.52</ele></trkpt><trkpt lat="49.63618" lon="-1.62275"><ele>3.43</ele></trkpt><trkpt lat="49.63652" lon="-1.62269"><ele>3.58</ele></trkpt><trkpt lat="49.6366" lon="-1.62267"><ele>3.64</ele></trkpt><trkpt lat="49.63661" lon="-1.62267"><ele>3.64</ele></trkpt><trkpt lat="49.638" lon="-1.62243"><ele>4.39</ele></trkpt></trkseg></trk></gpx>
