<?xml version="1.0" encoding="UTF-8" standalone="no"?>
<gpx xmlns="http://www.topografix.com/GPX/1/1" version="1.1" xmlns:xsi="http://www.w3.org/2001/XMLSchema-instance" xsi:schemaLocation="http://www.topografix.com/GPX/1/1 http://www.topografix.com/GPX/1/1/gpx.xsd" creator="Cirkwi"><metadata><name><![CDATA[La route des forts]]></name><desc><![CDATA[Entre ville et nature, ce parcours permet une découverte du patrimoine historique de la commune déléguée d’Equeurdreville-Hainneville. Partez pour une balade aux multiples paysages entre ville, campagne et parcs. Cette randonnée prend rapidement de la hauteur et offre différents points de vue sur la rade de Cherbourg. Partez du parking du centre aquatique, suivez la piste cyclable du parc de la Bonde à l'est du centre aquatique (Équeurdreville-Hainneville, Cherbourg-en-Cotentin). Départ possible du parking de la salle AGORA, rue du Thivet. Coordonnées GPS : 49°39’25.2’’N; 1°40’13.7’’W Suivez le circuit selon le sens inverse des aiguilles d'une montre. Le balisage est de couleur bleu.  Vous retrouverez ce circuit dans le topoguide "Cherbourg-en-cotentin" de l'Office de tourisme du Cotentin.   Départ accessible avec le réseau de bus Cap Cotentin à l'arrêt "Centre aquatique" desservie par les lignes A et 2 (plus d'infos sur capcotentin.fr)]]></desc><author><name><![CDATA[Cotentin unique]]></name></author><link href="http://fichier0.cirkwi.com/image/photo/circuit/1300x1300/816331/fr/0.jpg"><text><![CDATA[|Aymeric Picot]]></text></link><link href="http://fichier0.cirkwi.com/image/photo/circuit/1300x1300/816331/fr/1.jpg"><text><![CDATA[|Alix Anger Valognes]]></text></link><link href="http://fichier0.cirkwi.com/image/photo/circuit/1300x1300/816331/fr/2.jpg"><text><![CDATA[|Alix Anger Valognes]]></text></link><time>2026-07-16T08:10:59Z</time></metadata><trk><trkseg><trkpt lat="49.64042" lon="-1.66146"><ele>76.35</ele></trkpt><trkpt lat="49.64044" lon="-1.66127"><ele>75.85</ele></trkpt><trkpt lat="49.64044" lon="-1.66123"><ele>75.75</ele></trkpt><trkpt lat="49.64046" lon="-1.66118"><ele>75.63</ele></trkpt><trkpt lat="49.64051" lon="-1.66104"><ele>75.42</ele></trkpt><trkpt lat="49.64057" lon="-1.66087"><ele>75.12</ele></trkpt><trkpt lat="49.64058" lon="-1.66086"><ele>74.97</ele></trkpt><trkpt lat="49.64066" lon="-1.66064"><ele>74.55</ele></trkpt><trkpt lat="49.64074" lon="-1.66044"><ele>73.95</ele></trkpt><trkpt lat="49.64077" lon="-1.66043"><ele>73.81</ele></trkpt><trkpt lat="49.6408" lon="-1.66043"><ele>73.89</ele></trkpt><trkpt lat="49.64085" lon="-1.66045"><ele>74.09</ele></trkpt><trkpt lat="49.641" lon="-1.66049"><ele>74.74</ele></trkpt><trkpt lat="49.64128" lon="-1.6606"><ele>75.04</ele></trkpt><trkpt lat="49.64132" lon="-1.66041"><ele>74.74</ele></trkpt><trkpt lat="49.64136" lon="-1.66022"><ele>73.88</ele></trkpt><trkpt lat="49.64132" lon="-1.66021"><ele>73.93</ele></trkpt><trkpt lat="49.64119" lon="-1.66016"><ele>73.72</ele></trkpt><trkpt lat="49.64089" lon="-1.66004"><ele>72.31</ele></trkpt><trkpt lat="49.64083" lon="-1.66002"><ele>72.13</ele></trkpt><trkpt lat="49.64085" lon="-1.65997"><ele>71.93</ele></trkpt><trkpt lat="49.64087" lon="-1.65994"><ele>71.82</ele></trkpt><trkpt lat="49.64095" lon="-1.65974"><ele>70.69</ele></trkpt><trkpt lat="49.64105" lon="-1.6595"><ele>69.76</ele></trkpt><trkpt lat="49.64114" lon="-1.65926"><ele>68.44</ele></trkpt><trkpt lat="49.64126" lon="-1.65891"><ele>66.87</ele></trkpt><trkpt lat="49.64128" lon="-1.65888"><ele>66.69</ele></trkpt><trkpt lat="49.64126" lon="-1.65891"><ele>66.87</ele></trkpt><trkpt lat="49.6411" lon="-1.65871"><ele>67.63</ele></trkpt><trkpt lat="49.64093" lon="-1.65845"><ele>66.71</ele></trkpt><trkpt lat="49.64054" lon="-1.65786"><ele>61.59</ele></trkpt><trkpt lat="49.64051" lon="-1.65791"><ele>61.71</ele></trkpt><trkpt lat="49.64054" lon="-1.65786"><ele>61.59</ele></trkpt><trkpt lat="49.64047" lon="-1.65775"><ele>60.58</ele></trkpt><trkpt lat="49.64048" lon="-1.65689"><ele>55.5</ele></trkpt><trkpt lat="49.64041" lon="-1.65687"><ele>55.08</ele></trkpt><trkpt lat="49.64038" lon="-1.65678"><ele>54.66</ele></trkpt><trkpt lat="49.64036" lon="-1.65679"><ele>54.69</ele></trkpt><trkpt lat="49.64038" lon="-1.65678"><ele>54.66</ele></trkpt><trkpt lat="49.64039" lon="-1.65672"><ele>54.68</ele></trkpt><trkpt lat="49.64041" lon="-1.65666"><ele>54.76</ele></trkpt><trkpt lat="49.64042" lon="-1.65667"><ele>54.78</ele></trkpt><trkpt lat="49.6408" lon="-1.65603"><ele>48.65</ele></trkpt><trkpt lat="49.64096" lon="-1.65586"><ele>45.88</ele></trkpt><trkpt lat="49.64088" lon="-1.65581"><ele>44.17</ele></trkpt><trkpt lat="49.64092" lon="-1.65572"><ele>42.65</ele></trkpt><trkpt lat="49.64082" lon="-1.6557"><ele>39.64</ele></trkpt><trkpt lat="49.64085" lon="-1.65559"><ele>38.95</ele></trkpt><trkpt lat="49.64016" lon="-1.65626"><ele>42.06</ele></trkpt><trkpt lat="49.63977" lon="-1.65544"><ele>39.72</ele></trkpt><trkpt lat="49.63982" lon="-1.65538"><ele>39.44</ele></trkpt><trkpt lat="49.6399" lon="-1.65532"><ele>38.21</ele></trkpt><trkpt lat="49.63993" lon="-1.65531"><ele>37.63</ele></trkpt><trkpt lat="49.64044" lon="-1.65511"><ele>34.3</ele></trkpt><trkpt lat="49.64054" lon="-1.65499"><ele>34.04</ele></trkpt><trkpt lat="49.64058" lon="-1.65494"><ele>34.08</ele></trkpt><trkpt lat="49.64069" lon="-1.65482"><ele>34.06</ele></trkpt><trkpt lat="49.64074" lon="-1.65477"><ele>34.09</ele></trkpt><trkpt lat="49.64078" lon="-1.65475"><ele>33.98</ele></trkpt><trkpt lat="49.64079" lon="-1.65473"><ele>33.98</ele></trkpt><trkpt lat="49.64079" lon="-1.65476"><ele>33.98</ele></trkpt><trkpt lat="49.64077" lon="-1.65475"><ele>34.09</ele></trkpt><trkpt lat="49.6408" lon="-1.65459"><ele>35.28</ele></trkpt><trkpt lat="49.64102" lon="-1.65431"><ele>38.06</ele></trkpt><trkpt lat="49.64106" lon="-1.65421"><ele>39.53</ele></trkpt><trkpt lat="49.6411" lon="-1.65406"><ele>40.94</ele></trkpt><trkpt lat="49.64116" lon="-1.65394"><ele>42.92</ele></trkpt><trkpt lat="49.64124" lon="-1.65379"><ele>42.57</ele></trkpt><trkpt lat="49.64127" lon="-1.6537"><ele>42.62</ele></trkpt><trkpt lat="49.6413" lon="-1.6536"><ele>43.14</ele></trkpt><trkpt lat="49.64136" lon="-1.65365"><ele>40.54</ele></trkpt><trkpt lat="49.64143" lon="-1.65348"><ele>40.55</ele></trkpt><trkpt lat="49.64148" lon="-1.65332"><ele>42.39</ele></trkpt><trkpt lat="49.64155" lon="-1.6532"><ele>42.26</ele></trkpt><trkpt lat="49.64163" lon="-1.65307"><ele>40.29</ele></trkpt><trkpt lat="49.64171" lon="-1.65287"><ele>37.97</ele></trkpt><trkpt lat="49.64178" lon="-1.65276"><ele>36.31</ele></trkpt><trkpt lat="49.64183" lon="-1.65272"><ele>35.5</ele></trkpt><trkpt lat="49.64186" lon="-1.65271"><ele>34.78</ele></trkpt><trkpt lat="49.64185" lon="-1.65267"><ele>35.45</ele></trkpt><trkpt lat="49.64219" lon="-1.65195"><ele>33.91</ele></trkpt><trkpt lat="49.64232" lon="-1.65138"><ele>30.83</ele></trkpt><trkpt lat="49.64237" lon="-1.65139"><ele>30.21</ele></trkpt><trkpt lat="49.64248" lon="-1.65131"><ele>29.76</ele></trkpt><trkpt lat="49.64259" lon="-1.65127"><ele>28.82</ele></trkpt><trkpt lat="49.64278" lon="-1.65113"><ele>27.61</ele></trkpt><trkpt lat="49.64298" lon="-1.65094"><ele>26.43</ele></trkpt><trkpt lat="49.6431" lon="-1.65075"><ele>25.24</ele></trkpt><trkpt lat="49.64313" lon="-1.65074"><ele>25.24</ele></trkpt><trkpt lat="49.64319" lon="-1.65075"><ele>24.55</ele></trkpt><trkpt lat="49.64316" lon="-1.6508"><ele>24.89</ele></trkpt><trkpt lat="49.64319" lon="-1.65075"><ele>24.55</ele></trkpt><trkpt lat="49.64339" lon="-1.65026"><ele>23.89</ele></trkpt><trkpt lat="49.64347" lon="-1.65001"><ele>23.67</ele></trkpt><trkpt lat="49.64366" lon="-1.64912"><ele>23.31</ele></trkpt><trkpt lat="49.64366" lon="-1.64906"><ele>23.4</ele></trkpt><trkpt lat="49.64366" lon="-1.64905"><ele>23.4</ele></trkpt><trkpt lat="49.64363" lon="-1.64891"><ele>23.63</ele></trkpt><trkpt lat="49.64342" lon="-1.64826"><ele>25.24</ele></trkpt><trkpt lat="49.64343" lon="-1.64825"><ele>25.24</ele></trkpt><trkpt lat="49.64342" lon="-1.64826"><ele>25.24</ele></trkpt><trkpt lat="49.6434" lon="-1.6482"><ele>25.26</ele></trkpt><trkpt lat="49.64334" lon="-1.64801"><ele>25.86</ele></trkpt><trkpt lat="49.64327" lon="-1.64765"><ele>25.98</ele></trkpt><trkpt lat="49.64326" lon="-1.64759"><ele>25.95</ele></trkpt><trkpt lat="49.64324" lon="-1.64749"><ele>25.72</ele></trkpt><trkpt lat="49.64315" lon="-1.64707"><ele>24.7</ele></trkpt><trkpt lat="49.64311" lon="-1.64674"><ele>23.25</ele></trkpt><trkpt lat="49.64317" lon="-1.6468"><ele>23.53</ele></trkpt><trkpt lat="49.64324" lon="-1.64682"><ele>23.19</ele></trkpt><trkpt lat="49.64388" lon="-1.6472"><ele>20.38</ele></trkpt><trkpt lat="49.64436" lon="-1.64748"><ele>18.24</ele></trkpt><trkpt lat="49.64439" lon="-1.6475"><ele>18.11</ele></trkpt><trkpt lat="49.64498" lon="-1.64783"><ele>17.92</ele></trkpt><trkpt lat="49.64515" lon="-1.64795"><ele>18.06</ele></trkpt><trkpt lat="49.64537" lon="-1.64817"><ele>17.99</ele></trkpt><trkpt lat="49.64551" lon="-1.64834"><ele>17.97</ele></trkpt><trkpt lat="49.6461" lon="-1.64909"><ele>18.15</ele></trkpt><trkpt lat="49.64637" lon="-1.64944"><ele>18.27</ele></trkpt><trkpt lat="49.64643" lon="-1.64953"><ele>18.38</ele></trkpt><trkpt lat="49.64631" lon="-1.64963"><ele>18.5</ele></trkpt><trkpt lat="49.64617" lon="-1.64979"><ele>18.94</ele></trkpt><trkpt lat="49.64615" lon="-1.64981"><ele>19.03</ele></trkpt><trkpt lat="49.64601" lon="-1.65011"><ele>20.05</ele></trkpt><trkpt lat="49.64577" lon="-1.65061"><ele>21.96</ele></trkpt><trkpt lat="49.64573" lon="-1.65071"><ele>22.49</ele></trkpt><trkpt lat="49.64563" lon="-1.65097"><ele>23.8</ele></trkpt><trkpt lat="49.64552" lon="-1.65123"><ele>25.37</ele></trkpt><trkpt lat="49.64547" lon="-1.65137"><ele>26.08</ele></trkpt><trkpt lat="49.64546" lon="-1.65141"><ele>26.24</ele></trkpt><trkpt lat="49.64536" lon="-1.65167"><ele>27.86</ele></trkpt><trkpt lat="49.64521" lon="-1.65211"><ele>30.25</ele></trkpt><trkpt lat="49.64524" lon="-1.65212"><ele>30.39</ele></trkpt><trkpt lat="49.64524" lon="-1.65211"><ele>30.25</ele></trkpt><trkpt lat="49.64524" lon="-1.65212"><ele>30.39</ele></trkpt><trkpt lat="49.64526" lon="-1.65212"><ele>29.97</ele></trkpt><trkpt lat="49.64538" lon="-1.65209"><ele>28.96</ele></trkpt><trkpt lat="49.64559" lon="-1.65199"><ele>27.62</ele></trkpt><trkpt lat="49.64601" lon="-1.65178"><ele>25.19</ele></trkpt><trkpt lat="49.64615" lon="-1.65178"><ele>24.29</ele></trkpt><trkpt lat="49.64642" lon="-1.6519"><ele>23.31</ele></trkpt><trkpt lat="49.6465" lon="-1.65198"><ele>23.11</ele></trkpt><trkpt lat="49.64663" lon="-1.65216"><ele>22.83</ele></trkpt><trkpt lat="49.64664" lon="-1.65219"><ele>22.83</ele></trkpt><trkpt lat="49.64667" lon="-1.65231"><ele>22.84</ele></trkpt><trkpt lat="49.64669" lon="-1.6524"><ele>22.82</ele></trkpt><trkpt lat="49.64678" lon="-1.6527"><ele>22.65</ele></trkpt><trkpt lat="49.64692" lon="-1.65313"><ele>22.57</ele></trkpt><trkpt lat="49.64699" lon="-1.65335"><ele>22.47</ele></trkpt><trkpt lat="49.64714" lon="-1.65385"><ele>22.34</ele></trkpt><trkpt lat="49.64727" lon="-1.65466"><ele>22.8</ele></trkpt><trkpt lat="49.64732" lon="-1.65481"><ele>23.06</ele></trkpt><trkpt lat="49.64739" lon="-1.6548"><ele>23</ele></trkpt><trkpt lat="49.64749" lon="-1.65475"><ele>22.93</ele></trkpt><trkpt lat="49.64762" lon="-1.65464"><ele>22.74</ele></trkpt><trkpt lat="49.64792" lon="-1.6542"><ele>22.2</ele></trkpt><trkpt lat="49.64812" lon="-1.6539"><ele>21.47</ele></trkpt><trkpt lat="49.64824" lon="-1.65373"><ele>21.01</ele></trkpt><trkpt lat="49.64829" lon="-1.65367"><ele>20.64</ele></trkpt><trkpt lat="49.64833" lon="-1.65361"><ele>20.57</ele></trkpt><trkpt lat="49.6485" lon="-1.65335"><ele>19.8</ele></trkpt><trkpt lat="49.64862" lon="-1.65317"><ele>19.34</ele></trkpt><trkpt lat="49.64867" lon="-1.65312"><ele>19.23</ele></trkpt><trkpt lat="49.64869" lon="-1.65315"><ele>19.17</ele></trkpt><trkpt lat="49.64871" lon="-1.65318"><ele>19.17</ele></trkpt><trkpt lat="49.64873" lon="-1.65319"><ele>19.07</ele></trkpt><trkpt lat="49.64877" lon="-1.65319"><ele>18.96</ele></trkpt><trkpt lat="49.6488" lon="-1.65318"><ele>19</ele></trkpt><trkpt lat="49.64883" lon="-1.65315"><ele>18.85</ele></trkpt><trkpt lat="49.64885" lon="-1.6531"><ele>18.71</ele></trkpt><trkpt lat="49.64886" lon="-1.65307"><ele>18.71</ele></trkpt><trkpt lat="49.64889" lon="-1.65308"><ele>18.71</ele></trkpt><trkpt lat="49.649" lon="-1.65313"><ele>18.46</ele></trkpt><trkpt lat="49.6491" lon="-1.65321"><ele>18.22</ele></trkpt><trkpt lat="49.64915" lon="-1.65328"><ele>18.18</ele></trkpt><trkpt lat="49.64921" lon="-1.65343"><ele>18.32</ele></trkpt><trkpt lat="49.64924" lon="-1.65353"><ele>18.51</ele></trkpt><trkpt lat="49.64928" lon="-1.65367"><ele>18.83</ele></trkpt><trkpt lat="49.64928" lon="-1.65378"><ele>18.95</ele></trkpt><trkpt lat="49.64927" lon="-1.65389"><ele>19.26</ele></trkpt><trkpt lat="49.64926" lon="-1.65399"><ele>19.51</ele></trkpt><trkpt lat="49.64927" lon="-1.65406"><ele>19.63</ele></trkpt><trkpt lat="49.6495" lon="-1.65461"><ele>20.8</ele></trkpt><trkpt lat="49.64964" lon="-1.65494"><ele>21.43</ele></trkpt><trkpt lat="49.64981" lon="-1.65535"><ele>22.61</ele></trkpt><trkpt lat="49.65001" lon="-1.65585"><ele>24.17</ele></trkpt><trkpt lat="49.65004" lon="-1.65591"><ele>24.24</ele></trkpt><trkpt lat="49.65017" lon="-1.65624"><ele>25.21</ele></trkpt><trkpt lat="49.65019" lon="-1.65631"><ele>25.25</ele></trkpt><trkpt lat="49.65018" lon="-1.65637"><ele>25.46</ele></trkpt><trkpt lat="49.65022" lon="-1.65636"><ele>25.37</ele></trkpt><trkpt lat="49.65039" lon="-1.65622"><ele>24.41</ele></trkpt><trkpt lat="49.65059" lon="-1.65596"><ele>23.06</ele></trkpt><trkpt lat="49.65066" lon="-1.65588"><ele>22.48</ele></trkpt><trkpt lat="49.65089" lon="-1.65622"><ele>25.38</ele></trkpt><trkpt lat="49.65099" lon="-1.6564"><ele>25.96</ele></trkpt><trkpt lat="49.65101" lon="-1.65644"><ele>25.85</ele></trkpt><trkpt lat="49.6511" lon="-1.65659"><ele>25.72</ele></trkpt><trkpt lat="49.65094" lon="-1.65678"><ele>26.88</ele></trkpt><trkpt lat="49.65089" lon="-1.65683"><ele>27.29</ele></trkpt><trkpt lat="49.65097" lon="-1.65699"><ele>28.3</ele></trkpt><trkpt lat="49.65103" lon="-1.65713"><ele>29.26</ele></trkpt><trkpt lat="49.651" lon="-1.65731"><ele>31.31</ele></trkpt><trkpt lat="49.65096" lon="-1.65747"><ele>32.33</ele></trkpt><trkpt lat="49.65093" lon="-1.65777"><ele>34.51</ele></trkpt><trkpt lat="49.65085" lon="-1.65834"><ele>38.87</ele></trkpt><trkpt lat="49.6508" lon="-1.65841"><ele>38.92</ele></trkpt><trkpt lat="49.65075" lon="-1.65861"><ele>42.19</ele></trkpt><trkpt lat="49.65071" lon="-1.65889"><ele>44.74</ele></trkpt><trkpt lat="49.6507" lon="-1.65914"><ele>46.98</ele></trkpt><trkpt lat="49.65071" lon="-1.65978"><ele>52.46</ele></trkpt><trkpt lat="49.65071" lon="-1.65981"><ele>52.86</ele></trkpt><trkpt lat="49.65071" lon="-1.66004"><ele>54.46</ele></trkpt><trkpt lat="49.65072" lon="-1.66009"><ele>54.93</ele></trkpt><trkpt lat="49.65068" lon="-1.66009"><ele>55.08</ele></trkpt><trkpt lat="49.65072" lon="-1.66009"><ele>54.93</ele></trkpt><trkpt lat="49.65073" lon="-1.66016"><ele>56.11</ele></trkpt><trkpt lat="49.65085" lon="-1.66057"><ele>57.89</ele></trkpt><trkpt lat="49.65087" lon="-1.66067"><ele>57.74</ele></trkpt><trkpt lat="49.65099" lon="-1.66117"><ele>61.37</ele></trkpt><trkpt lat="49.65107" lon="-1.66148"><ele>63.2</ele></trkpt><trkpt lat="49.65115" lon="-1.66176"><ele>65.12</ele></trkpt><trkpt lat="49.65116" lon="-1.66182"><ele>65.3</ele></trkpt><trkpt lat="49.65115" lon="-1.66184"><ele>65.3</ele></trkpt><trkpt lat="49.6512" lon="-1.66191"><ele>66.09</ele></trkpt><trkpt lat="49.65118" lon="-1.66194"><ele>66.45</ele></trkpt><trkpt lat="49.6512" lon="-1.66191"><ele>66.09</ele></trkpt><trkpt lat="49.65115" lon="-1.66184"><ele>65.3</ele></trkpt><trkpt lat="49.65112" lon="-1.66189"><ele>65.44</ele></trkpt><trkpt lat="49.65102" lon="-1.662"><ele>65.65</ele></trkpt><trkpt lat="49.65074" lon="-1.66224"><ele>65.67</ele></trkpt><trkpt lat="49.65063" lon="-1.66238"><ele>66.58</ele></trkpt><trkpt lat="49.65061" lon="-1.66244"><ele>66.74</ele></trkpt><trkpt lat="49.6506" lon="-1.66251"><ele>66.87</ele></trkpt><trkpt lat="49.65057" lon="-1.66251"><ele>66.87</ele></trkpt><trkpt lat="49.65051" lon="-1.66253"><ele>67.11</ele></trkpt><trkpt lat="49.6505" lon="-1.66254"><ele>67.11</ele></trkpt><trkpt lat="49.65043" lon="-1.66259"><ele>67.65</ele></trkpt><trkpt lat="49.65037" lon="-1.66266"><ele>67.87</ele></trkpt><trkpt lat="49.65034" lon="-1.66274"><ele>68.14</ele></trkpt><trkpt lat="49.65034" lon="-1.66277"><ele>68.23</ele></trkpt><trkpt lat="49.65022" lon="-1.66281"><ele>68.92</ele></trkpt><trkpt lat="49.65017" lon="-1.66283"><ele>68.95</ele></trkpt><trkpt lat="49.65015" lon="-1.66284"><ele>68.95</ele></trkpt><trkpt lat="49.64991" lon="-1.66293"><ele>69.33</ele></trkpt><trkpt lat="49.64981" lon="-1.66298"><ele>69.27</ele></trkpt><trkpt lat="49.64965" lon="-1.66336"><ele>69.04</ele></trkpt><trkpt lat="49.64964" lon="-1.6637"><ele>69.99</ele></trkpt><trkpt lat="49.64964" lon="-1.66375"><ele>70.11</ele></trkpt><trkpt lat="49.64964" lon="-1.66374"><ele>69.99</ele></trkpt><trkpt lat="49.64965" lon="-1.6641"><ele>71.64</ele></trkpt><trkpt lat="49.64967" lon="-1.66428"><ele>72.7</ele></trkpt><trkpt lat="49.64969" lon="-1.6644"><ele>72.96</ele></trkpt><trkpt lat="49.64969" lon="-1.66458"><ele>73.24</ele></trkpt><trkpt lat="49.64969" lon="-1.66472"><ele>73.09</ele></trkpt><trkpt lat="49.64972" lon="-1.66484"><ele>73.07</ele></trkpt><trkpt lat="49.64978" lon="-1.66502"><ele>72.96</ele></trkpt><trkpt lat="49.6498" lon="-1.66504"><ele>72.87</ele></trkpt><trkpt lat="49.64984" lon="-1.66508"><ele>72.76</ele></trkpt><trkpt lat="49.64988" lon="-1.6651"><ele>72.7</ele></trkpt><trkpt lat="49.64996" lon="-1.66513"><ele>72.65</ele></trkpt><trkpt lat="49.65012" lon="-1.66519"><ele>72.74</ele></trkpt><trkpt lat="49.65017" lon="-1.6652"><ele>72.89</ele></trkpt><trkpt lat="49.65022" lon="-1.66522"><ele>72.85</ele></trkpt><trkpt lat="49.65037" lon="-1.66535"><ele>72.46</ele></trkpt><trkpt lat="49.65042" lon="-1.66538"><ele>72.27</ele></trkpt><trkpt lat="49.6506" lon="-1.66535"><ele>72.06</ele></trkpt><trkpt lat="49.65076" lon="-1.66532"><ele>72.09</ele></trkpt><trkpt lat="49.65083" lon="-1.66531"><ele>72</ele></trkpt><trkpt lat="49.65101" lon="-1.66527"><ele>71.47</ele></trkpt><trkpt lat="49.65121" lon="-1.66526"><ele>70.42</ele></trkpt><trkpt lat="49.65125" lon="-1.66525"><ele>70.42</ele></trkpt><trkpt lat="49.65131" lon="-1.6652"><ele>70.2</ele></trkpt><trkpt lat="49.65138" lon="-1.66506"><ele>69.79</ele></trkpt><trkpt lat="49.65149" lon="-1.6646"><ele>68.42</ele></trkpt><trkpt lat="49.65151" lon="-1.66455"><ele>68.05</ele></trkpt><trkpt lat="49.65154" lon="-1.66453"><ele>68.05</ele></trkpt><trkpt lat="49.65164" lon="-1.66443"><ele>65.78</ele></trkpt><trkpt lat="49.65172" lon="-1.66429"><ele>65.87</ele></trkpt><trkpt lat="49.65177" lon="-1.66413"><ele>64.9</ele></trkpt><trkpt lat="49.65179" lon="-1.66391"><ele>64.36</ele></trkpt><trkpt lat="49.65179" lon="-1.66389"><ele>64.36</ele></trkpt><trkpt lat="49.6518" lon="-1.66387"><ele>64.26</ele></trkpt><trkpt lat="49.65183" lon="-1.66377"><ele>63.92</ele></trkpt><trkpt lat="49.65189" lon="-1.66362"><ele>63.19</ele></trkpt><trkpt lat="49.65194" lon="-1.66346"><ele>62.26</ele></trkpt><trkpt lat="49.65197" lon="-1.66341"><ele>62.23</ele></trkpt><trkpt lat="49.65199" lon="-1.66319"><ele>61.94</ele></trkpt><trkpt lat="49.65203" lon="-1.66307"><ele>61.67</ele></trkpt><trkpt lat="49.65216" lon="-1.6627"><ele>61</ele></trkpt><trkpt lat="49.65221" lon="-1.66256"><ele>60.7</ele></trkpt><trkpt lat="49.65235" lon="-1.66222"><ele>59.25</ele></trkpt><trkpt lat="49.65237" lon="-1.66221"><ele>58.77</ele></trkpt><trkpt lat="49.65244" lon="-1.66228"><ele>58.38</ele></trkpt><trkpt lat="49.65246" lon="-1.6623"><ele>58.13</ele></trkpt><trkpt lat="49.65257" lon="-1.66246"><ele>57.18</ele></trkpt><trkpt lat="49.65258" lon="-1.66242"><ele>57.21</ele></trkpt><trkpt lat="49.65266" lon="-1.66208"><ele>55.51</ele></trkpt><trkpt lat="49.65265" lon="-1.66189"><ele>54.25</ele></trkpt><trkpt lat="49.65265" lon="-1.66183"><ele>53.81</ele></trkpt><trkpt lat="49.65266" lon="-1.6618"><ele>53.45</ele></trkpt><trkpt lat="49.65267" lon="-1.66178"><ele>52.99</ele></trkpt><trkpt lat="49.65278" lon="-1.66162"><ele>52.32</ele></trkpt><trkpt lat="49.65278" lon="-1.66161"><ele>52.32</ele></trkpt><trkpt lat="49.65276" lon="-1.66163"><ele>52.32</ele></trkpt><trkpt lat="49.653" lon="-1.66228"><ele>51.63</ele></trkpt><trkpt lat="49.65301" lon="-1.66233"><ele>51.59</ele></trkpt><trkpt lat="49.65308" lon="-1.66252"><ele>51.35</ele></trkpt><trkpt lat="49.65327" lon="-1.66309"><ele>50.43</ele></trkpt><trkpt lat="49.65329" lon="-1.66315"><ele>50.44</ele></trkpt><trkpt lat="49.65333" lon="-1.66329"><ele>50.52</ele></trkpt><trkpt lat="49.65336" lon="-1.66339"><ele>50.52</ele></trkpt><trkpt lat="49.65337" lon="-1.66339"><ele>50.52</ele></trkpt><trkpt lat="49.65334" lon="-1.6633"><ele>50.52</ele></trkpt><trkpt lat="49.65342" lon="-1.66312"><ele>49.72</ele></trkpt><trkpt lat="49.65354" lon="-1.66286"><ele>48.35</ele></trkpt><trkpt lat="49.65356" lon="-1.6628"><ele>48.21</ele></trkpt><trkpt lat="49.65365" lon="-1.66264"><ele>47.33</ele></trkpt><trkpt lat="49.65368" lon="-1.66253"><ele>46.74</ele></trkpt><trkpt lat="49.65386" lon="-1.66206"><ele>44.44</ele></trkpt><trkpt lat="49.65388" lon="-1.66199"><ele>44.15</ele></trkpt><trkpt lat="49.6539" lon="-1.66192"><ele>43.88</ele></trkpt><trkpt lat="49.65393" lon="-1.66194"><ele>44.02</ele></trkpt><trkpt lat="49.6549" lon="-1.6622"><ele>42.74</ele></trkpt><trkpt lat="49.65489" lon="-1.66227"><ele>43.04</ele></trkpt><trkpt lat="49.65504" lon="-1.66233"><ele>41.71</ele></trkpt><trkpt lat="49.65502" lon="-1.66249"><ele>43.47</ele></trkpt><trkpt lat="49.65503" lon="-1.66255"><ele>43.33</ele></trkpt><trkpt lat="49.65509" lon="-1.66268"><ele>43.54</ele></trkpt><trkpt lat="49.65517" lon="-1.66274"><ele>42.81</ele></trkpt><trkpt lat="49.65519" lon="-1.66276"><ele>42.61</ele></trkpt><trkpt lat="49.65522" lon="-1.66282"><ele>41.77</ele></trkpt><trkpt lat="49.65521" lon="-1.66287"><ele>41.61</ele></trkpt><trkpt lat="49.65513" lon="-1.66299"><ele>41.6</ele></trkpt><trkpt lat="49.65507" lon="-1.66322"><ele>41.6</ele></trkpt><trkpt lat="49.65506" lon="-1.66332"><ele>40.72</ele></trkpt><trkpt lat="49.65508" lon="-1.66332"><ele>39.86</ele></trkpt><trkpt lat="49.65513" lon="-1.66335"><ele>39.18</ele></trkpt><trkpt lat="49.65516" lon="-1.66344"><ele>37.7</ele></trkpt><trkpt lat="49.65519" lon="-1.66347"><ele>37.33</ele></trkpt><trkpt lat="49.65524" lon="-1.66346"><ele>36.39</ele></trkpt><trkpt lat="49.6553" lon="-1.66343"><ele>34.77</ele></trkpt><trkpt lat="49.65536" lon="-1.66335"><ele>34.31</ele></trkpt><trkpt lat="49.65538" lon="-1.66336"><ele>33.27</ele></trkpt><trkpt lat="49.65541" lon="-1.66342"><ele>33.16</ele></trkpt><trkpt lat="49.6554" lon="-1.66345"><ele>33.06</ele></trkpt><trkpt lat="49.65541" lon="-1.66342"><ele>33.16</ele></trkpt><trkpt lat="49.65545" lon="-1.66343"><ele>32.52</ele></trkpt><trkpt lat="49.65548" lon="-1.66346"><ele>31.57</ele></trkpt><trkpt lat="49.65552" lon="-1.66356"><ele>30.34</ele></trkpt><trkpt lat="49.65561" lon="-1.6635"><ele>28.8</ele></trkpt><trkpt lat="49.65565" lon="-1.66353"><ele>28.11</ele></trkpt><trkpt lat="49.65567" lon="-1.66363"><ele>27.65</ele></trkpt><trkpt lat="49.65569" lon="-1.66364"><ele>26.82</ele></trkpt><trkpt lat="49.65572" lon="-1.66356"><ele>26.1</ele></trkpt><trkpt lat="49.65574" lon="-1.66354"><ele>26.1</ele></trkpt><trkpt lat="49.65575" lon="-1.66355"><ele>26.1</ele></trkpt><trkpt lat="49.65577" lon="-1.66368"><ele>24.77</ele></trkpt><trkpt lat="49.65579" lon="-1.66367"><ele>24.77</ele></trkpt><trkpt lat="49.6558" lon="-1.66358"><ele>23.91</ele></trkpt><trkpt lat="49.65583" lon="-1.66359"><ele>23.91</ele></trkpt><trkpt lat="49.65585" lon="-1.66369"><ele>23.35</ele></trkpt><trkpt lat="49.65587" lon="-1.66373"><ele>23.18</ele></trkpt><trkpt lat="49.65603" lon="-1.66389"><ele>20.69</ele></trkpt><trkpt lat="49.65605" lon="-1.664"><ele>20.19</ele></trkpt><trkpt lat="49.65606" lon="-1.66404"><ele>19.79</ele></trkpt><trkpt lat="49.65604" lon="-1.66409"><ele>20.04</ele></trkpt><trkpt lat="49.65594" lon="-1.66443"><ele>20.08</ele></trkpt><trkpt lat="49.65589" lon="-1.66464"><ele>20.22</ele></trkpt><trkpt lat="49.65578" lon="-1.66508"><ele>19.75</ele></trkpt><trkpt lat="49.65572" lon="-1.6654"><ele>19.62</ele></trkpt><trkpt lat="49.65569" lon="-1.66563"><ele>19.59</ele></trkpt><trkpt lat="49.65559" lon="-1.66599"><ele>19.65</ele></trkpt><trkpt lat="49.65558" lon="-1.66603"><ele>20.03</ele></trkpt><trkpt lat="49.65552" lon="-1.66626"><ele>20.27</ele></trkpt><trkpt lat="49.65548" lon="-1.66637"><ele>20.34</ele></trkpt><trkpt lat="49.65545" lon="-1.66663"><ele>20.73</ele></trkpt><trkpt lat="49.65534" lon="-1.66788"><ele>23.41</ele></trkpt><trkpt lat="49.65534" lon="-1.66818"><ele>23.57</ele></trkpt><trkpt lat="49.6554" lon="-1.66856"><ele>22.26</ele></trkpt><trkpt lat="49.65535" lon="-1.66858"><ele>22.85</ele></trkpt><trkpt lat="49.65535" lon="-1.66863"><ele>22.9</ele></trkpt><trkpt lat="49.65535" lon="-1.66858"><ele>22.85</ele></trkpt><trkpt lat="49.65502" lon="-1.66865"><ele>27.52</ele></trkpt><trkpt lat="49.6549" lon="-1.66882"><ele>29.01</ele></trkpt><trkpt lat="49.65485" lon="-1.66893"><ele>29.78</ele></trkpt><trkpt lat="49.65479" lon="-1.66907"><ele>29.22</ele></trkpt><trkpt lat="49.65479" lon="-1.66923"><ele>28.32</ele></trkpt><trkpt lat="49.6548" lon="-1.66939"><ele>27.2</ele></trkpt><trkpt lat="49.65479" lon="-1.6695"><ele>26.32</ele></trkpt><trkpt lat="49.65474" lon="-1.66957"><ele>26.02</ele></trkpt><trkpt lat="49.65471" lon="-1.66982"><ele>23.89</ele></trkpt><trkpt lat="49.65466" lon="-1.67001"><ele>21.97</ele></trkpt><trkpt lat="49.65461" lon="-1.67018"><ele>20.58</ele></trkpt><trkpt lat="49.65449" lon="-1.67044"><ele>18.31</ele></trkpt><trkpt lat="49.65436" lon="-1.67072"><ele>14.1</ele></trkpt><trkpt lat="49.65428" lon="-1.67088"><ele>11.66</ele></trkpt><trkpt lat="49.65425" lon="-1.67103"><ele>10.14</ele></trkpt><trkpt lat="49.65424" lon="-1.67121"><ele>10.23</ele></trkpt><trkpt lat="49.65429" lon="-1.6712"><ele>10.16</ele></trkpt><trkpt lat="49.65447" lon="-1.67127"><ele>10.6</ele></trkpt><trkpt lat="49.65452" lon="-1.67129"><ele>9.79</ele></trkpt><trkpt lat="49.65458" lon="-1.67131"><ele>9.95</ele></trkpt><trkpt lat="49.65462" lon="-1.67131"><ele>10.17</ele></trkpt><trkpt lat="49.65484" lon="-1.67125"><ele>9.55</ele></trkpt><trkpt lat="49.65488" lon="-1.67124"><ele>9.43</ele></trkpt><trkpt lat="49.6549" lon="-1.67124"><ele>9.28</ele></trkpt><trkpt lat="49.65492" lon="-1.67115"><ele>9.06</ele></trkpt><trkpt lat="49.65494" lon="-1.6711"><ele>9</ele></trkpt><trkpt lat="49.65496" lon="-1.67104"><ele>8.89</ele></trkpt><trkpt lat="49.65501" lon="-1.67101"><ele>8.56</ele></trkpt><trkpt lat="49.65507" lon="-1.67093"><ele>9.54</ele></trkpt><trkpt lat="49.65507" lon="-1.67091"><ele>9.54</ele></trkpt><trkpt lat="49.65512" lon="-1.6709"><ele>9.15</ele></trkpt><trkpt lat="49.65516" lon="-1.67091"><ele>8.75</ele></trkpt><trkpt lat="49.65519" lon="-1.67094"><ele>8.75</ele></trkpt><trkpt lat="49.65525" lon="-1.67103"><ele>8.17</ele></trkpt><trkpt lat="49.65529" lon="-1.67107"><ele>7.94</ele></trkpt><trkpt lat="49.65534" lon="-1.67109"><ele>7.77</ele></trkpt><trkpt lat="49.65541" lon="-1.67109"><ele>7.79</ele></trkpt><trkpt lat="49.65543" lon="-1.67107"><ele>7.95</ele></trkpt><trkpt lat="49.65544" lon="-1.67106"><ele>7.95</ele></trkpt><trkpt lat="49.65554" lon="-1.67096"><ele>8.23</ele></trkpt><trkpt lat="49.6556" lon="-1.67087"><ele>8.48</ele></trkpt><trkpt lat="49.65565" lon="-1.67082"><ele>8.72</ele></trkpt><trkpt lat="49.65573" lon="-1.67074"><ele>8.73</ele></trkpt><trkpt lat="49.65585" lon="-1.67068"><ele>8.76</ele></trkpt><trkpt lat="49.65595" lon="-1.67064"><ele>8.7</ele></trkpt><trkpt lat="49.65607" lon="-1.67056"><ele>8.79</ele></trkpt><trkpt lat="49.65615" lon="-1.67049"><ele>8.79</ele></trkpt><trkpt lat="49.65619" lon="-1.67043"><ele>9.18</ele></trkpt><trkpt lat="49.65625" lon="-1.67035"><ele>9.5</ele></trkpt><trkpt lat="49.65629" lon="-1.67028"><ele>9.54</ele></trkpt><trkpt lat="49.6563" lon="-1.67028"><ele>9.54</ele></trkpt><trkpt lat="49.65634" lon="-1.67024"><ele>9.53</ele></trkpt><trkpt lat="49.65647" lon="-1.67014"><ele>9.19</ele></trkpt><trkpt lat="49.6568" lon="-1.66988"><ele>8.39</ele></trkpt><trkpt lat="49.65686" lon="-1.66985"><ele>8.37</ele></trkpt><trkpt lat="49.6569" lon="-1.66984"><ele>8.25</ele></trkpt><trkpt lat="49.65701" lon="-1.66982"><ele>7.79</ele></trkpt><trkpt lat="49.657" lon="-1.66985"><ele>7.83</ele></trkpt><trkpt lat="49.65701" lon="-1.66991"><ele>7.68</ele></trkpt><trkpt lat="49.65701" lon="-1.6702"><ele>7.57</ele></trkpt><trkpt lat="49.65701" lon="-1.6709"><ele>7.21</ele></trkpt><trkpt lat="49.65701" lon="-1.67095"><ele>7.2</ele></trkpt><trkpt lat="49.65707" lon="-1.67095"><ele>7.02</ele></trkpt><trkpt lat="49.65701" lon="-1.67095"><ele>7.2</ele></trkpt><trkpt lat="49.65701" lon="-1.67121"><ele>7.1</ele></trkpt><trkpt lat="49.65701" lon="-1.67138"><ele>7</ele></trkpt><trkpt lat="49.65695" lon="-1.67165"><ele>6.98</ele></trkpt><trkpt lat="49.65692" lon="-1.67181"><ele>7</ele></trkpt><trkpt lat="49.6569" lon="-1.67194"><ele>7.16</ele></trkpt><trkpt lat="49.65687" lon="-1.67207"><ele>7.12</ele></trkpt><trkpt lat="49.65687" lon="-1.67214"><ele>6.87</ele></trkpt><trkpt lat="49.65686" lon="-1.67227"><ele>6.87</ele></trkpt><trkpt lat="49.65686" lon="-1.67245"><ele>6.43</ele></trkpt><trkpt lat="49.65685" lon="-1.67252"><ele>6.08</ele></trkpt><trkpt lat="49.65683" lon="-1.67259"><ele>6.09</ele></trkpt><trkpt lat="49.65677" lon="-1.67274"><ele>6.21</ele></trkpt><trkpt lat="49.65677" lon="-1.67281"><ele>6.15</ele></trkpt><trkpt lat="49.65673" lon="-1.67281"><ele>6.37</ele></trkpt><trkpt lat="49.65667" lon="-1.67284"><ele>6.7</ele></trkpt><trkpt lat="49.65666" lon="-1.6728"><ele>6.7</ele></trkpt><trkpt lat="49.65666" lon="-1.67284"><ele>6.7</ele></trkpt><trkpt lat="49.65654" lon="-1.67292"><ele>7.01</ele></trkpt><trkpt lat="49.65644" lon="-1.67285"><ele>7.07</ele></trkpt><trkpt lat="49.65629" lon="-1.67275"><ele>7.25</ele></trkpt><trkpt lat="49.6562" lon="-1.67263"><ele>7.33</ele></trkpt><trkpt lat="49.65605" lon="-1.67237"><ele>7.49</ele></trkpt><trkpt lat="49.65592" lon="-1.67214"><ele>7.78</ele></trkpt><trkpt lat="49.65589" lon="-1.67211"><ele>7.87</ele></trkpt><trkpt lat="49.65594" lon="-1.67199"><ele>7.58</ele></trkpt><trkpt lat="49.65598" lon="-1.67189"><ele>6.55</ele></trkpt><trkpt lat="49.65599" lon="-1.67186"><ele>6.55</ele></trkpt><trkpt lat="49.65588" lon="-1.67183"><ele>7.1</ele></trkpt><trkpt lat="49.65577" lon="-1.67174"><ele>7.78</ele></trkpt><trkpt lat="49.65566" lon="-1.67173"><ele>8.4</ele></trkpt><trkpt lat="49.65559" lon="-1.67175"><ele>8.55</ele></trkpt><trkpt lat="49.65554" lon="-1.67177"><ele>8.78</ele></trkpt><trkpt lat="49.65552" lon="-1.6717"><ele>8.91</ele></trkpt><trkpt lat="49.65547" lon="-1.67165"><ele>9.08</ele></trkpt><trkpt lat="49.65546" lon="-1.67163"><ele>8.91</ele></trkpt><trkpt lat="49.65541" lon="-1.67159"><ele>9.2</ele></trkpt><trkpt lat="49.65536" lon="-1.67159"><ele>9.37</ele></trkpt><trkpt lat="49.6553" lon="-1.67165"><ele>9.4</ele></trkpt><trkpt lat="49.65518" lon="-1.67169"><ele>10.02</ele></trkpt><trkpt lat="49.65514" lon="-1.67169"><ele>10.01</ele></trkpt><trkpt lat="49.65512" lon="-1.67173"><ele>9.91</ele></trkpt><trkpt lat="49.65509" lon="-1.67175"><ele>9.85</ele></trkpt><trkpt lat="49.65506" lon="-1.67174"><ele>9.81</ele></trkpt><trkpt lat="49.65503" lon="-1.6717"><ele>10.08</ele></trkpt><trkpt lat="49.655" lon="-1.67165"><ele>9.84</ele></trkpt><trkpt lat="49.65499" lon="-1.67163"><ele>9.77</ele></trkpt><trkpt lat="49.65496" lon="-1.67163"><ele>9.88</ele></trkpt><trkpt lat="49.65482" lon="-1.67153"><ele>10.05</ele></trkpt><trkpt lat="49.6548" lon="-1.67156"><ele>10.33</ele></trkpt><trkpt lat="49.6548" lon="-1.67168"><ele>10.39</ele></trkpt><trkpt lat="49.65482" lon="-1.67185"><ele>10.14</ele></trkpt><trkpt lat="49.65468" lon="-1.67188"><ele>10.7</ele></trkpt><trkpt lat="49.65457" lon="-1.67195"><ele>11.16</ele></trkpt><trkpt lat="49.65454" lon="-1.67185"><ele>11.38</ele></trkpt><trkpt lat="49.65457" lon="-1.67195"><ele>11.16</ele></trkpt><trkpt lat="49.65454" lon="-1.67197"><ele>11.33</ele></trkpt><trkpt lat="49.65441" lon="-1.67197"><ele>11.8</ele></trkpt><trkpt lat="49.65429" lon="-1.67191"><ele>12.19</ele></trkpt><trkpt lat="49.65415" lon="-1.67272"><ele>13.04</ele></trkpt><trkpt lat="49.65411" lon="-1.67265"><ele>12.78</ele></trkpt><trkpt lat="49.65411" lon="-1.67249"><ele>12.08</ele></trkpt><trkpt lat="49.65415" lon="-1.67223"><ele>11.4</ele></trkpt><trkpt lat="49.65422" lon="-1.67183"><ele>11.2</ele></trkpt><trkpt lat="49.65403" lon="-1.67174"><ele>12.13</ele></trkpt><trkpt lat="49.65383" lon="-1.67164"><ele>12.72</ele></trkpt><trkpt lat="49.65345" lon="-1.67151"><ele>14.07</ele></trkpt><trkpt lat="49.65315" lon="-1.67141"><ele>14.79</ele></trkpt><trkpt lat="49.65315" lon="-1.67142"><ele>14.79</ele></trkpt><trkpt lat="49.65315" lon="-1.67141"><ele>14.79</ele></trkpt><trkpt lat="49.65311" lon="-1.67139"><ele>15.12</ele></trkpt><trkpt lat="49.65296" lon="-1.67133"><ele>15.58</ele></trkpt><trkpt lat="49.65267" lon="-1.67123"><ele>16.26</ele></trkpt><trkpt lat="49.65262" lon="-1.67126"><ele>17.36</ele></trkpt><trkpt lat="49.65259" lon="-1.67131"><ele>18.25</ele></trkpt><trkpt lat="49.65256" lon="-1.67137"><ele>17.63</ele></trkpt><trkpt lat="49.65245" lon="-1.67146"><ele>18.99</ele></trkpt><trkpt lat="49.6524" lon="-1.67148"><ele>20.4</ele></trkpt><trkpt lat="49.65239" lon="-1.67149"><ele>20.4</ele></trkpt><trkpt lat="49.6522" lon="-1.67154"><ele>19.89</ele></trkpt><trkpt lat="49.65214" lon="-1.67152"><ele>19.78</ele></trkpt><trkpt lat="49.65199" lon="-1.67148"><ele>20.39</ele></trkpt><trkpt lat="49.65176" lon="-1.67137"><ele>20.33</ele></trkpt><trkpt lat="49.6516" lon="-1.67131"><ele>21.24</ele></trkpt><trkpt lat="49.65137" lon="-1.67125"><ele>22.82</ele></trkpt><trkpt lat="49.65127" lon="-1.6712"><ele>23.52</ele></trkpt><trkpt lat="49.65124" lon="-1.67118"><ele>24.36</ele></trkpt><trkpt lat="49.65119" lon="-1.67114"><ele>23.98</ele></trkpt><trkpt lat="49.65118" lon="-1.67117"><ele>25.57</ele></trkpt><trkpt lat="49.65118" lon="-1.67114"><ele>23.98</ele></trkpt><trkpt lat="49.65103" lon="-1.67102"><ele>24.56</ele></trkpt><trkpt lat="49.65091" lon="-1.67096"><ele>25.19</ele></trkpt><trkpt lat="49.65071" lon="-1.67082"><ele>24.84</ele></trkpt><trkpt lat="49.65054" lon="-1.6707"><ele>25.42</ele></trkpt><trkpt lat="49.65044" lon="-1.67062"><ele>25.36</ele></trkpt><trkpt lat="49.65021" lon="-1.67044"><ele>25.96</ele></trkpt><trkpt lat="49.64985" lon="-1.67023"><ele>27.13</ele></trkpt><trkpt lat="49.64963" lon="-1.67002"><ele>26.32</ele></trkpt><trkpt lat="49.64954" lon="-1.66995"><ele>25.6</ele></trkpt><trkpt lat="49.64945" lon="-1.66993"><ele>25.47</ele></trkpt><trkpt lat="49.64925" lon="-1.67006"><ele>24.96</ele></trkpt><trkpt lat="49.6492" lon="-1.67009"><ele>24.94</ele></trkpt><trkpt lat="49.6491" lon="-1.67019"><ele>24.63</ele></trkpt><trkpt lat="49.64897" lon="-1.67038"><ele>24.59</ele></trkpt><trkpt lat="49.64883" lon="-1.67047"><ele>24.61</ele></trkpt><trkpt lat="49.64847" lon="-1.67082"><ele>24.69</ele></trkpt><trkpt lat="49.64832" lon="-1.67121"><ele>27.45</ele></trkpt><trkpt lat="49.64828" lon="-1.67141"><ele>29.27</ele></trkpt><trkpt lat="49.64818" lon="-1.67147"><ele>30.36</ele></trkpt><trkpt lat="49.6481" lon="-1.67144"><ele>30.11</ele></trkpt><trkpt lat="49.64801" lon="-1.67145"><ele>30.12</ele></trkpt><trkpt lat="49.64797" lon="-1.67147"><ele>30.51</ele></trkpt><trkpt lat="49.64791" lon="-1.6715"><ele>30.34</ele></trkpt><trkpt lat="49.64786" lon="-1.67153"><ele>30.32</ele></trkpt><trkpt lat="49.64791" lon="-1.6717"><ele>34.26</ele></trkpt><trkpt lat="49.64786" lon="-1.67153"><ele>30.32</ele></trkpt><trkpt lat="49.64778" lon="-1.67159"><ele>30.47</ele></trkpt><trkpt lat="49.64773" lon="-1.67168"><ele>30.71</ele></trkpt><trkpt lat="49.64764" lon="-1.67181"><ele>30.93</ele></trkpt><trkpt lat="49.64748" lon="-1.67206"><ele>32.6</ele></trkpt><trkpt lat="49.6474" lon="-1.67214"><ele>33.04</ele></trkpt><trkpt lat="49.64735" lon="-1.67216"><ele>33.28</ele></trkpt><trkpt lat="49.64727" lon="-1.67236"><ele>33.76</ele></trkpt><trkpt lat="49.64715" lon="-1.67271"><ele>34.26</ele></trkpt><trkpt lat="49.647" lon="-1.6733"><ele>34.99</ele></trkpt><trkpt lat="49.6468" lon="-1.67393"><ele>36.37</ele></trkpt><trkpt lat="49.64651" lon="-1.67462"><ele>37.47</ele></trkpt><trkpt lat="49.64647" lon="-1.67467"><ele>37.64</ele></trkpt><trkpt lat="49.64639" lon="-1.67478"><ele>38.47</ele></trkpt><trkpt lat="49.64631" lon="-1.67462"><ele>38.3</ele></trkpt><trkpt lat="49.64627" lon="-1.67457"><ele>36.7</ele></trkpt><trkpt lat="49.64621" lon="-1.6745"><ele>33.52</ele></trkpt><trkpt lat="49.64618" lon="-1.67447"><ele>36.36</ele></trkpt><trkpt lat="49.64616" lon="-1.67444"><ele>36.36</ele></trkpt><trkpt lat="49.64612" lon="-1.67435"><ele>38.44</ele></trkpt><trkpt lat="49.64606" lon="-1.67428"><ele>38.59</ele></trkpt><trkpt lat="49.64601" lon="-1.67422"><ele>38.74</ele></trkpt><trkpt lat="49.64593" lon="-1.67417"><ele>38.99</ele></trkpt><trkpt lat="49.64582" lon="-1.67412"><ele>39.68</ele></trkpt><trkpt lat="49.64547" lon="-1.67397"><ele>42.02</ele></trkpt><trkpt lat="49.64536" lon="-1.6739"><ele>43.03</ele></trkpt><trkpt lat="49.64513" lon="-1.67368"><ele>44.99</ele></trkpt><trkpt lat="49.64492" lon="-1.67349"><ele>47.08</ele></trkpt><trkpt lat="49.6447" lon="-1.67328"><ele>49.78</ele></trkpt><trkpt lat="49.64468" lon="-1.67325"><ele>50.26</ele></trkpt><trkpt lat="49.64464" lon="-1.67318"><ele>51.04</ele></trkpt><trkpt lat="49.64462" lon="-1.67313"><ele>51.32</ele></trkpt><trkpt lat="49.64457" lon="-1.67317"><ele>51.36</ele></trkpt><trkpt lat="49.6445" lon="-1.67317"><ele>51.7</ele></trkpt><trkpt lat="49.64441" lon="-1.67315"><ele>50.5</ele></trkpt><trkpt lat="49.64414" lon="-1.67307"><ele>50.74</ele></trkpt><trkpt lat="49.64387" lon="-1.67301"><ele>51.93</ele></trkpt><trkpt lat="49.64371" lon="-1.67297"><ele>52.95</ele></trkpt><trkpt lat="49.64365" lon="-1.67296"><ele>54.29</ele></trkpt><trkpt lat="49.64357" lon="-1.67295"><ele>54.7</ele></trkpt><trkpt lat="49.64334" lon="-1.67293"><ele>57.42</ele></trkpt><trkpt lat="49.64332" lon="-1.67293"><ele>57.42</ele></trkpt><trkpt lat="49.64306" lon="-1.67291"><ele>59.5</ele></trkpt><trkpt lat="49.64296" lon="-1.67288"><ele>59.95</ele></trkpt><trkpt lat="49.64262" lon="-1.67281"><ele>60.29</ele></trkpt><trkpt lat="49.64258" lon="-1.6728"><ele>60.43</ele></trkpt><trkpt lat="49.64253" lon="-1.6728"><ele>60.54</ele></trkpt><trkpt lat="49.64235" lon="-1.67282"><ele>61.36</ele></trkpt><trkpt lat="49.64227" lon="-1.67284"><ele>61.57</ele></trkpt><trkpt lat="49.64213" lon="-1.67282"><ele>62.27</ele></trkpt><trkpt lat="49.64187" lon="-1.67279"><ele>64.27</ele></trkpt><trkpt lat="49.64182" lon="-1.67279"><ele>64.56</ele></trkpt><trkpt lat="49.64165" lon="-1.67277"><ele>65.4</ele></trkpt><trkpt lat="49.64162" lon="-1.67278"><ele>65.57</ele></trkpt><trkpt lat="49.64149" lon="-1.67274"><ele>65.68</ele></trkpt><trkpt lat="49.64145" lon="-1.67273"><ele>65.62</ele></trkpt><trkpt lat="49.64127" lon="-1.67265"><ele>64.79</ele></trkpt><trkpt lat="49.64099" lon="-1.6725"><ele>61.71</ele></trkpt><trkpt lat="49.64094" lon="-1.67248"><ele>61.29</ele></trkpt><trkpt lat="49.64135" lon="-1.67114"><ele>68.05</ele></trkpt><trkpt lat="49.6415" lon="-1.6706"><ele>69.29</ele></trkpt><trkpt lat="49.64152" lon="-1.6705"><ele>69.46</ele></trkpt><trkpt lat="49.64156" lon="-1.67038"><ele>69.91</ele></trkpt><trkpt lat="49.64157" lon="-1.67036"><ele>69.91</ele></trkpt><trkpt lat="49.64154" lon="-1.67031"><ele>70.06</ele></trkpt><trkpt lat="49.6415" lon="-1.67023"><ele>70.31</ele></trkpt><trkpt lat="49.64145" lon="-1.67017"><ele>70.54</ele></trkpt><trkpt lat="49.64136" lon="-1.67006"><ele>70.87</ele></trkpt><trkpt lat="49.64141" lon="-1.66998"><ele>70.88</ele></trkpt><trkpt lat="49.64139" lon="-1.66993"><ele>71</ele></trkpt><trkpt lat="49.64139" lon="-1.66966"><ele>71.54</ele></trkpt><trkpt lat="49.64136" lon="-1.66957"><ele>71.79</ele></trkpt><trkpt lat="49.64134" lon="-1.66951"><ele>71.83</ele></trkpt><trkpt lat="49.64125" lon="-1.66945"><ele>72.48</ele></trkpt><trkpt lat="49.64128" lon="-1.66937"><ele>72.51</ele></trkpt><trkpt lat="49.6413" lon="-1.66925"><ele>73</ele></trkpt><trkpt lat="49.64131" lon="-1.66913"><ele>73.09</ele></trkpt><trkpt lat="49.64132" lon="-1.66902"><ele>73.17</ele></trkpt><trkpt lat="49.64131" lon="-1.66893"><ele>73.22</ele></trkpt><trkpt lat="49.6413" lon="-1.66885"><ele>73.2</ele></trkpt><trkpt lat="49.64126" lon="-1.66874"><ele>73.29</ele></trkpt><trkpt lat="49.64124" lon="-1.66864"><ele>73.28</ele></trkpt><trkpt lat="49.64123" lon="-1.66852"><ele>73.03</ele></trkpt><trkpt lat="49.64123" lon="-1.66838"><ele>72.9</ele></trkpt><trkpt lat="49.64124" lon="-1.66827"><ele>72.92</ele></trkpt><trkpt lat="49.64126" lon="-1.66805"><ele>72.8</ele></trkpt><trkpt lat="49.64128" lon="-1.6679"><ele>72.77</ele></trkpt><trkpt lat="49.6413" lon="-1.6678"><ele>72.79</ele></trkpt><trkpt lat="49.64141" lon="-1.66703"><ele>74.01</ele></trkpt><trkpt lat="49.64152" lon="-1.66624"><ele>75.84</ele></trkpt><trkpt lat="49.6416" lon="-1.66561"><ele>76.36</ele></trkpt><trkpt lat="49.64162" lon="-1.66544"><ele>76.4</ele></trkpt><trkpt lat="49.6415" lon="-1.6654"><ele>76.39</ele></trkpt><trkpt lat="49.64142" lon="-1.66538"><ele>76.11</ele></trkpt><trkpt lat="49.6414" lon="-1.6653"><ele>76.24</ele></trkpt><trkpt lat="49.64137" lon="-1.66522"><ele>76.3</ele></trkpt><trkpt lat="49.64134" lon="-1.66516"><ele>76.37</ele></trkpt><trkpt lat="49.64131" lon="-1.66511"><ele>76.45</ele></trkpt><trkpt lat="49.64126" lon="-1.66509"><ele>76.43</ele></trkpt><trkpt lat="49.64122" lon="-1.66509"><ele>76.43</ele></trkpt><trkpt lat="49.64119" lon="-1.66502"><ele>76.51</ele></trkpt><trkpt lat="49.64115" lon="-1.66498"><ele>76.58</ele></trkpt><trkpt lat="49.64098" lon="-1.66473"><ele>76.65</ele></trkpt><trkpt lat="49.64097" lon="-1.66471"><ele>76.69</ele></trkpt><trkpt lat="49.64091" lon="-1.66455"><ele>76.83</ele></trkpt><trkpt lat="49.64086" lon="-1.66435"><ele>76.75</ele></trkpt><trkpt lat="49.64086" lon="-1.66404"><ele>76.83</ele></trkpt><trkpt lat="49.64092" lon="-1.66384"><ele>76.76</ele></trkpt><trkpt lat="49.64101" lon="-1.66362"><ele>76.62</ele></trkpt><trkpt lat="49.64094" lon="-1.66343"><ele>76.9</ele></trkpt><trkpt lat="49.64084" lon="-1.66313"><ele>77.84</ele></trkpt><trkpt lat="49.64076" lon="-1.66289"><ele>77.92</ele></trkpt><trkpt lat="49.64066" lon="-1.66273"><ele>77.91</ele></trkpt><trkpt lat="49.64059" lon="-1.6626"><ele>77.88</ele></trkpt><trkpt lat="49.64053" lon="-1.66247"><ele>77.8</ele></trkpt><trkpt lat="49.64048" lon="-1.6623"><ele>77.67</ele></trkpt><trkpt lat="49.64045" lon="-1.66216"><ele>77.59</ele></trkpt><trkpt lat="49.64043" lon="-1.66205"><ele>77.37</ele></trkpt><trkpt lat="49.64042" lon="-1.662"><ele>77.29</ele></trkpt><trkpt lat="49.64041" lon="-1.66182"><ele>76.96</ele></trkpt><trkpt lat="49.64041" lon="-1.66165"><ele>76.81</ele></trkpt><trkpt lat="49.64041" lon="-1.66156"><ele>76.66</ele></trkpt><trkpt lat="49.64042" lon="-1.66146"><ele>76.35</ele></trkpt><trkpt lat="49.64042" lon="-1.66139"><ele>76.24</ele></trkpt><trkpt lat="49.64042" lon="-1.66145"><ele>76.35</ele></trkpt><trkpt lat="49.64042" lon="-1.66146"><ele>76.35</ele></trkpt><trkpt lat="49.64042" lon="-1.66151"><ele>76.47</ele></trkpt><trkpt lat="49.64041" lon="-1.66156"><ele>76.66</ele></trkpt></trkseg></trk></gpx>
