<?xml version="1.0" encoding="UTF-8" standalone="no"?>
<gpx xmlns="http://www.topografix.com/GPX/1/1" version="1.1" xmlns:xsi="http://www.w3.org/2001/XMLSchema-instance" xsi:schemaLocation="http://www.topografix.com/GPX/1/1 http://www.topografix.com/GPX/1/1/gpx.xsd" creator="Cirkwi"><metadata><name><![CDATA[De la vallée des Moulins au cap Lévi]]></name><desc><![CDATA[Après avoir découvert le village authentique de la vallée des moulins et le charme des hameaux aux demeures en granite rose, vous partirez ensuite à la rencontre de l'Anse de la Mondrée et du cap Lévi, le long du littoral. Partez de la Place Marie-Ravenel (près de l'église). Au fond du parking, traversez la rivière et empruntez le chemin de la vallée des moulins (Fermanville). Coordonnées GPS : 49°40'57.576"N, 1°26'52.069"W Suivez le circuit selon le sens inverse des aiguilles d'une montre. Le balisage est de couleur jaune. Vous retrouverez ce circuit dans le topoguide "La Manche à pied" édité par la FFRandonnée et distribué dans les Bureaux d'information touristiques de l'Office de tourisme du Cotentin. Vous retrouverez aussi deux boucles plus petites (5 et  6.5 km) dans le topoguide "Val-de-Saire - de Bretteville à Gatteville-Phare" de l'Office de tourisme du Cotentin.    Quelques dénivelés en intérieur des terres. Attention cheminement et traversée de la D116. Départ accessible avec le réseau de bus Cap Cotentin à l'arrêt "Fermanville - Le Montereire " (à 650 m du circuit) - (plus d'infos sur capcotentin.fr)]]></desc><author><name><![CDATA[Cotentin unique]]></name></author><link href="http://fichier0.cirkwi.com/image/photo/circuit/1300x1300/415893/fr/0.jpg"><text><![CDATA[Viaduc de Fermanville|Aymeric Picot]]></text></link><time>2026-08-06T09:30:13Z</time></metadata><trk><trkseg><trkpt lat="49.68271" lon="-1.44782"><ele>8.99</ele></trkpt><trkpt lat="49.68204" lon="-1.44762"><ele>9.82</ele></trkpt><trkpt lat="49.68195" lon="-1.44743"><ele>10.82</ele></trkpt><trkpt lat="49.68187" lon="-1.44747"><ele>11.34</ele></trkpt><trkpt lat="49.68158" lon="-1.4479"><ele>13.34</ele></trkpt><trkpt lat="49.6814" lon="-1.44846"><ele>14.02</ele></trkpt><trkpt lat="49.68127" lon="-1.44883"><ele>13.93</ele></trkpt><trkpt lat="49.68116" lon="-1.44899"><ele>15.4</ele></trkpt><trkpt lat="49.68099" lon="-1.44899"><ele>17.02</ele></trkpt><trkpt lat="49.68057" lon="-1.44874"><ele>19.45</ele></trkpt><trkpt lat="49.68014" lon="-1.44852"><ele>21.31</ele></trkpt><trkpt lat="49.67987" lon="-1.44836"><ele>19.17</ele></trkpt><trkpt lat="49.6797" lon="-1.44856"><ele>17.21</ele></trkpt><trkpt lat="49.67967" lon="-1.4486"><ele>16.59</ele></trkpt><trkpt lat="49.67964" lon="-1.44864"><ele>16.89</ele></trkpt><trkpt lat="49.67962" lon="-1.44867"><ele>17.44</ele></trkpt><trkpt lat="49.6796" lon="-1.44872"><ele>17.89</ele></trkpt><trkpt lat="49.67953" lon="-1.44874"><ele>21.08</ele></trkpt><trkpt lat="49.67956" lon="-1.44877"><ele>19.89</ele></trkpt><trkpt lat="49.67953" lon="-1.44873"><ele>19.08</ele></trkpt><trkpt lat="49.67946" lon="-1.44872"><ele>20.09</ele></trkpt><trkpt lat="49.67936" lon="-1.44865"><ele>19.25</ele></trkpt><trkpt lat="49.67919" lon="-1.44855"><ele>18.99</ele></trkpt><trkpt lat="49.67904" lon="-1.44846"><ele>19.73</ele></trkpt><trkpt lat="49.67902" lon="-1.44845"><ele>19.73</ele></trkpt><trkpt lat="49.67886" lon="-1.44833"><ele>22.41</ele></trkpt><trkpt lat="49.6787" lon="-1.4482"><ele>23.38</ele></trkpt><trkpt lat="49.67865" lon="-1.44816"><ele>23.35</ele></trkpt><trkpt lat="49.67847" lon="-1.448"><ele>23.56</ele></trkpt><trkpt lat="49.67835" lon="-1.4479"><ele>23.82</ele></trkpt><trkpt lat="49.67827" lon="-1.44783"><ele>23.66</ele></trkpt><trkpt lat="49.67823" lon="-1.44778"><ele>23.5</ele></trkpt><trkpt lat="49.67822" lon="-1.44777"><ele>23.5</ele></trkpt><trkpt lat="49.67816" lon="-1.44773"><ele>23.24</ele></trkpt><trkpt lat="49.67809" lon="-1.44772"><ele>23.57</ele></trkpt><trkpt lat="49.67806" lon="-1.44772"><ele>23.77</ele></trkpt><trkpt lat="49.67788" lon="-1.44775"><ele>25.1</ele></trkpt><trkpt lat="49.67777" lon="-1.44776"><ele>24.29</ele></trkpt><trkpt lat="49.67776" lon="-1.44776"><ele>24.29</ele></trkpt><trkpt lat="49.67775" lon="-1.44776"><ele>24.29</ele></trkpt><trkpt lat="49.67775" lon="-1.44775"><ele>24.29</ele></trkpt><trkpt lat="49.67774" lon="-1.44775"><ele>24.29</ele></trkpt><trkpt lat="49.67773" lon="-1.44774"><ele>23.81</ele></trkpt><trkpt lat="49.67773" lon="-1.44773"><ele>23.81</ele></trkpt><trkpt lat="49.67772" lon="-1.44771"><ele>23.13</ele></trkpt><trkpt lat="49.67767" lon="-1.44764"><ele>23.29</ele></trkpt><trkpt lat="49.67753" lon="-1.44741"><ele>23.77</ele></trkpt><trkpt lat="49.67749" lon="-1.44737"><ele>23.35</ele></trkpt><trkpt lat="49.67748" lon="-1.44736"><ele>23.86</ele></trkpt><trkpt lat="49.67745" lon="-1.44735"><ele>23.33</ele></trkpt><trkpt lat="49.67745" lon="-1.44734"><ele>23.33</ele></trkpt><trkpt lat="49.67742" lon="-1.44733"><ele>23.38</ele></trkpt><trkpt lat="49.67739" lon="-1.44731"><ele>23.9</ele></trkpt><trkpt lat="49.67737" lon="-1.44731"><ele>24.39</ele></trkpt><trkpt lat="49.67728" lon="-1.44734"><ele>24.84</ele></trkpt><trkpt lat="49.67712" lon="-1.44739"><ele>26.57</ele></trkpt><trkpt lat="49.6771" lon="-1.4474"><ele>26.57</ele></trkpt><trkpt lat="49.67708" lon="-1.4474"><ele>27.15</ele></trkpt><trkpt lat="49.67705" lon="-1.4474"><ele>27.15</ele></trkpt><trkpt lat="49.677" lon="-1.4474"><ele>28.11</ele></trkpt><trkpt lat="49.67688" lon="-1.44738"><ele>28.78</ele></trkpt><trkpt lat="49.67657" lon="-1.44728"><ele>29.56</ele></trkpt><trkpt lat="49.67649" lon="-1.44725"><ele>29.43</ele></trkpt><trkpt lat="49.67639" lon="-1.44721"><ele>28.31</ele></trkpt><trkpt lat="49.67614" lon="-1.44721"><ele>30.31</ele></trkpt><trkpt lat="49.67598" lon="-1.44721"><ele>31.38</ele></trkpt><trkpt lat="49.67596" lon="-1.44721"><ele>31.81</ele></trkpt><trkpt lat="49.67582" lon="-1.44718"><ele>33.16</ele></trkpt><trkpt lat="49.67579" lon="-1.44718"><ele>33.72</ele></trkpt><trkpt lat="49.67573" lon="-1.44719"><ele>34.14</ele></trkpt><trkpt lat="49.67561" lon="-1.44721"><ele>34.89</ele></trkpt><trkpt lat="49.67551" lon="-1.44724"><ele>34.46</ele></trkpt><trkpt lat="49.67543" lon="-1.44724"><ele>35.42</ele></trkpt><trkpt lat="49.67538" lon="-1.44725"><ele>35.86</ele></trkpt><trkpt lat="49.6753" lon="-1.44726"><ele>36.49</ele></trkpt><trkpt lat="49.67525" lon="-1.44728"><ele>35.69</ele></trkpt><trkpt lat="49.67519" lon="-1.4473"><ele>35.66</ele></trkpt><trkpt lat="49.67508" lon="-1.44737"><ele>34.8</ele></trkpt><trkpt lat="49.67492" lon="-1.44748"><ele>32.68</ele></trkpt><trkpt lat="49.67475" lon="-1.44753"><ele>32.35</ele></trkpt><trkpt lat="49.67472" lon="-1.44753"><ele>32.35</ele></trkpt><trkpt lat="49.67468" lon="-1.44754"><ele>31.71</ele></trkpt><trkpt lat="49.67463" lon="-1.44751"><ele>31.9</ele></trkpt><trkpt lat="49.6746" lon="-1.44749"><ele>32.63</ele></trkpt><trkpt lat="49.67424" lon="-1.447"><ele>33.27</ele></trkpt><trkpt lat="49.67403" lon="-1.44678"><ele>33.21</ele></trkpt><trkpt lat="49.67401" lon="-1.44676"><ele>34.01</ele></trkpt><trkpt lat="49.67389" lon="-1.44661"><ele>34.36</ele></trkpt><trkpt lat="49.67374" lon="-1.4464"><ele>34.3</ele></trkpt><trkpt lat="49.6737" lon="-1.44634"><ele>34.14</ele></trkpt><trkpt lat="49.67364" lon="-1.44625"><ele>34.04</ele></trkpt><trkpt lat="49.67361" lon="-1.44622"><ele>34.35</ele></trkpt><trkpt lat="49.67353" lon="-1.44613"><ele>34.43</ele></trkpt><trkpt lat="49.67346" lon="-1.44606"><ele>34.56</ele></trkpt><trkpt lat="49.67331" lon="-1.44591"><ele>35.19</ele></trkpt><trkpt lat="49.67319" lon="-1.44579"><ele>35.87</ele></trkpt><trkpt lat="49.67316" lon="-1.44576"><ele>36.21</ele></trkpt><trkpt lat="49.67299" lon="-1.44554"><ele>38.22</ele></trkpt><trkpt lat="49.67297" lon="-1.44552"><ele>38.22</ele></trkpt><trkpt lat="49.67288" lon="-1.44539"><ele>38.04</ele></trkpt><trkpt lat="49.67275" lon="-1.4452"><ele>38.65</ele></trkpt><trkpt lat="49.67271" lon="-1.44514"><ele>39.13</ele></trkpt><trkpt lat="49.6724" lon="-1.44466"><ele>40.87</ele></trkpt><trkpt lat="49.67237" lon="-1.44462"><ele>41.22</ele></trkpt><trkpt lat="49.67222" lon="-1.44446"><ele>40.87</ele></trkpt><trkpt lat="49.6722" lon="-1.44444"><ele>41.25</ele></trkpt><trkpt lat="49.67212" lon="-1.44437"><ele>41.34</ele></trkpt><trkpt lat="49.6721" lon="-1.44437"><ele>41.39</ele></trkpt><trkpt lat="49.67206" lon="-1.44434"><ele>41.96</ele></trkpt><trkpt lat="49.67193" lon="-1.44427"><ele>43.46</ele></trkpt><trkpt lat="49.67187" lon="-1.44422"><ele>44.14</ele></trkpt><trkpt lat="49.67183" lon="-1.44419"><ele>44.49</ele></trkpt><trkpt lat="49.67175" lon="-1.44408"><ele>46.1</ele></trkpt><trkpt lat="49.67167" lon="-1.44394"><ele>47.35</ele></trkpt><trkpt lat="49.67164" lon="-1.44386"><ele>47.78</ele></trkpt><trkpt lat="49.67155" lon="-1.44366"><ele>48.63</ele></trkpt><trkpt lat="49.67143" lon="-1.44337"><ele>48.15</ele></trkpt><trkpt lat="49.67137" lon="-1.44313"><ele>47.19</ele></trkpt><trkpt lat="49.67133" lon="-1.44287"><ele>46.57</ele></trkpt><trkpt lat="49.67128" lon="-1.44252"><ele>46.44</ele></trkpt><trkpt lat="49.67124" lon="-1.44234"><ele>46.58</ele></trkpt><trkpt lat="49.67104" lon="-1.44189"><ele>48.02</ele></trkpt><trkpt lat="49.67101" lon="-1.44183"><ele>47.93</ele></trkpt><trkpt lat="49.67078" lon="-1.44147"><ele>49.7</ele></trkpt><trkpt lat="49.6707" lon="-1.44134"><ele>49.41</ele></trkpt><trkpt lat="49.67063" lon="-1.44125"><ele>49.19</ele></trkpt><trkpt lat="49.67059" lon="-1.44121"><ele>49.09</ele></trkpt><trkpt lat="49.67055" lon="-1.4412"><ele>48.71</ele></trkpt><trkpt lat="49.67052" lon="-1.4412"><ele>48.71</ele></trkpt><trkpt lat="49.67048" lon="-1.44121"><ele>48.21</ele></trkpt><trkpt lat="49.67045" lon="-1.44124"><ele>47.78</ele></trkpt><trkpt lat="49.67043" lon="-1.44121"><ele>48.14</ele></trkpt><trkpt lat="49.67038" lon="-1.44116"><ele>48.36</ele></trkpt><trkpt lat="49.67027" lon="-1.44102"><ele>49.13</ele></trkpt><trkpt lat="49.67024" lon="-1.44098"><ele>49.38</ele></trkpt><trkpt lat="49.67027" lon="-1.44102"><ele>49.13</ele></trkpt><trkpt lat="49.6703" lon="-1.44096"><ele>49.32</ele></trkpt><trkpt lat="49.67034" lon="-1.44096"><ele>49.57</ele></trkpt><trkpt lat="49.67036" lon="-1.44097"><ele>49.81</ele></trkpt><trkpt lat="49.6704" lon="-1.44099"><ele>50.43</ele></trkpt><trkpt lat="49.67051" lon="-1.44103"><ele>51.45</ele></trkpt><trkpt lat="49.67061" lon="-1.44104"><ele>51.38</ele></trkpt><trkpt lat="49.67067" lon="-1.44106"><ele>50.93</ele></trkpt><trkpt lat="49.67072" lon="-1.44109"><ele>51.49</ele></trkpt><trkpt lat="49.67078" lon="-1.44112"><ele>52.59</ele></trkpt><trkpt lat="49.67084" lon="-1.44115"><ele>53.09</ele></trkpt><trkpt lat="49.67089" lon="-1.44117"><ele>54.19</ele></trkpt><trkpt lat="49.67099" lon="-1.4413"><ele>54.92</ele></trkpt><trkpt lat="49.67102" lon="-1.44136"><ele>54.88</ele></trkpt><trkpt lat="49.67109" lon="-1.44153"><ele>54.15</ele></trkpt><trkpt lat="49.67109" lon="-1.44154"><ele>54.15</ele></trkpt><trkpt lat="49.67115" lon="-1.44166"><ele>52.91</ele></trkpt><trkpt lat="49.6712" lon="-1.44175"><ele>52.4</ele></trkpt><trkpt lat="49.67124" lon="-1.44185"><ele>51.96</ele></trkpt><trkpt lat="49.67132" lon="-1.44196"><ele>52.02</ele></trkpt><trkpt lat="49.6714" lon="-1.44208"><ele>52.92</ele></trkpt><trkpt lat="49.67144" lon="-1.44219"><ele>52.53</ele></trkpt><trkpt lat="49.67147" lon="-1.44209"><ele>54.4</ele></trkpt><trkpt lat="49.67148" lon="-1.44204"><ele>55.41</ele></trkpt><trkpt lat="49.67147" lon="-1.44198"><ele>55.93</ele></trkpt><trkpt lat="49.67146" lon="-1.44194"><ele>55.54</ele></trkpt><trkpt lat="49.67146" lon="-1.44193"><ele>55.54</ele></trkpt><trkpt lat="49.67143" lon="-1.44185"><ele>56.74</ele></trkpt><trkpt lat="49.6713" lon="-1.44151"><ele>59.64</ele></trkpt><trkpt lat="49.67128" lon="-1.44145"><ele>59.47</ele></trkpt><trkpt lat="49.67127" lon="-1.44142"><ele>60.24</ele></trkpt><trkpt lat="49.67125" lon="-1.44135"><ele>61.76</ele></trkpt><trkpt lat="49.67125" lon="-1.4413"><ele>62.5</ele></trkpt><trkpt lat="49.67125" lon="-1.44127"><ele>62.5</ele></trkpt><trkpt lat="49.67127" lon="-1.44123"><ele>63.24</ele></trkpt><trkpt lat="49.67133" lon="-1.44121"><ele>64.87</ele></trkpt><trkpt lat="49.67141" lon="-1.44121"><ele>66.33</ele></trkpt><trkpt lat="49.67145" lon="-1.4412"><ele>66.93</ele></trkpt><trkpt lat="49.67159" lon="-1.4412"><ele>68.34</ele></trkpt><trkpt lat="49.67174" lon="-1.44119"><ele>70.12</ele></trkpt><trkpt lat="49.67194" lon="-1.44113"><ele>73.54</ele></trkpt><trkpt lat="49.67198" lon="-1.44111"><ele>74.09</ele></trkpt><trkpt lat="49.67202" lon="-1.44109"><ele>74.44</ele></trkpt><trkpt lat="49.67212" lon="-1.44104"><ele>76.16</ele></trkpt><trkpt lat="49.67215" lon="-1.44102"><ele>76.16</ele></trkpt><trkpt lat="49.67229" lon="-1.441"><ele>77.54</ele></trkpt><trkpt lat="49.67248" lon="-1.44102"><ele>78.19</ele></trkpt><trkpt lat="49.67266" lon="-1.44104"><ele>79.19</ele></trkpt><trkpt lat="49.67284" lon="-1.44106"><ele>79.73</ele></trkpt><trkpt lat="49.67302" lon="-1.44108"><ele>79.96</ele></trkpt><trkpt lat="49.67311" lon="-1.44108"><ele>79.97</ele></trkpt><trkpt lat="49.67312" lon="-1.44109"><ele>79.97</ele></trkpt><trkpt lat="49.67321" lon="-1.4411"><ele>79.71</ele></trkpt><trkpt lat="49.67326" lon="-1.4411"><ele>79.63</ele></trkpt><trkpt lat="49.67329" lon="-1.4411"><ele>79.54</ele></trkpt><trkpt lat="49.67332" lon="-1.4411"><ele>79.4</ele></trkpt><trkpt lat="49.67334" lon="-1.44106"><ele>79.56</ele></trkpt><trkpt lat="49.67336" lon="-1.44097"><ele>79.75</ele></trkpt><trkpt lat="49.67336" lon="-1.44074"><ele>81.11</ele></trkpt><trkpt lat="49.67336" lon="-1.44055"><ele>82.18</ele></trkpt><trkpt lat="49.67336" lon="-1.4405"><ele>82.45</ele></trkpt><trkpt lat="49.67335" lon="-1.44044"><ele>83.08</ele></trkpt><trkpt lat="49.67389" lon="-1.43999"><ele>82.56</ele></trkpt><trkpt lat="49.67376" lon="-1.43984"><ele>83.5</ele></trkpt><trkpt lat="49.67341" lon="-1.43932"><ele>84.73</ele></trkpt><trkpt lat="49.67329" lon="-1.43915"><ele>85.08</ele></trkpt><trkpt lat="49.67327" lon="-1.43909"><ele>85.07</ele></trkpt><trkpt lat="49.67326" lon="-1.43907"><ele>85.05</ele></trkpt><trkpt lat="49.67324" lon="-1.43902"><ele>84.96</ele></trkpt><trkpt lat="49.67304" lon="-1.43876"><ele>84.6</ele></trkpt><trkpt lat="49.67291" lon="-1.43857"><ele>84.24</ele></trkpt><trkpt lat="49.6729" lon="-1.43856"><ele>84.2</ele></trkpt><trkpt lat="49.67276" lon="-1.43842"><ele>84.08</ele></trkpt><trkpt lat="49.67274" lon="-1.43841"><ele>83.96</ele></trkpt><trkpt lat="49.67249" lon="-1.43819"><ele>82.13</ele></trkpt><trkpt lat="49.67246" lon="-1.43816"><ele>82.03</ele></trkpt><trkpt lat="49.67244" lon="-1.43815"><ele>81.79</ele></trkpt><trkpt lat="49.67232" lon="-1.43802"><ele>81.33</ele></trkpt><trkpt lat="49.67224" lon="-1.43789"><ele>80.86</ele></trkpt><trkpt lat="49.67221" lon="-1.43784"><ele>80.54</ele></trkpt><trkpt lat="49.67218" lon="-1.43778"><ele>80.09</ele></trkpt><trkpt lat="49.67208" lon="-1.43755"><ele>79.47</ele></trkpt><trkpt lat="49.67198" lon="-1.43733"><ele>78.94</ele></trkpt><trkpt lat="49.67194" lon="-1.43712"><ele>78.43</ele></trkpt><trkpt lat="49.67235" lon="-1.43706"><ele>78.38</ele></trkpt><trkpt lat="49.67271" lon="-1.43702"><ele>79.15</ele></trkpt><trkpt lat="49.67293" lon="-1.43699"><ele>80.05</ele></trkpt><trkpt lat="49.673" lon="-1.43699"><ele>80.1</ele></trkpt><trkpt lat="49.67306" lon="-1.43699"><ele>80.11</ele></trkpt><trkpt lat="49.67322" lon="-1.43698"><ele>80.03</ele></trkpt><trkpt lat="49.67324" lon="-1.43698"><ele>80</ele></trkpt><trkpt lat="49.67342" lon="-1.43697"><ele>79.5</ele></trkpt><trkpt lat="49.67378" lon="-1.43696"><ele>77.86</ele></trkpt><trkpt lat="49.67432" lon="-1.43694"><ele>73.1</ele></trkpt><trkpt lat="49.6745" lon="-1.43693"><ele>71.03</ele></trkpt><trkpt lat="49.67466" lon="-1.43692"><ele>69.54</ele></trkpt><trkpt lat="49.67468" lon="-1.43692"><ele>69.54</ele></trkpt><trkpt lat="49.67504" lon="-1.43688"><ele>65.76</ele></trkpt><trkpt lat="49.67526" lon="-1.43685"><ele>63.64</ele></trkpt><trkpt lat="49.67544" lon="-1.43683"><ele>61.11</ele></trkpt><trkpt lat="49.67559" lon="-1.43681"><ele>59.39</ele></trkpt><trkpt lat="49.67562" lon="-1.4368"><ele>58.7</ele></trkpt><trkpt lat="49.67586" lon="-1.43674"><ele>56.12</ele></trkpt><trkpt lat="49.67597" lon="-1.43671"><ele>55.07</ele></trkpt><trkpt lat="49.67632" lon="-1.4366"><ele>50.66</ele></trkpt><trkpt lat="49.67635" lon="-1.43659"><ele>50.44</ele></trkpt><trkpt lat="49.6765" lon="-1.43655"><ele>49.33</ele></trkpt><trkpt lat="49.67663" lon="-1.43651"><ele>48.46</ele></trkpt><trkpt lat="49.67668" lon="-1.4365"><ele>48.09</ele></trkpt><trkpt lat="49.67673" lon="-1.4365"><ele>47.84</ele></trkpt><trkpt lat="49.67676" lon="-1.43651"><ele>47.79</ele></trkpt><trkpt lat="49.67677" lon="-1.43654"><ele>47.79</ele></trkpt><trkpt lat="49.67678" lon="-1.43657"><ele>47.9</ele></trkpt><trkpt lat="49.6768" lon="-1.43665"><ele>47.21</ele></trkpt><trkpt lat="49.67684" lon="-1.43686"><ele>45.92</ele></trkpt><trkpt lat="49.67687" lon="-1.43705"><ele>44.02</ele></trkpt><trkpt lat="49.67688" lon="-1.43711"><ele>42.74</ele></trkpt><trkpt lat="49.67691" lon="-1.43714"><ele>42.74</ele></trkpt><trkpt lat="49.67692" lon="-1.43714"><ele>42.74</ele></trkpt><trkpt lat="49.67694" lon="-1.43714"><ele>42.74</ele></trkpt><trkpt lat="49.67699" lon="-1.43714"><ele>42.46</ele></trkpt><trkpt lat="49.67742" lon="-1.43708"><ele>39.6</ele></trkpt><trkpt lat="49.67745" lon="-1.43708"><ele>39.01</ele></trkpt><trkpt lat="49.67746" lon="-1.43708"><ele>39.01</ele></trkpt><trkpt lat="49.67764" lon="-1.43705"><ele>37.74</ele></trkpt><trkpt lat="49.678" lon="-1.437"><ele>34.93</ele></trkpt><trkpt lat="49.67818" lon="-1.43697"><ele>34.45</ele></trkpt><trkpt lat="49.6783" lon="-1.43696"><ele>33.5</ele></trkpt><trkpt lat="49.67836" lon="-1.43695"><ele>33.24</ele></trkpt><trkpt lat="49.67843" lon="-1.43695"><ele>32.61</ele></trkpt><trkpt lat="49.67847" lon="-1.43695"><ele>32.12</ele></trkpt><trkpt lat="49.67854" lon="-1.43695"><ele>31.63</ele></trkpt><trkpt lat="49.67866" lon="-1.43695"><ele>30.89</ele></trkpt><trkpt lat="49.67872" lon="-1.43695"><ele>29.33</ele></trkpt><trkpt lat="49.6789" lon="-1.43697"><ele>27.79</ele></trkpt><trkpt lat="49.67901" lon="-1.437"><ele>27.29</ele></trkpt><trkpt lat="49.67907" lon="-1.43701"><ele>27.65</ele></trkpt><trkpt lat="49.67914" lon="-1.43703"><ele>27.73</ele></trkpt><trkpt lat="49.67921" lon="-1.43705"><ele>28.04</ele></trkpt><trkpt lat="49.6793" lon="-1.43711"><ele>28.39</ele></trkpt><trkpt lat="49.67942" lon="-1.43718"><ele>31.21</ele></trkpt><trkpt lat="49.67951" lon="-1.4374"><ele>30.86</ele></trkpt><trkpt lat="49.67952" lon="-1.43761"><ele>31.2</ele></trkpt><trkpt lat="49.67952" lon="-1.4378"><ele>29.98</ele></trkpt><trkpt lat="49.67955" lon="-1.43816"><ele>27.11</ele></trkpt><trkpt lat="49.67957" lon="-1.43832"><ele>25.09</ele></trkpt><trkpt lat="49.67959" lon="-1.43844"><ele>25.32</ele></trkpt><trkpt lat="49.67967" lon="-1.43898"><ele>23.57</ele></trkpt><trkpt lat="49.67968" lon="-1.43906"><ele>23.11</ele></trkpt><trkpt lat="49.67976" lon="-1.43963"><ele>23.08</ele></trkpt><trkpt lat="49.67987" lon="-1.44011"><ele>21.8</ele></trkpt><trkpt lat="49.68" lon="-1.44043"><ele>20.8</ele></trkpt><trkpt lat="49.68018" lon="-1.44066"><ele>21.66</ele></trkpt><trkpt lat="49.68024" lon="-1.44071"><ele>21.03</ele></trkpt><trkpt lat="49.6804" lon="-1.44083"><ele>18.55</ele></trkpt><trkpt lat="49.68042" lon="-1.44084"><ele>17.72</ele></trkpt><trkpt lat="49.68062" lon="-1.4409"><ele>17.96</ele></trkpt><trkpt lat="49.68065" lon="-1.44091"><ele>18.01</ele></trkpt><trkpt lat="49.68108" lon="-1.44129"><ele>18.93</ele></trkpt><trkpt lat="49.6813" lon="-1.44168"><ele>17.47</ele></trkpt><trkpt lat="49.68135" lon="-1.44182"><ele>16.37</ele></trkpt><trkpt lat="49.68138" lon="-1.4419"><ele>16.34</ele></trkpt><trkpt lat="49.68141" lon="-1.44198"><ele>15.34</ele></trkpt><trkpt lat="49.68159" lon="-1.44235"><ele>13.7</ele></trkpt><trkpt lat="49.68182" lon="-1.44248"><ele>19.64</ele></trkpt><trkpt lat="49.68212" lon="-1.44247"><ele>25.13</ele></trkpt><trkpt lat="49.68227" lon="-1.4424"><ele>27.7</ele></trkpt><trkpt lat="49.68237" lon="-1.44236"><ele>30.09</ele></trkpt><trkpt lat="49.68244" lon="-1.4423"><ele>30.89</ele></trkpt><trkpt lat="49.68256" lon="-1.44221"><ele>32.36</ele></trkpt><trkpt lat="49.6826" lon="-1.44218"><ele>31.9</ele></trkpt><trkpt lat="49.68276" lon="-1.44206"><ele>31.26</ele></trkpt><trkpt lat="49.68293" lon="-1.44194"><ele>32.84</ele></trkpt><trkpt lat="49.68303" lon="-1.44185"><ele>33.31</ele></trkpt><trkpt lat="49.68309" lon="-1.44183"><ele>33.35</ele></trkpt><trkpt lat="49.68325" lon="-1.44174"><ele>32.31</ele></trkpt><trkpt lat="49.68332" lon="-1.44172"><ele>31.66</ele></trkpt><trkpt lat="49.68379" lon="-1.44156"><ele>28.7</ele></trkpt><trkpt lat="49.68382" lon="-1.44155"><ele>28.7</ele></trkpt><trkpt lat="49.68389" lon="-1.44153"><ele>28.8</ele></trkpt><trkpt lat="49.68397" lon="-1.44151"><ele>28.99</ele></trkpt><trkpt lat="49.68411" lon="-1.44148"><ele>28.98</ele></trkpt><trkpt lat="49.68414" lon="-1.44147"><ele>29.04</ele></trkpt><trkpt lat="49.68432" lon="-1.44143"><ele>29.31</ele></trkpt><trkpt lat="49.68442" lon="-1.4414"><ele>29.46</ele></trkpt><trkpt lat="49.6845" lon="-1.44138"><ele>29.76</ele></trkpt><trkpt lat="49.68458" lon="-1.44137"><ele>30.26</ele></trkpt><trkpt lat="49.68467" lon="-1.44135"><ele>30.82</ele></trkpt><trkpt lat="49.68468" lon="-1.44134"><ele>30.82</ele></trkpt><trkpt lat="49.68472" lon="-1.44132"><ele>31.2</ele></trkpt><trkpt lat="49.68474" lon="-1.44131"><ele>31.63</ele></trkpt><trkpt lat="49.68483" lon="-1.44119"><ele>32.69</ele></trkpt><trkpt lat="49.68496" lon="-1.44101"><ele>34.65</ele></trkpt><trkpt lat="49.68509" lon="-1.44082"><ele>36.14</ele></trkpt><trkpt lat="49.68531" lon="-1.44055"><ele>36.54</ele></trkpt><trkpt lat="49.68541" lon="-1.44041"><ele>36.95</ele></trkpt><trkpt lat="49.68544" lon="-1.44037"><ele>36.79</ele></trkpt><trkpt lat="49.68559" lon="-1.44013"><ele>37.03</ele></trkpt><trkpt lat="49.68573" lon="-1.43994"><ele>37.16</ele></trkpt><trkpt lat="49.6858" lon="-1.43983"><ele>36.86</ele></trkpt><trkpt lat="49.68588" lon="-1.43994"><ele>36.75</ele></trkpt><trkpt lat="49.686" lon="-1.43972"><ele>36.39</ele></trkpt><trkpt lat="49.68616" lon="-1.43944"><ele>35.05</ele></trkpt><trkpt lat="49.68619" lon="-1.43938"><ele>34.5</ele></trkpt><trkpt lat="49.68623" lon="-1.4393"><ele>34.1</ele></trkpt><trkpt lat="49.68636" lon="-1.43905"><ele>33.13</ele></trkpt><trkpt lat="49.6866" lon="-1.43872"><ele>31.01</ele></trkpt><trkpt lat="49.6866" lon="-1.43871"><ele>31.01</ele></trkpt><trkpt lat="49.68678" lon="-1.43847"><ele>29.9</ele></trkpt><trkpt lat="49.68686" lon="-1.43838"><ele>29.4</ele></trkpt><trkpt lat="49.68688" lon="-1.43836"><ele>29.84</ele></trkpt><trkpt lat="49.68693" lon="-1.43831"><ele>29.05</ele></trkpt><trkpt lat="49.68703" lon="-1.43825"><ele>28.54</ele></trkpt><trkpt lat="49.68719" lon="-1.4382"><ele>28.05</ele></trkpt><trkpt lat="49.6874" lon="-1.43817"><ele>27.24</ele></trkpt><trkpt lat="49.68745" lon="-1.43816"><ele>26.98</ele></trkpt><trkpt lat="49.68758" lon="-1.43817"><ele>26.58</ele></trkpt><trkpt lat="49.68767" lon="-1.43818"><ele>26.39</ele></trkpt><trkpt lat="49.68776" lon="-1.4382"><ele>26.16</ele></trkpt><trkpt lat="49.68792" lon="-1.43825"><ele>25.86</ele></trkpt><trkpt lat="49.68798" lon="-1.43828"><ele>25.88</ele></trkpt><trkpt lat="49.68803" lon="-1.43834"><ele>25.74</ele></trkpt><trkpt lat="49.68808" lon="-1.43839"><ele>25.74</ele></trkpt><trkpt lat="49.68812" lon="-1.43842"><ele>25.77</ele></trkpt><trkpt lat="49.68822" lon="-1.43844"><ele>25.95</ele></trkpt><trkpt lat="49.68835" lon="-1.43844"><ele>25.7</ele></trkpt><trkpt lat="49.68844" lon="-1.43844"><ele>25.49</ele></trkpt><trkpt lat="49.68849" lon="-1.43842"><ele>25.36</ele></trkpt><trkpt lat="49.68855" lon="-1.43841"><ele>24.91</ele></trkpt><trkpt lat="49.6887" lon="-1.43834"><ele>24.42</ele></trkpt><trkpt lat="49.6888" lon="-1.43829"><ele>24.22</ele></trkpt><trkpt lat="49.68888" lon="-1.43822"><ele>24.04</ele></trkpt><trkpt lat="49.68893" lon="-1.43812"><ele>23.75</ele></trkpt><trkpt lat="49.6891" lon="-1.43777"><ele>23.13</ele></trkpt><trkpt lat="49.68914" lon="-1.43768"><ele>23.19</ele></trkpt><trkpt lat="49.68925" lon="-1.4375"><ele>23.33</ele></trkpt><trkpt lat="49.68932" lon="-1.43741"><ele>23.46</ele></trkpt><trkpt lat="49.68945" lon="-1.43732"><ele>23.61</ele></trkpt><trkpt lat="49.68952" lon="-1.43729"><ele>23.55</ele></trkpt><trkpt lat="49.68973" lon="-1.4372"><ele>23.52</ele></trkpt><trkpt lat="49.68974" lon="-1.4372"><ele>23.52</ele></trkpt><trkpt lat="49.68982" lon="-1.43718"><ele>23.04</ele></trkpt><trkpt lat="49.6899" lon="-1.43717"><ele>22.65</ele></trkpt><trkpt lat="49.68993" lon="-1.43719"><ele>22.45</ele></trkpt><trkpt lat="49.69012" lon="-1.43729"><ele>21.95</ele></trkpt><trkpt lat="49.69023" lon="-1.43734"><ele>21.5</ele></trkpt><trkpt lat="49.6903" lon="-1.43741"><ele>21.53</ele></trkpt><trkpt lat="49.69036" lon="-1.43752"><ele>21.27</ele></trkpt><trkpt lat="49.69043" lon="-1.43768"><ele>20.92</ele></trkpt><trkpt lat="49.69046" lon="-1.43775"><ele>20.75</ele></trkpt><trkpt lat="49.69052" lon="-1.43788"><ele>20.49</ele></trkpt><trkpt lat="49.69063" lon="-1.43806"><ele>20.18</ele></trkpt><trkpt lat="49.69087" lon="-1.43831"><ele>18.97</ele></trkpt><trkpt lat="49.69096" lon="-1.4384"><ele>18.64</ele></trkpt><trkpt lat="49.69113" lon="-1.43858"><ele>18.26</ele></trkpt><trkpt lat="49.69126" lon="-1.43871"><ele>18.04</ele></trkpt><trkpt lat="49.69168" lon="-1.43919"><ele>16.38</ele></trkpt><trkpt lat="49.6918" lon="-1.4393"><ele>15.96</ele></trkpt><trkpt lat="49.69175" lon="-1.43945"><ele>15.87</ele></trkpt><trkpt lat="49.69169" lon="-1.43963"><ele>15.91</ele></trkpt><trkpt lat="49.69166" lon="-1.43978"><ele>16.12</ele></trkpt><trkpt lat="49.69166" lon="-1.4399"><ele>16.34</ele></trkpt><trkpt lat="49.69166" lon="-1.43994"><ele>16.57</ele></trkpt><trkpt lat="49.69169" lon="-1.44014"><ele>16.28</ele></trkpt><trkpt lat="49.6917" lon="-1.44016"><ele>16.41</ele></trkpt><trkpt lat="49.6917" lon="-1.4402"><ele>16.51</ele></trkpt><trkpt lat="49.69173" lon="-1.44035"><ele>16.2</ele></trkpt><trkpt lat="49.69177" lon="-1.4406"><ele>15.99</ele></trkpt><trkpt lat="49.6918" lon="-1.44088"><ele>16.16</ele></trkpt><trkpt lat="49.69181" lon="-1.44112"><ele>15.47</ele></trkpt><trkpt lat="49.69181" lon="-1.44122"><ele>15.44</ele></trkpt><trkpt lat="49.69181" lon="-1.44133"><ele>15.46</ele></trkpt><trkpt lat="49.69184" lon="-1.44156"><ele>15.47</ele></trkpt><trkpt lat="49.69185" lon="-1.44173"><ele>15.18</ele></trkpt><trkpt lat="49.69185" lon="-1.44175"><ele>15.19</ele></trkpt><trkpt lat="49.69188" lon="-1.44193"><ele>15.32</ele></trkpt><trkpt lat="49.69188" lon="-1.442"><ele>15.37</ele></trkpt><trkpt lat="49.69191" lon="-1.44219"><ele>15.18</ele></trkpt><trkpt lat="49.69196" lon="-1.44241"><ele>15.16</ele></trkpt><trkpt lat="49.69199" lon="-1.4425"><ele>14.88</ele></trkpt><trkpt lat="49.69205" lon="-1.44269"><ele>14.95</ele></trkpt><trkpt lat="49.69208" lon="-1.44277"><ele>14.47</ele></trkpt><trkpt lat="49.69212" lon="-1.44288"><ele>14.19</ele></trkpt><trkpt lat="49.69217" lon="-1.44301"><ele>13.92</ele></trkpt><trkpt lat="49.69232" lon="-1.4434"><ele>13.34</ele></trkpt><trkpt lat="49.69233" lon="-1.44346"><ele>12.78</ele></trkpt><trkpt lat="49.69233" lon="-1.4435"><ele>12.78</ele></trkpt><trkpt lat="49.69227" lon="-1.44365"><ele>12.77</ele></trkpt><trkpt lat="49.6922" lon="-1.44378"><ele>12.68</ele></trkpt><trkpt lat="49.69212" lon="-1.4439"><ele>12.37</ele></trkpt><trkpt lat="49.69216" lon="-1.44395"><ele>12.21</ele></trkpt><trkpt lat="49.69227" lon="-1.44412"><ele>12.06</ele></trkpt><trkpt lat="49.69248" lon="-1.44454"><ele>11.32</ele></trkpt><trkpt lat="49.69248" lon="-1.44456"><ele>11.32</ele></trkpt><trkpt lat="49.69254" lon="-1.44464"><ele>10.51</ele></trkpt><trkpt lat="49.69261" lon="-1.44472"><ele>9.74</ele></trkpt><trkpt lat="49.69267" lon="-1.44478"><ele>9.01</ele></trkpt><trkpt lat="49.69272" lon="-1.44483"><ele>8.76</ele></trkpt><trkpt lat="49.69275" lon="-1.44486"><ele>8.6</ele></trkpt><trkpt lat="49.69276" lon="-1.44488"><ele>7.69</ele></trkpt><trkpt lat="49.69279" lon="-1.4449"><ele>7.69</ele></trkpt><trkpt lat="49.69276" lon="-1.44508"><ele>8.32</ele></trkpt><trkpt lat="49.69279" lon="-1.44536"><ele>7.98</ele></trkpt><trkpt lat="49.69288" lon="-1.44562"><ele>6.47</ele></trkpt><trkpt lat="49.69293" lon="-1.44584"><ele>6.23</ele></trkpt><trkpt lat="49.69298" lon="-1.44604"><ele>5.82</ele></trkpt><trkpt lat="49.69304" lon="-1.44624"><ele>4.75</ele></trkpt><trkpt lat="49.69307" lon="-1.44634"><ele>3.25</ele></trkpt><trkpt lat="49.69305" lon="-1.44639"><ele>3.2</ele></trkpt><trkpt lat="49.69314" lon="-1.44647"><ele>3.79</ele></trkpt><trkpt lat="49.69323" lon="-1.44658"><ele>4.38</ele></trkpt><trkpt lat="49.69322" lon="-1.44666"><ele>4.07</ele></trkpt><trkpt lat="49.693" lon="-1.44714"><ele>4.46</ele></trkpt><trkpt lat="49.6928" lon="-1.44744"><ele>4.84</ele></trkpt><trkpt lat="49.6924" lon="-1.4481"><ele>4.04</ele></trkpt><trkpt lat="49.69238" lon="-1.44814"><ele>4.21</ele></trkpt><trkpt lat="49.69227" lon="-1.44836"><ele>4.73</ele></trkpt><trkpt lat="49.69219" lon="-1.44854"><ele>4.28</ele></trkpt><trkpt lat="49.69213" lon="-1.44883"><ele>5.03</ele></trkpt><trkpt lat="49.69208" lon="-1.44903"><ele>5.1</ele></trkpt><trkpt lat="49.69188" lon="-1.4496"><ele>4.48</ele></trkpt><trkpt lat="49.69186" lon="-1.44967"><ele>4.51</ele></trkpt><trkpt lat="49.69176" lon="-1.45001"><ele>4.34</ele></trkpt><trkpt lat="49.69155" lon="-1.45083"><ele>4.55</ele></trkpt><trkpt lat="49.69151" lon="-1.45098"><ele>4.54</ele></trkpt><trkpt lat="49.69142" lon="-1.45133"><ele>4.87</ele></trkpt><trkpt lat="49.69135" lon="-1.45161"><ele>4.42</ele></trkpt><trkpt lat="49.6912" lon="-1.45223"><ele>3.86</ele></trkpt><trkpt lat="49.69114" lon="-1.45241"><ele>4.09</ele></trkpt><trkpt lat="49.69109" lon="-1.45251"><ele>3.73</ele></trkpt><trkpt lat="49.69103" lon="-1.45258"><ele>3.64</ele></trkpt><trkpt lat="49.691" lon="-1.4529"><ele>3.97</ele></trkpt><trkpt lat="49.69096" lon="-1.45336"><ele>4.03</ele></trkpt><trkpt lat="49.69095" lon="-1.45349"><ele>4.18</ele></trkpt><trkpt lat="49.69094" lon="-1.45368"><ele>4.42</ele></trkpt><trkpt lat="49.69093" lon="-1.45382"><ele>4.32</ele></trkpt><trkpt lat="49.69093" lon="-1.4541"><ele>4.56</ele></trkpt><trkpt lat="49.69093" lon="-1.45434"><ele>4.3</ele></trkpt><trkpt lat="49.69093" lon="-1.45458"><ele>4.73</ele></trkpt><trkpt lat="49.69093" lon="-1.45465"><ele>4.8</ele></trkpt><trkpt lat="49.69095" lon="-1.45475"><ele>5</ele></trkpt><trkpt lat="49.69112" lon="-1.45543"><ele>5.36</ele></trkpt><trkpt lat="49.69124" lon="-1.45595"><ele>6.19</ele></trkpt><trkpt lat="49.69135" lon="-1.45641"><ele>7.39</ele></trkpt><trkpt lat="49.69136" lon="-1.45645"><ele>7.81</ele></trkpt><trkpt lat="49.6914" lon="-1.45668"><ele>8.34</ele></trkpt><trkpt lat="49.69145" lon="-1.45686"><ele>9.53</ele></trkpt><trkpt lat="49.69149" lon="-1.45694"><ele>9.78</ele></trkpt><trkpt lat="49.69159" lon="-1.45716"><ele>10.95</ele></trkpt><trkpt lat="49.69159" lon="-1.45719"><ele>10.95</ele></trkpt><trkpt lat="49.6916" lon="-1.4572"><ele>10.79</ele></trkpt><trkpt lat="49.69166" lon="-1.45731"><ele>11.2</ele></trkpt><trkpt lat="49.69166" lon="-1.45734"><ele>11.47</ele></trkpt><trkpt lat="49.69168" lon="-1.45741"><ele>11.9</ele></trkpt><trkpt lat="49.69168" lon="-1.45744"><ele>11.9</ele></trkpt><trkpt lat="49.69168" lon="-1.45755"><ele>12.13</ele></trkpt><trkpt lat="49.69165" lon="-1.45768"><ele>12.26</ele></trkpt><trkpt lat="49.69174" lon="-1.45776"><ele>12.27</ele></trkpt><trkpt lat="49.69197" lon="-1.45793"><ele>13.2</ele></trkpt><trkpt lat="49.692" lon="-1.45795"><ele>13.33</ele></trkpt><trkpt lat="49.69214" lon="-1.45801"><ele>14.12</ele></trkpt><trkpt lat="49.69228" lon="-1.45806"><ele>14.38</ele></trkpt><trkpt lat="49.69231" lon="-1.4581"><ele>14.41</ele></trkpt><trkpt lat="49.69235" lon="-1.45816"><ele>13.8</ele></trkpt><trkpt lat="49.69242" lon="-1.45831"><ele>12.66</ele></trkpt><trkpt lat="49.69254" lon="-1.45852"><ele>10.11</ele></trkpt><trkpt lat="49.69255" lon="-1.45859"><ele>9.49</ele></trkpt><trkpt lat="49.69256" lon="-1.45867"><ele>9.09</ele></trkpt><trkpt lat="49.69255" lon="-1.45875"><ele>8.25</ele></trkpt><trkpt lat="49.69254" lon="-1.4588"><ele>8.01</ele></trkpt><trkpt lat="49.69253" lon="-1.45886"><ele>7.77</ele></trkpt><trkpt lat="49.69249" lon="-1.45898"><ele>7.1</ele></trkpt><trkpt lat="49.69247" lon="-1.45905"><ele>6.89</ele></trkpt><trkpt lat="49.6924" lon="-1.45926"><ele>6.37</ele></trkpt><trkpt lat="49.69239" lon="-1.4593"><ele>6.33</ele></trkpt><trkpt lat="49.69238" lon="-1.45933"><ele>6.33</ele></trkpt><trkpt lat="49.69236" lon="-1.45943"><ele>6.23</ele></trkpt><trkpt lat="49.6923" lon="-1.45968"><ele>6.09</ele></trkpt><trkpt lat="49.69229" lon="-1.45974"><ele>6.13</ele></trkpt><trkpt lat="49.69227" lon="-1.4601"><ele>5.91</ele></trkpt><trkpt lat="49.69228" lon="-1.4602"><ele>5.92</ele></trkpt><trkpt lat="49.69228" lon="-1.46022"><ele>5.92</ele></trkpt><trkpt lat="49.69228" lon="-1.46027"><ele>5.93</ele></trkpt><trkpt lat="49.69231" lon="-1.46042"><ele>5.69</ele></trkpt><trkpt lat="49.69234" lon="-1.46048"><ele>5.81</ele></trkpt><trkpt lat="49.6923" lon="-1.46063"><ele>6.55</ele></trkpt><trkpt lat="49.69229" lon="-1.46077"><ele>7.57</ele></trkpt><trkpt lat="49.69229" lon="-1.46082"><ele>7.84</ele></trkpt><trkpt lat="49.69228" lon="-1.46089"><ele>8.22</ele></trkpt><trkpt lat="49.69225" lon="-1.46096"><ele>8.63</ele></trkpt><trkpt lat="49.69218" lon="-1.46102"><ele>9.57</ele></trkpt><trkpt lat="49.69208" lon="-1.46109"><ele>9.46</ele></trkpt><trkpt lat="49.69201" lon="-1.46112"><ele>9.77</ele></trkpt><trkpt lat="49.69192" lon="-1.46115"><ele>10.6</ele></trkpt><trkpt lat="49.69185" lon="-1.46117"><ele>10.57</ele></trkpt><trkpt lat="49.69184" lon="-1.46118"><ele>10.55</ele></trkpt><trkpt lat="49.69181" lon="-1.46121"><ele>11.76</ele></trkpt><trkpt lat="49.69181" lon="-1.4612"><ele>11.76</ele></trkpt><trkpt lat="49.69179" lon="-1.46122"><ele>11</ele></trkpt><trkpt lat="49.69176" lon="-1.4613"><ele>11.3</ele></trkpt><trkpt lat="49.69174" lon="-1.46154"><ele>12.7</ele></trkpt><trkpt lat="49.69174" lon="-1.46168"><ele>13.21</ele></trkpt><trkpt lat="49.69174" lon="-1.46173"><ele>13.52</ele></trkpt><trkpt lat="49.69175" lon="-1.46186"><ele>13.96</ele></trkpt><trkpt lat="49.69175" lon="-1.46188"><ele>14.1</ele></trkpt><trkpt lat="49.69178" lon="-1.46209"><ele>15.02</ele></trkpt><trkpt lat="49.6919" lon="-1.46215"><ele>16.88</ele></trkpt><trkpt lat="49.69203" lon="-1.46225"><ele>17.99</ele></trkpt><trkpt lat="49.69212" lon="-1.46233"><ele>18.29</ele></trkpt><trkpt lat="49.69213" lon="-1.46235"><ele>17.21</ele></trkpt><trkpt lat="49.69224" lon="-1.46246"><ele>19.62</ele></trkpt><trkpt lat="49.6924" lon="-1.46262"><ele>18.87</ele></trkpt><trkpt lat="49.69245" lon="-1.46268"><ele>21.22</ele></trkpt><trkpt lat="49.69248" lon="-1.46271"><ele>20.23</ele></trkpt><trkpt lat="49.69254" lon="-1.46278"><ele>21.38</ele></trkpt><trkpt lat="49.69269" lon="-1.46296"><ele>19.84</ele></trkpt><trkpt lat="49.69278" lon="-1.46299"><ele>19.72</ele></trkpt><trkpt lat="49.6928" lon="-1.463"><ele>20.27</ele></trkpt><trkpt lat="49.69295" lon="-1.46311"><ele>19.88</ele></trkpt><trkpt lat="49.69319" lon="-1.46326"><ele>20.27</ele></trkpt><trkpt lat="49.69326" lon="-1.46333"><ele>19.03</ele></trkpt><trkpt lat="49.69331" lon="-1.46337"><ele>19.42</ele></trkpt><trkpt lat="49.69336" lon="-1.46324"><ele>19.11</ele></trkpt><trkpt lat="49.69339" lon="-1.4632"><ele>19.11</ele></trkpt><trkpt lat="49.69344" lon="-1.4632"><ele>18.54</ele></trkpt><trkpt lat="49.69351" lon="-1.46326"><ele>18.53</ele></trkpt><trkpt lat="49.69355" lon="-1.46331"><ele>18.72</ele></trkpt><trkpt lat="49.69359" lon="-1.46335"><ele>19.81</ele></trkpt><trkpt lat="49.69361" lon="-1.46338"><ele>20.37</ele></trkpt><trkpt lat="49.69363" lon="-1.4634"><ele>20.37</ele></trkpt><trkpt lat="49.69368" lon="-1.46348"><ele>19.81</ele></trkpt><trkpt lat="49.6937" lon="-1.46352"><ele>19.53</ele></trkpt><trkpt lat="49.69374" lon="-1.46364"><ele>20.35</ele></trkpt><trkpt lat="49.69375" lon="-1.46372"><ele>20.84</ele></trkpt><trkpt lat="49.69374" lon="-1.46375"><ele>20.84</ele></trkpt><trkpt lat="49.69373" lon="-1.4638"><ele>18.56</ele></trkpt><trkpt lat="49.69375" lon="-1.46382"><ele>19.24</ele></trkpt><trkpt lat="49.69376" lon="-1.46383"><ele>19.24</ele></trkpt><trkpt lat="49.69383" lon="-1.46382"><ele>18.31</ele></trkpt><trkpt lat="49.69398" lon="-1.46376"><ele>17.49</ele></trkpt><trkpt lat="49.6941" lon="-1.46371"><ele>15.05</ele></trkpt><trkpt lat="49.69413" lon="-1.4637"><ele>15.4</ele></trkpt><trkpt lat="49.69426" lon="-1.46367"><ele>16.58</ele></trkpt><trkpt lat="49.69431" lon="-1.46365"><ele>15.81</ele></trkpt><trkpt lat="49.6944" lon="-1.46365"><ele>11.29</ele></trkpt><trkpt lat="49.69438" lon="-1.46371"><ele>12.54</ele></trkpt><trkpt lat="49.69434" lon="-1.46396"><ele>9.45</ele></trkpt><trkpt lat="49.69432" lon="-1.46408"><ele>8.81</ele></trkpt><trkpt lat="49.69428" lon="-1.46413"><ele>9.68</ele></trkpt><trkpt lat="49.69425" lon="-1.4642"><ele>12.21</ele></trkpt><trkpt lat="49.69424" lon="-1.46423"><ele>12.34</ele></trkpt><trkpt lat="49.69424" lon="-1.4643"><ele>12.37</ele></trkpt><trkpt lat="49.69425" lon="-1.46436"><ele>11.88</ele></trkpt><trkpt lat="49.69422" lon="-1.46446"><ele>10.03</ele></trkpt><trkpt lat="49.69422" lon="-1.46447"><ele>10.03</ele></trkpt><trkpt lat="49.69422" lon="-1.46449"><ele>8.49</ele></trkpt><trkpt lat="49.6942" lon="-1.46459"><ele>9.97</ele></trkpt><trkpt lat="49.6942" lon="-1.46461"><ele>9.97</ele></trkpt><trkpt lat="49.69421" lon="-1.46465"><ele>8.04</ele></trkpt><trkpt lat="49.69422" lon="-1.46471"><ele>8.65</ele></trkpt><trkpt lat="49.69429" lon="-1.46478"><ele>8.25</ele></trkpt><trkpt lat="49.6943" lon="-1.46481"><ele>6.32</ele></trkpt><trkpt lat="49.69431" lon="-1.46487"><ele>6.16</ele></trkpt><trkpt lat="49.6943" lon="-1.46496"><ele>6.96</ele></trkpt><trkpt lat="49.6943" lon="-1.46502"><ele>7.65</ele></trkpt><trkpt lat="49.69435" lon="-1.46523"><ele>7</ele></trkpt><trkpt lat="49.69438" lon="-1.46533"><ele>6.62</ele></trkpt><trkpt lat="49.69442" lon="-1.46542"><ele>6.2</ele></trkpt><trkpt lat="49.69443" lon="-1.46546"><ele>5.74</ele></trkpt><trkpt lat="49.69444" lon="-1.4655"><ele>5.52</ele></trkpt><trkpt lat="49.69443" lon="-1.46556"><ele>3.72</ele></trkpt><trkpt lat="49.69438" lon="-1.46574"><ele>4.76</ele></trkpt><trkpt lat="49.69435" lon="-1.46597"><ele>4.14</ele></trkpt><trkpt lat="49.69435" lon="-1.46599"><ele>4.23</ele></trkpt><trkpt lat="49.69435" lon="-1.46601"><ele>4.23</ele></trkpt><trkpt lat="49.69434" lon="-1.46614"><ele>4.36</ele></trkpt><trkpt lat="49.69436" lon="-1.46631"><ele>5.08</ele></trkpt><trkpt lat="49.69445" lon="-1.46681"><ele>5.53</ele></trkpt><trkpt lat="49.69446" lon="-1.46688"><ele>5.62</ele></trkpt><trkpt lat="49.6945" lon="-1.46703"><ele>5.67</ele></trkpt><trkpt lat="49.69452" lon="-1.46706"><ele>5.32</ele></trkpt><trkpt lat="49.6946" lon="-1.46724"><ele>5.47</ele></trkpt><trkpt lat="49.69461" lon="-1.4673"><ele>5.67</ele></trkpt><trkpt lat="49.6946" lon="-1.46734"><ele>5.72</ele></trkpt><trkpt lat="49.69452" lon="-1.46754"><ele>6.51</ele></trkpt><trkpt lat="49.69458" lon="-1.46758"><ele>6.49</ele></trkpt><trkpt lat="49.69464" lon="-1.46761"><ele>6.34</ele></trkpt><trkpt lat="49.69475" lon="-1.4677"><ele>6.98</ele></trkpt><trkpt lat="49.69481" lon="-1.46772"><ele>7.13</ele></trkpt><trkpt lat="49.69485" lon="-1.46778"><ele>7.71</ele></trkpt><trkpt lat="49.6949" lon="-1.46783"><ele>8.22</ele></trkpt><trkpt lat="49.69497" lon="-1.46791"><ele>8.58</ele></trkpt><trkpt lat="49.69514" lon="-1.46806"><ele>7.6</ele></trkpt><trkpt lat="49.69523" lon="-1.46818"><ele>6.76</ele></trkpt><trkpt lat="49.69527" lon="-1.46823"><ele>6.19</ele></trkpt><trkpt lat="49.69532" lon="-1.46845"><ele>6.38</ele></trkpt><trkpt lat="49.69544" lon="-1.4687"><ele>5.52</ele></trkpt><trkpt lat="49.69554" lon="-1.46892"><ele>4.93</ele></trkpt><trkpt lat="49.6956" lon="-1.46904"><ele>5.18</ele></trkpt><trkpt lat="49.69564" lon="-1.46915"><ele>4.81</ele></trkpt><trkpt lat="49.69567" lon="-1.46923"><ele>5.06</ele></trkpt><trkpt lat="49.69576" lon="-1.46934"><ele>5.11</ele></trkpt><trkpt lat="49.69577" lon="-1.46935"><ele>5.11</ele></trkpt><trkpt lat="49.69593" lon="-1.46949"><ele>4.75</ele></trkpt><trkpt lat="49.69606" lon="-1.46967"><ele>4.97</ele></trkpt><trkpt lat="49.69618" lon="-1.46976"><ele>4.98</ele></trkpt><trkpt lat="49.69621" lon="-1.46978"><ele>5.41</ele></trkpt><trkpt lat="49.69646" lon="-1.46993"><ele>4.85</ele></trkpt><trkpt lat="49.69652" lon="-1.47001"><ele>5.21</ele></trkpt><trkpt lat="49.69654" lon="-1.47008"><ele>4.94</ele></trkpt><trkpt lat="49.69654" lon="-1.47009"><ele>4.94</ele></trkpt><trkpt lat="49.69654" lon="-1.47016"><ele>5.01</ele></trkpt><trkpt lat="49.69656" lon="-1.47032"><ele>5.22</ele></trkpt><trkpt lat="49.69655" lon="-1.47058"><ele>5.24</ele></trkpt><trkpt lat="49.69659" lon="-1.471"><ele>5.27</ele></trkpt><trkpt lat="49.69662" lon="-1.47114"><ele>5.02</ele></trkpt><trkpt lat="49.69664" lon="-1.47126"><ele>5.5</ele></trkpt><trkpt lat="49.69665" lon="-1.47129"><ele>5.86</ele></trkpt><trkpt lat="49.69668" lon="-1.4714"><ele>5.68</ele></trkpt><trkpt lat="49.69673" lon="-1.47162"><ele>5.81</ele></trkpt><trkpt lat="49.69676" lon="-1.47165"><ele>5.73</ele></trkpt><trkpt lat="49.6968" lon="-1.47171"><ele>5.48</ele></trkpt><trkpt lat="49.69689" lon="-1.47182"><ele>5.09</ele></trkpt><trkpt lat="49.69689" lon="-1.47183"><ele>5.33</ele></trkpt><trkpt lat="49.6969" lon="-1.47183"><ele>5.33</ele></trkpt><trkpt lat="49.69691" lon="-1.47187"><ele>5.36</ele></trkpt><trkpt lat="49.69691" lon="-1.47205"><ele>5.12</ele></trkpt><trkpt lat="49.6969" lon="-1.47209"><ele>4.96</ele></trkpt><trkpt lat="49.69688" lon="-1.47216"><ele>4.77</ele></trkpt><trkpt lat="49.69688" lon="-1.47224"><ele>4.71</ele></trkpt><trkpt lat="49.69691" lon="-1.47241"><ele>5.58</ele></trkpt><trkpt lat="49.69698" lon="-1.47258"><ele>4.86</ele></trkpt><trkpt lat="49.69697" lon="-1.47263"><ele>4.78</ele></trkpt><trkpt lat="49.69696" lon="-1.47269"><ele>5.51</ele></trkpt><trkpt lat="49.69694" lon="-1.47274"><ele>6.21</ele></trkpt><trkpt lat="49.69696" lon="-1.47285"><ele>6.03</ele></trkpt><trkpt lat="49.69696" lon="-1.47287"><ele>6.03</ele></trkpt><trkpt lat="49.69696" lon="-1.47294"><ele>5.99</ele></trkpt><trkpt lat="49.69693" lon="-1.47299"><ele>5.2</ele></trkpt><trkpt lat="49.69687" lon="-1.47305"><ele>5.52</ele></trkpt><trkpt lat="49.69682" lon="-1.47311"><ele>6.54</ele></trkpt><trkpt lat="49.69677" lon="-1.47314"><ele>6.56</ele></trkpt><trkpt lat="49.69673" lon="-1.47321"><ele>6.7</ele></trkpt><trkpt lat="49.69671" lon="-1.47322"><ele>6.7</ele></trkpt><trkpt lat="49.69661" lon="-1.47342"><ele>6.75</ele></trkpt><trkpt lat="49.69656" lon="-1.47349"><ele>7</ele></trkpt><trkpt lat="49.69648" lon="-1.47362"><ele>7.4</ele></trkpt><trkpt lat="49.69639" lon="-1.47376"><ele>7.89</ele></trkpt><trkpt lat="49.69629" lon="-1.47397"><ele>8.43</ele></trkpt><trkpt lat="49.69625" lon="-1.47404"><ele>8.47</ele></trkpt><trkpt lat="49.69615" lon="-1.4742"><ele>7.9</ele></trkpt><trkpt lat="49.69613" lon="-1.47421"><ele>7.94</ele></trkpt><trkpt lat="49.69608" lon="-1.47427"><ele>7.78</ele></trkpt><trkpt lat="49.69599" lon="-1.47432"><ele>7.49</ele></trkpt><trkpt lat="49.69581" lon="-1.47438"><ele>6.72</ele></trkpt><trkpt lat="49.69577" lon="-1.4744"><ele>5.35</ele></trkpt><trkpt lat="49.69565" lon="-1.47442"><ele>7.38</ele></trkpt><trkpt lat="49.6956" lon="-1.47443"><ele>7.61</ele></trkpt><trkpt lat="49.69542" lon="-1.47446"><ele>6.85</ele></trkpt><trkpt lat="49.69535" lon="-1.47447"><ele>6.92</ele></trkpt><trkpt lat="49.69524" lon="-1.47451"><ele>6.26</ele></trkpt><trkpt lat="49.69523" lon="-1.47451"><ele>6.72</ele></trkpt><trkpt lat="49.69517" lon="-1.47454"><ele>5.7</ele></trkpt><trkpt lat="49.69507" lon="-1.47453"><ele>6.87</ele></trkpt><trkpt lat="49.69498" lon="-1.47453"><ele>7.18</ele></trkpt><trkpt lat="49.69488" lon="-1.47455"><ele>7.55</ele></trkpt><trkpt lat="49.69478" lon="-1.47459"><ele>7.36</ele></trkpt><trkpt lat="49.69471" lon="-1.47462"><ele>6.55</ele></trkpt><trkpt lat="49.69471" lon="-1.47463"><ele>6.55</ele></trkpt><trkpt lat="49.69452" lon="-1.47473"><ele>6.62</ele></trkpt><trkpt lat="49.69436" lon="-1.47484"><ele>5.87</ele></trkpt><trkpt lat="49.69435" lon="-1.47486"><ele>5.87</ele></trkpt><trkpt lat="49.69431" lon="-1.4749"><ele>5.85</ele></trkpt><trkpt lat="49.69428" lon="-1.4749"><ele>6.05</ele></trkpt><trkpt lat="49.69422" lon="-1.47486"><ele>6.88</ele></trkpt><trkpt lat="49.69416" lon="-1.47494"><ele>7.92</ele></trkpt><trkpt lat="49.694" lon="-1.47505"><ele>6.99</ele></trkpt><trkpt lat="49.69386" lon="-1.47517"><ele>8.48</ele></trkpt><trkpt lat="49.69378" lon="-1.47529"><ele>6.59</ele></trkpt><trkpt lat="49.69363" lon="-1.47551"><ele>9.24</ele></trkpt><trkpt lat="49.69361" lon="-1.47555"><ele>8.88</ele></trkpt><trkpt lat="49.69354" lon="-1.47555"><ele>10.2</ele></trkpt><trkpt lat="49.69348" lon="-1.47558"><ele>10.63</ele></trkpt><trkpt lat="49.69338" lon="-1.47569"><ele>11.57</ele></trkpt><trkpt lat="49.69331" lon="-1.47574"><ele>11.86</ele></trkpt><trkpt lat="49.69324" lon="-1.47576"><ele>12.74</ele></trkpt><trkpt lat="49.69311" lon="-1.47576"><ele>13.78</ele></trkpt><trkpt lat="49.69308" lon="-1.47576"><ele>14.12</ele></trkpt><trkpt lat="49.69294" lon="-1.47585"><ele>14.21</ele></trkpt><trkpt lat="49.69291" lon="-1.47587"><ele>14.15</ele></trkpt><trkpt lat="49.6927" lon="-1.47585"><ele>13.63</ele></trkpt><trkpt lat="49.69263" lon="-1.4759"><ele>12.75</ele></trkpt><trkpt lat="49.69257" lon="-1.47591"><ele>11.54</ele></trkpt><trkpt lat="49.69238" lon="-1.47585"><ele>11.22</ele></trkpt><trkpt lat="49.69232" lon="-1.47585"><ele>10.71</ele></trkpt><trkpt lat="49.69219" lon="-1.47585"><ele>10.19</ele></trkpt><trkpt lat="49.69211" lon="-1.47584"><ele>10.1</ele></trkpt><trkpt lat="49.69204" lon="-1.47584"><ele>10.37</ele></trkpt><trkpt lat="49.69198" lon="-1.47583"><ele>10.42</ele></trkpt><trkpt lat="49.69187" lon="-1.4758"><ele>10.27</ele></trkpt><trkpt lat="49.69178" lon="-1.47578"><ele>9.08</ele></trkpt><trkpt lat="49.69173" lon="-1.47578"><ele>8.72</ele></trkpt><trkpt lat="49.69155" lon="-1.47585"><ele>8.83</ele></trkpt><trkpt lat="49.69146" lon="-1.47587"><ele>7.86</ele></trkpt><trkpt lat="49.69128" lon="-1.47592"><ele>7.39</ele></trkpt><trkpt lat="49.6912" lon="-1.47594"><ele>7.8</ele></trkpt><trkpt lat="49.69115" lon="-1.47597"><ele>8.43</ele></trkpt><trkpt lat="49.69094" lon="-1.47609"><ele>8.46</ele></trkpt><trkpt lat="49.69093" lon="-1.4761"><ele>8.46</ele></trkpt><trkpt lat="49.69086" lon="-1.47618"><ele>8.82</ele></trkpt><trkpt lat="49.69075" lon="-1.47635"><ele>8.24</ele></trkpt><trkpt lat="49.69072" lon="-1.47637"><ele>9.51</ele></trkpt><trkpt lat="49.6907" lon="-1.47639"><ele>8.52</ele></trkpt><trkpt lat="49.69063" lon="-1.47646"><ele>9.49</ele></trkpt><trkpt lat="49.69053" lon="-1.47662"><ele>10.74</ele></trkpt><trkpt lat="49.69049" lon="-1.47686"><ele>12.42</ele></trkpt><trkpt lat="49.69048" lon="-1.47696"><ele>12.03</ele></trkpt><trkpt lat="49.69028" lon="-1.47747"><ele>13.5</ele></trkpt><trkpt lat="49.69023" lon="-1.47758"><ele>12.01</ele></trkpt><trkpt lat="49.69021" lon="-1.4776"><ele>14.01</ele></trkpt><trkpt lat="49.69016" lon="-1.4776"><ele>15.79</ele></trkpt><trkpt lat="49.69014" lon="-1.47762"><ele>13.19</ele></trkpt><trkpt lat="49.69011" lon="-1.47761"><ele>16.03</ele></trkpt><trkpt lat="49.69006" lon="-1.4776"><ele>15.15</ele></trkpt><trkpt lat="49.68998" lon="-1.47757"><ele>15.19</ele></trkpt><trkpt lat="49.68993" lon="-1.47754"><ele>14.18</ele></trkpt><trkpt lat="49.68992" lon="-1.47752"><ele>16.16</ele></trkpt><trkpt lat="49.6899" lon="-1.47748"><ele>15.09</ele></trkpt><trkpt lat="49.68976" lon="-1.47716"><ele>15.75</ele></trkpt><trkpt lat="49.6897" lon="-1.47702"><ele>15.5</ele></trkpt><trkpt lat="49.68963" lon="-1.47689"><ele>15.99</ele></trkpt><trkpt lat="49.68958" lon="-1.47681"><ele>14.9</ele></trkpt><trkpt lat="49.68952" lon="-1.4767"><ele>14.58</ele></trkpt><trkpt lat="49.68945" lon="-1.47663"><ele>14.86</ele></trkpt><trkpt lat="49.68935" lon="-1.47653"><ele>13.51</ele></trkpt><trkpt lat="49.68931" lon="-1.47646"><ele>13.36</ele></trkpt><trkpt lat="49.68924" lon="-1.47636"><ele>14.26</ele></trkpt><trkpt lat="49.68917" lon="-1.47629"><ele>13.19</ele></trkpt><trkpt lat="49.68912" lon="-1.47625"><ele>12.91</ele></trkpt><trkpt lat="49.68904" lon="-1.47607"><ele>12.62</ele></trkpt><trkpt lat="49.68894" lon="-1.476"><ele>11.04</ele></trkpt><trkpt lat="49.68891" lon="-1.47598"><ele>10.85</ele></trkpt><trkpt lat="49.68884" lon="-1.47593"><ele>8.61</ele></trkpt><trkpt lat="49.68878" lon="-1.47577"><ele>8.94</ele></trkpt><trkpt lat="49.68872" lon="-1.47563"><ele>9.29</ele></trkpt><trkpt lat="49.68872" lon="-1.47551"><ele>9.38</ele></trkpt><trkpt lat="49.68873" lon="-1.47536"><ele>8.96</ele></trkpt><trkpt lat="49.68875" lon="-1.47526"><ele>8.24</ele></trkpt><trkpt lat="49.68875" lon="-1.47524"><ele>8.09</ele></trkpt><trkpt lat="49.68875" lon="-1.47516"><ele>7.01</ele></trkpt><trkpt lat="49.68886" lon="-1.4746"><ele>10.85</ele></trkpt><trkpt lat="49.68894" lon="-1.47444"><ele>10.49</ele></trkpt><trkpt lat="49.68904" lon="-1.47426"><ele>9.6</ele></trkpt><trkpt lat="49.68921" lon="-1.474"><ele>8.08</ele></trkpt><trkpt lat="49.68933" lon="-1.47383"><ele>7.86</ele></trkpt><trkpt lat="49.68934" lon="-1.47381"><ele>7.86</ele></trkpt><trkpt lat="49.68936" lon="-1.47378"><ele>7.79</ele></trkpt><trkpt lat="49.68941" lon="-1.47376"><ele>7.83</ele></trkpt><trkpt lat="49.68951" lon="-1.47372"><ele>7.7</ele></trkpt><trkpt lat="49.68952" lon="-1.47371"><ele>7.59</ele></trkpt><trkpt lat="49.68958" lon="-1.47369"><ele>7.78</ele></trkpt><trkpt lat="49.68965" lon="-1.47368"><ele>7.86</ele></trkpt><trkpt lat="49.68968" lon="-1.47368"><ele>7.96</ele></trkpt><trkpt lat="49.68983" lon="-1.4737"><ele>8.25</ele></trkpt><trkpt lat="49.68985" lon="-1.4737"><ele>8.44</ele></trkpt><trkpt lat="49.68989" lon="-1.47369"><ele>8.79</ele></trkpt><trkpt lat="49.68995" lon="-1.47361"><ele>9.13</ele></trkpt><trkpt lat="49.69014" lon="-1.4734"><ele>9.29</ele></trkpt><trkpt lat="49.69017" lon="-1.47334"><ele>9.24</ele></trkpt><trkpt lat="49.69019" lon="-1.47327"><ele>9.3</ele></trkpt><trkpt lat="49.6902" lon="-1.47317"><ele>9.26</ele></trkpt><trkpt lat="49.69021" lon="-1.47312"><ele>9.26</ele></trkpt><trkpt lat="49.69024" lon="-1.47307"><ele>9.36</ele></trkpt><trkpt lat="49.69027" lon="-1.47304"><ele>9.46</ele></trkpt><trkpt lat="49.69036" lon="-1.47303"><ele>9.71</ele></trkpt><trkpt lat="49.69037" lon="-1.47303"><ele>9.71</ele></trkpt><trkpt lat="49.69052" lon="-1.47303"><ele>10.33</ele></trkpt><trkpt lat="49.69059" lon="-1.47302"><ele>10.33</ele></trkpt><trkpt lat="49.69068" lon="-1.47301"><ele>10.89</ele></trkpt><trkpt lat="49.69072" lon="-1.47297"><ele>11.18</ele></trkpt><trkpt lat="49.69073" lon="-1.4729"><ele>11.33</ele></trkpt><trkpt lat="49.69074" lon="-1.47275"><ele>11.89</ele></trkpt><trkpt lat="49.69075" lon="-1.47268"><ele>11.84</ele></trkpt><trkpt lat="49.69077" lon="-1.47256"><ele>11.73</ele></trkpt><trkpt lat="49.6908" lon="-1.47248"><ele>11.92</ele></trkpt><trkpt lat="49.69081" lon="-1.47243"><ele>11.88</ele></trkpt><trkpt lat="49.69082" lon="-1.47238"><ele>12.18</ele></trkpt><trkpt lat="49.69083" lon="-1.47229"><ele>12.28</ele></trkpt><trkpt lat="49.69084" lon="-1.47219"><ele>12.38</ele></trkpt><trkpt lat="49.69084" lon="-1.47211"><ele>12.45</ele></trkpt><trkpt lat="49.69084" lon="-1.47204"><ele>12.57</ele></trkpt><trkpt lat="49.69081" lon="-1.47199"><ele>12.78</ele></trkpt><trkpt lat="49.69078" lon="-1.47189"><ele>13.05</ele></trkpt><trkpt lat="49.69077" lon="-1.4718"><ele>13.29</ele></trkpt><trkpt lat="49.69077" lon="-1.47171"><ele>13.52</ele></trkpt><trkpt lat="49.69079" lon="-1.47147"><ele>13.3</ele></trkpt><trkpt lat="49.69081" lon="-1.47125"><ele>12.65</ele></trkpt><trkpt lat="49.69081" lon="-1.47115"><ele>12.41</ele></trkpt><trkpt lat="49.69081" lon="-1.47104"><ele>12.32</ele></trkpt><trkpt lat="49.69081" lon="-1.47092"><ele>12.17</ele></trkpt><trkpt lat="49.69083" lon="-1.47082"><ele>12.67</ele></trkpt><trkpt lat="49.69083" lon="-1.4708"><ele>12.67</ele></trkpt><trkpt lat="49.69084" lon="-1.47076"><ele>12.73</ele></trkpt><trkpt lat="49.69084" lon="-1.4707"><ele>13.18</ele></trkpt><trkpt lat="49.69084" lon="-1.47066"><ele>13.59</ele></trkpt><trkpt lat="49.69079" lon="-1.47057"><ele>14.27</ele></trkpt><trkpt lat="49.6907" lon="-1.47033"><ele>15.71</ele></trkpt><trkpt lat="49.69067" lon="-1.47023"><ele>15.88</ele></trkpt><trkpt lat="49.69064" lon="-1.47009"><ele>15.09</ele></trkpt><trkpt lat="49.69064" lon="-1.4699"><ele>14.75</ele></trkpt><trkpt lat="49.69063" lon="-1.46977"><ele>15</ele></trkpt><trkpt lat="49.69062" lon="-1.4697"><ele>15.16</ele></trkpt><trkpt lat="49.69061" lon="-1.46951"><ele>15.72</ele></trkpt><trkpt lat="49.69061" lon="-1.4695"><ele>15.81</ele></trkpt><trkpt lat="49.69062" lon="-1.46933"><ele>16.16</ele></trkpt><trkpt lat="49.69063" lon="-1.46927"><ele>16.28</ele></trkpt><trkpt lat="49.69065" lon="-1.46916"><ele>17.17</ele></trkpt><trkpt lat="49.69068" lon="-1.469"><ele>16.97</ele></trkpt><trkpt lat="49.69071" lon="-1.4689"><ele>17.31</ele></trkpt><trkpt lat="49.69074" lon="-1.4688"><ele>17.96</ele></trkpt><trkpt lat="49.69073" lon="-1.46877"><ele>17.6</ele></trkpt><trkpt lat="49.6907" lon="-1.46868"><ele>17.7</ele></trkpt><trkpt lat="49.69064" lon="-1.46802"><ele>17.54</ele></trkpt><trkpt lat="49.69059" lon="-1.46785"><ele>17.71</ele></trkpt><trkpt lat="49.69053" lon="-1.46776"><ele>17.75</ele></trkpt><trkpt lat="49.69046" lon="-1.46765"><ele>17.46</ele></trkpt><trkpt lat="49.6904" lon="-1.46758"><ele>17.3</ele></trkpt><trkpt lat="49.6903" lon="-1.46745"><ele>16.83</ele></trkpt><trkpt lat="49.68995" lon="-1.46702"><ele>14.69</ele></trkpt><trkpt lat="49.68981" lon="-1.46682"><ele>13.96</ele></trkpt><trkpt lat="49.68978" lon="-1.46677"><ele>13.6</ele></trkpt><trkpt lat="49.6897" lon="-1.46663"><ele>14.09</ele></trkpt><trkpt lat="49.68969" lon="-1.4666"><ele>14.09</ele></trkpt><trkpt lat="49.68961" lon="-1.46648"><ele>14.39</ele></trkpt><trkpt lat="49.68957" lon="-1.46643"><ele>14.47</ele></trkpt><trkpt lat="49.68957" lon="-1.46642"><ele>14.47</ele></trkpt><trkpt lat="49.6895" lon="-1.46631"><ele>14.56</ele></trkpt><trkpt lat="49.68944" lon="-1.46618"><ele>14.71</ele></trkpt><trkpt lat="49.68941" lon="-1.46607"><ele>14.71</ele></trkpt><trkpt lat="49.6894" lon="-1.466"><ele>14.64</ele></trkpt><trkpt lat="49.68932" lon="-1.466"><ele>14.58</ele></trkpt><trkpt lat="49.68928" lon="-1.46589"><ele>14.63</ele></trkpt><trkpt lat="49.68922" lon="-1.46578"><ele>14.71</ele></trkpt><trkpt lat="49.68914" lon="-1.4656"><ele>14.72</ele></trkpt><trkpt lat="49.68898" lon="-1.4654"><ele>14.71</ele></trkpt><trkpt lat="49.68897" lon="-1.46538"><ele>14.81</ele></trkpt><trkpt lat="49.68888" lon="-1.46532"><ele>15.04</ele></trkpt><trkpt lat="49.68876" lon="-1.46527"><ele>15.22</ele></trkpt><trkpt lat="49.68863" lon="-1.46521"><ele>15.62</ele></trkpt><trkpt lat="49.68861" lon="-1.4652"><ele>15.62</ele></trkpt><trkpt lat="49.68847" lon="-1.46514"><ele>16.12</ele></trkpt><trkpt lat="49.68844" lon="-1.46513"><ele>16.32</ele></trkpt><trkpt lat="49.68833" lon="-1.46506"><ele>16.42</ele></trkpt><trkpt lat="49.68821" lon="-1.46498"><ele>16.82</ele></trkpt><trkpt lat="49.68818" lon="-1.46498"><ele>16.93</ele></trkpt><trkpt lat="49.68812" lon="-1.46498"><ele>16.88</ele></trkpt><trkpt lat="49.68802" lon="-1.46502"><ele>16.87</ele></trkpt><trkpt lat="49.688" lon="-1.46504"><ele>16.87</ele></trkpt><trkpt lat="49.68793" lon="-1.46509"><ele>16.73</ele></trkpt><trkpt lat="49.68783" lon="-1.46523"><ele>16.67</ele></trkpt><trkpt lat="49.68775" lon="-1.46534"><ele>16.81</ele></trkpt><trkpt lat="49.68759" lon="-1.4651"><ele>17.96</ele></trkpt><trkpt lat="49.68757" lon="-1.46506"><ele>18.09</ele></trkpt><trkpt lat="49.68746" lon="-1.46486"><ele>19</ele></trkpt><trkpt lat="49.6874" lon="-1.46471"><ele>19.28</ele></trkpt><trkpt lat="49.68725" lon="-1.46426"><ele>19.76</ele></trkpt><trkpt lat="49.68723" lon="-1.46422"><ele>19.59</ele></trkpt><trkpt lat="49.68719" lon="-1.46409"><ele>19.63</ele></trkpt><trkpt lat="49.68715" lon="-1.46397"><ele>19.5</ele></trkpt><trkpt lat="49.68711" lon="-1.46387"><ele>19.41</ele></trkpt><trkpt lat="49.68707" lon="-1.46384"><ele>19.28</ele></trkpt><trkpt lat="49.68703" lon="-1.46381"><ele>19.24</ele></trkpt><trkpt lat="49.68698" lon="-1.4638"><ele>19.12</ele></trkpt><trkpt lat="49.68688" lon="-1.46378"><ele>18.62</ele></trkpt><trkpt lat="49.68679" lon="-1.46373"><ele>17.99</ele></trkpt><trkpt lat="49.68677" lon="-1.46352"><ele>16.63</ele></trkpt><trkpt lat="49.68675" lon="-1.46307"><ele>16.18</ele></trkpt><trkpt lat="49.68674" lon="-1.46294"><ele>16.1</ele></trkpt><trkpt lat="49.68674" lon="-1.46291"><ele>16.1</ele></trkpt><trkpt lat="49.68671" lon="-1.46281"><ele>16.32</ele></trkpt><trkpt lat="49.68669" lon="-1.46277"><ele>16.18</ele></trkpt><trkpt lat="49.68653" lon="-1.46275"><ele>16.3</ele></trkpt><trkpt lat="49.68646" lon="-1.46274"><ele>16.32</ele></trkpt><trkpt lat="49.68638" lon="-1.46271"><ele>16.28</ele></trkpt><trkpt lat="49.68631" lon="-1.46265"><ele>16.18</ele></trkpt><trkpt lat="49.68605" lon="-1.46238"><ele>16.67</ele></trkpt><trkpt lat="49.68598" lon="-1.46231"><ele>16.79</ele></trkpt><trkpt lat="49.68597" lon="-1.4623"><ele>16.79</ele></trkpt><trkpt lat="49.68591" lon="-1.46223"><ele>17.12</ele></trkpt><trkpt lat="49.68587" lon="-1.46214"><ele>17.01</ele></trkpt><trkpt lat="49.68587" lon="-1.46208"><ele>17.11</ele></trkpt><trkpt lat="49.68587" lon="-1.46197"><ele>17.23</ele></trkpt><trkpt lat="49.68587" lon="-1.46191"><ele>17.5</ele></trkpt><trkpt lat="49.68584" lon="-1.46168"><ele>18.4</ele></trkpt><trkpt lat="49.68584" lon="-1.46162"><ele>18.48</ele></trkpt><trkpt lat="49.68584" lon="-1.46156"><ele>18.97</ele></trkpt><trkpt lat="49.68583" lon="-1.46131"><ele>21.04</ele></trkpt><trkpt lat="49.68564" lon="-1.4613"><ele>23.95</ele></trkpt><trkpt lat="49.68559" lon="-1.46131"><ele>24.28</ele></trkpt><trkpt lat="49.68568" lon="-1.46014"><ele>29.21</ele></trkpt><trkpt lat="49.6851" lon="-1.45983"><ele>36.23</ele></trkpt><trkpt lat="49.68526" lon="-1.45937"><ele>35.95</ele></trkpt><trkpt lat="49.68528" lon="-1.45886"><ele>37.16</ele></trkpt><trkpt lat="49.6854" lon="-1.45861"><ele>35.65</ele></trkpt><trkpt lat="49.68539" lon="-1.45857"><ele>35.92</ele></trkpt><trkpt lat="49.6854" lon="-1.45848"><ele>36.44</ele></trkpt><trkpt lat="49.68543" lon="-1.45835"><ele>37.25</ele></trkpt><trkpt lat="49.68545" lon="-1.45824"><ele>38.17</ele></trkpt><trkpt lat="49.68545" lon="-1.45818"><ele>38.45</ele></trkpt><trkpt lat="49.68545" lon="-1.45812"><ele>38.93</ele></trkpt><trkpt lat="49.68543" lon="-1.45805"><ele>39.09</ele></trkpt><trkpt lat="49.6854" lon="-1.45797"><ele>39.94</ele></trkpt><trkpt lat="49.68537" lon="-1.45792"><ele>40.3</ele></trkpt><trkpt lat="49.68535" lon="-1.45789"><ele>40.59</ele></trkpt><trkpt lat="49.68528" lon="-1.4578"><ele>41.62</ele></trkpt><trkpt lat="49.68522" lon="-1.45774"><ele>42.21</ele></trkpt><trkpt lat="49.68516" lon="-1.45766"><ele>42.81</ele></trkpt><trkpt lat="49.68515" lon="-1.45764"><ele>42.98</ele></trkpt><trkpt lat="49.68514" lon="-1.45762"><ele>42.98</ele></trkpt><trkpt lat="49.68512" lon="-1.45756"><ele>43.32</ele></trkpt><trkpt lat="49.6851" lon="-1.4575"><ele>43.63</ele></trkpt><trkpt lat="49.68508" lon="-1.45739"><ele>43.81</ele></trkpt><trkpt lat="49.68504" lon="-1.4572"><ele>43.8</ele></trkpt><trkpt lat="49.68502" lon="-1.45713"><ele>43.68</ele></trkpt><trkpt lat="49.68483" lon="-1.45649"><ele>42.94</ele></trkpt><trkpt lat="49.68477" lon="-1.4561"><ele>42.14</ele></trkpt><trkpt lat="49.68477" lon="-1.45601"><ele>41.91</ele></trkpt><trkpt lat="49.68479" lon="-1.45594"><ele>41.82</ele></trkpt><trkpt lat="49.68492" lon="-1.45553"><ele>40.76</ele></trkpt><trkpt lat="49.68495" lon="-1.45546"><ele>40.39</ele></trkpt><trkpt lat="49.68497" lon="-1.45541"><ele>40.29</ele></trkpt><trkpt lat="49.68504" lon="-1.45532"><ele>39.32</ele></trkpt><trkpt lat="49.68509" lon="-1.45522"><ele>38.62</ele></trkpt><trkpt lat="49.68509" lon="-1.4552"><ele>38.39</ele></trkpt><trkpt lat="49.68511" lon="-1.45512"><ele>37.93</ele></trkpt><trkpt lat="49.68511" lon="-1.45511"><ele>37.93</ele></trkpt><trkpt lat="49.6851" lon="-1.45507"><ele>37.56</ele></trkpt><trkpt lat="49.68521" lon="-1.45508"><ele>36.79</ele></trkpt><trkpt lat="49.68529" lon="-1.45508"><ele>35.76</ele></trkpt><trkpt lat="49.68533" lon="-1.45509"><ele>35.37</ele></trkpt><trkpt lat="49.68534" lon="-1.45509"><ele>35.37</ele></trkpt><trkpt lat="49.68554" lon="-1.45512"><ele>32.85</ele></trkpt><trkpt lat="49.68569" lon="-1.45522"><ele>31.15</ele></trkpt><trkpt lat="49.68577" lon="-1.45527"><ele>29.86</ele></trkpt><trkpt lat="49.68585" lon="-1.45534"><ele>29.03</ele></trkpt><trkpt lat="49.68589" lon="-1.45537"><ele>28.85</ele></trkpt><trkpt lat="49.686" lon="-1.45549"><ele>29.82</ele></trkpt><trkpt lat="49.68616" lon="-1.45562"><ele>28.55</ele></trkpt><trkpt lat="49.6862" lon="-1.45565"><ele>28.45</ele></trkpt><trkpt lat="49.68629" lon="-1.4557"><ele>27.86</ele></trkpt><trkpt lat="49.68633" lon="-1.4557"><ele>27.41</ele></trkpt><trkpt lat="49.68637" lon="-1.4557"><ele>27.07</ele></trkpt><trkpt lat="49.68651" lon="-1.45567"><ele>25.41</ele></trkpt><trkpt lat="49.68654" lon="-1.45567"><ele>25.08</ele></trkpt><trkpt lat="49.68657" lon="-1.45566"><ele>25.08</ele></trkpt><trkpt lat="49.68665" lon="-1.45565"><ele>24.76</ele></trkpt><trkpt lat="49.68669" lon="-1.45564"><ele>23.88</ele></trkpt><trkpt lat="49.68677" lon="-1.45562"><ele>23.73</ele></trkpt><trkpt lat="49.68687" lon="-1.45559"><ele>23.02</ele></trkpt><trkpt lat="49.68689" lon="-1.45555"><ele>22.85</ele></trkpt><trkpt lat="49.68694" lon="-1.45546"><ele>22.7</ele></trkpt><trkpt lat="49.68709" lon="-1.4552"><ele>21.7</ele></trkpt><trkpt lat="49.68724" lon="-1.45492"><ele>21.1</ele></trkpt><trkpt lat="49.68728" lon="-1.45486"><ele>20.99</ele></trkpt><trkpt lat="49.68734" lon="-1.45479"><ele>21.01</ele></trkpt><trkpt lat="49.68746" lon="-1.45472"><ele>20.55</ele></trkpt><trkpt lat="49.68748" lon="-1.45471"><ele>20.56</ele></trkpt><trkpt lat="49.68751" lon="-1.45468"><ele>19.87</ele></trkpt><trkpt lat="49.68758" lon="-1.4546"><ele>18.68</ele></trkpt><trkpt lat="49.68763" lon="-1.45453"><ele>17.98</ele></trkpt><trkpt lat="49.6877" lon="-1.45437"><ele>15.37</ele></trkpt><trkpt lat="49.6877" lon="-1.45436"><ele>15.37</ele></trkpt><trkpt lat="49.68775" lon="-1.45429"><ele>14.03</ele></trkpt><trkpt lat="49.68783" lon="-1.45416"><ele>11.86</ele></trkpt><trkpt lat="49.68788" lon="-1.4541"><ele>10.47</ele></trkpt><trkpt lat="49.68778" lon="-1.45403"><ele>10.97</ele></trkpt><trkpt lat="49.68763" lon="-1.45401"><ele>9.86</ele></trkpt><trkpt lat="49.68749" lon="-1.45396"><ele>9.47</ele></trkpt><trkpt lat="49.68748" lon="-1.45395"><ele>9.47</ele></trkpt><trkpt lat="49.68745" lon="-1.45393"><ele>9.51</ele></trkpt><trkpt lat="49.68742" lon="-1.45384"><ele>9.22</ele></trkpt><trkpt lat="49.68744" lon="-1.4538"><ele>9.01</ele></trkpt><trkpt lat="49.68744" lon="-1.45376"><ele>9.01</ele></trkpt><trkpt lat="49.68745" lon="-1.45374"><ele>9.12</ele></trkpt><trkpt lat="49.68753" lon="-1.45356"><ele>9.09</ele></trkpt><trkpt lat="49.68755" lon="-1.4535"><ele>9.55</ele></trkpt><trkpt lat="49.68757" lon="-1.45343"><ele>9.59</ele></trkpt><trkpt lat="49.68757" lon="-1.45339"><ele>10.38</ele></trkpt><trkpt lat="49.68755" lon="-1.45332"><ele>13.12</ele></trkpt><trkpt lat="49.68755" lon="-1.45331"><ele>13.12</ele></trkpt><trkpt lat="49.68753" lon="-1.45326"><ele>12.58</ele></trkpt><trkpt lat="49.68745" lon="-1.45304"><ele>13.03</ele></trkpt><trkpt lat="49.68745" lon="-1.45303"><ele>13.03</ele></trkpt><trkpt lat="49.68744" lon="-1.45292"><ele>12.88</ele></trkpt><trkpt lat="49.68745" lon="-1.45253"><ele>13.85</ele></trkpt><trkpt lat="49.68744" lon="-1.45245"><ele>13.8</ele></trkpt><trkpt lat="49.68743" lon="-1.4524"><ele>13.84</ele></trkpt><trkpt lat="49.68724" lon="-1.45166"><ele>14.58</ele></trkpt><trkpt lat="49.68719" lon="-1.45147"><ele>14.77</ele></trkpt><trkpt lat="49.68717" lon="-1.45146"><ele>15.2</ele></trkpt><trkpt lat="49.68715" lon="-1.45144"><ele>15.2</ele></trkpt><trkpt lat="49.68712" lon="-1.45144"><ele>16.46</ele></trkpt><trkpt lat="49.68701" lon="-1.45146"><ele>16.6</ele></trkpt><trkpt lat="49.68685" lon="-1.45152"><ele>16.97</ele></trkpt><trkpt lat="49.68657" lon="-1.45163"><ele>18.62</ele></trkpt><trkpt lat="49.6865" lon="-1.45166"><ele>18.97</ele></trkpt><trkpt lat="49.68647" lon="-1.45168"><ele>18.82</ele></trkpt><trkpt lat="49.68645" lon="-1.45178"><ele>19.42</ele></trkpt><trkpt lat="49.68644" lon="-1.45201"><ele>22.36</ele></trkpt><trkpt lat="49.68643" lon="-1.45213"><ele>22.69</ele></trkpt><trkpt lat="49.68642" lon="-1.45219"><ele>22.92</ele></trkpt><trkpt lat="49.6864" lon="-1.45233"><ele>23.67</ele></trkpt><trkpt lat="49.68638" lon="-1.4524"><ele>24.66</ele></trkpt><trkpt lat="49.68634" lon="-1.45254"><ele>25.58</ele></trkpt><trkpt lat="49.6863" lon="-1.45267"><ele>26.16</ele></trkpt><trkpt lat="49.68625" lon="-1.45278"><ele>26.29</ele></trkpt><trkpt lat="49.68618" lon="-1.45287"><ele>27.48</ele></trkpt><trkpt lat="49.68612" lon="-1.45295"><ele>27.72</ele></trkpt><trkpt lat="49.68611" lon="-1.45296"><ele>27.72</ele></trkpt><trkpt lat="49.68602" lon="-1.45312"><ele>27.98</ele></trkpt><trkpt lat="49.68599" lon="-1.45317"><ele>28.39</ele></trkpt><trkpt lat="49.68597" lon="-1.45321"><ele>28.04</ele></trkpt><trkpt lat="49.68585" lon="-1.45336"><ele>28.56</ele></trkpt><trkpt lat="49.68577" lon="-1.45342"><ele>28.26</ele></trkpt><trkpt lat="49.68572" lon="-1.45347"><ele>28.11</ele></trkpt><trkpt lat="49.6857" lon="-1.45349"><ele>28.91</ele></trkpt><trkpt lat="49.68566" lon="-1.45353"><ele>29.02</ele></trkpt><trkpt lat="49.6856" lon="-1.45358"><ele>29.14</ele></trkpt><trkpt lat="49.68557" lon="-1.45361"><ele>29.31</ele></trkpt><trkpt lat="49.68555" lon="-1.45363"><ele>28.89</ele></trkpt><trkpt lat="49.68545" lon="-1.45374"><ele>30.46</ele></trkpt><trkpt lat="49.68534" lon="-1.45388"><ele>32.09</ele></trkpt><trkpt lat="49.68532" lon="-1.45393"><ele>32.83</ele></trkpt><trkpt lat="49.68528" lon="-1.45401"><ele>34.06</ele></trkpt><trkpt lat="49.68524" lon="-1.45409"><ele>33.19</ele></trkpt><trkpt lat="49.68519" lon="-1.45415"><ele>34.27</ele></trkpt><trkpt lat="49.68518" lon="-1.45417"><ele>34.27</ele></trkpt><trkpt lat="49.68507" lon="-1.45425"><ele>35.64</ele></trkpt><trkpt lat="49.685" lon="-1.45433"><ele>36.62</ele></trkpt><trkpt lat="49.68485" lon="-1.4541"><ele>39.04</ele></trkpt><trkpt lat="49.68485" lon="-1.45402"><ele>39.01</ele></trkpt><trkpt lat="49.68485" lon="-1.45401"><ele>38.98</ele></trkpt><trkpt lat="49.68485" lon="-1.45395"><ele>38.97</ele></trkpt><trkpt lat="49.68484" lon="-1.45389"><ele>38.95</ele></trkpt><trkpt lat="49.68482" lon="-1.45383"><ele>38.75</ele></trkpt><trkpt lat="49.68482" lon="-1.45382"><ele>38.75</ele></trkpt><trkpt lat="49.68473" lon="-1.45359"><ele>39.79</ele></trkpt><trkpt lat="49.68464" lon="-1.45336"><ele>41.16</ele></trkpt><trkpt lat="49.68453" lon="-1.45313"><ele>42.55</ele></trkpt><trkpt lat="49.68449" lon="-1.45303"><ele>43.49</ele></trkpt><trkpt lat="49.68449" lon="-1.45302"><ele>43.45</ele></trkpt><trkpt lat="49.68442" lon="-1.45281"><ele>44.07</ele></trkpt><trkpt lat="49.68441" lon="-1.4529"><ele>44.17</ele></trkpt><trkpt lat="49.68434" lon="-1.45283"><ele>44.42</ele></trkpt><trkpt lat="49.68426" lon="-1.45273"><ele>46.21</ele></trkpt><trkpt lat="49.68424" lon="-1.4527"><ele>46.64</ele></trkpt><trkpt lat="49.68413" lon="-1.45258"><ele>47.08</ele></trkpt><trkpt lat="49.68412" lon="-1.45257"><ele>46.99</ele></trkpt><trkpt lat="49.68406" lon="-1.45251"><ele>47.26</ele></trkpt><trkpt lat="49.68404" lon="-1.45249"><ele>47.26</ele></trkpt><trkpt lat="49.68403" lon="-1.45248"><ele>47.12</ele></trkpt><trkpt lat="49.68403" lon="-1.45249"><ele>47.12</ele></trkpt><trkpt lat="49.68397" lon="-1.45244"><ele>47.34</ele></trkpt><trkpt lat="49.68388" lon="-1.4524"><ele>47.86</ele></trkpt><trkpt lat="49.68385" lon="-1.45239"><ele>47.95</ele></trkpt><trkpt lat="49.68379" lon="-1.45239"><ele>48.01</ele></trkpt><trkpt lat="49.68377" lon="-1.45239"><ele>47.66</ele></trkpt><trkpt lat="49.68371" lon="-1.45237"><ele>48.42</ele></trkpt><trkpt lat="49.68368" lon="-1.45236"><ele>48.76</ele></trkpt><trkpt lat="49.68362" lon="-1.4523"><ele>48.89</ele></trkpt><trkpt lat="49.68358" lon="-1.45225"><ele>49.47</ele></trkpt><trkpt lat="49.68353" lon="-1.45214"><ele>49.76</ele></trkpt><trkpt lat="49.6835" lon="-1.45209"><ele>49.76</ele></trkpt><trkpt lat="49.6834" lon="-1.45194"><ele>50.55</ele></trkpt><trkpt lat="49.68333" lon="-1.45188"><ele>50.56</ele></trkpt><trkpt lat="49.68325" lon="-1.45183"><ele>50.71</ele></trkpt><trkpt lat="49.68315" lon="-1.45173"><ele>51.76</ele></trkpt><trkpt lat="49.68306" lon="-1.45164"><ele>52.42</ele></trkpt><trkpt lat="49.68297" lon="-1.45158"><ele>52.64</ele></trkpt><trkpt lat="49.68294" lon="-1.45155"><ele>52.58</ele></trkpt><trkpt lat="49.6829" lon="-1.45152"><ele>52.78</ele></trkpt><trkpt lat="49.68284" lon="-1.45146"><ele>52.69</ele></trkpt><trkpt lat="49.6828" lon="-1.45137"><ele>52.46</ele></trkpt><trkpt lat="49.6828" lon="-1.45136"><ele>52.46</ele></trkpt><trkpt lat="49.68277" lon="-1.45125"><ele>51.98</ele></trkpt><trkpt lat="49.68266" lon="-1.45087"><ele>49.65</ele></trkpt><trkpt lat="49.68243" lon="-1.45059"><ele>47.77</ele></trkpt><trkpt lat="49.68212" lon="-1.45029"><ele>42.84</ele></trkpt><trkpt lat="49.68205" lon="-1.45018"><ele>40.46</ele></trkpt><trkpt lat="49.68181" lon="-1.4502"><ele>39.85</ele></trkpt><trkpt lat="49.68193" lon="-1.44977"><ele>36.64</ele></trkpt><trkpt lat="49.68195" lon="-1.44961"><ele>35.46</ele></trkpt><trkpt lat="49.68205" lon="-1.44947"><ele>34.04</ele></trkpt><trkpt lat="49.6819" lon="-1.44933"><ele>26.97</ele></trkpt><trkpt lat="49.68192" lon="-1.44884"><ele>14.99</ele></trkpt><trkpt lat="49.68189" lon="-1.44866"><ele>14.17</ele></trkpt><trkpt lat="49.68203" lon="-1.44849"><ele>13.51</ele></trkpt><trkpt lat="49.68218" lon="-1.44831"><ele>10.47</ele></trkpt><trkpt lat="49.68223" lon="-1.44822"><ele>10.28</ele></trkpt><trkpt lat="49.68211" lon="-1.44759"><ele>9.74</ele></trkpt><trkpt lat="49.68269" lon="-1.44781"><ele>9.02</ele></trkpt></trkseg></trk></gpx>
