<?xml version="1.0" encoding="UTF-8" standalone="no"?>
<gpx xmlns="http://www.topografix.com/GPX/1/1" version="1.1" xmlns:xsi="http://www.w3.org/2001/XMLSchema-instance" xsi:schemaLocation="http://www.topografix.com/GPX/1/1 http://www.topografix.com/GPX/1/1/gpx.xsd" creator="Cirkwi"><metadata><name><![CDATA[Gatteville-Phare et la pointe de Barfleur]]></name><desc><![CDATA[Lors de cette randonnée, naviguez entre patrimoine naturel protégé et bâti exceptionnel: le paysage maraicher du Val de Saire et les vestiges des batteries Blankenese qui aujourd'hui subissent les assauts de la mer. Partez de la Place Notre-Dame devant l'église. Partez à gauche de la mairie rue de la Houguette. Vous pouvez aussi partir du bourg de Néville-sur-mer (Gatteville-le-Phare). Coordonnées GPS : 49°41'12.0"N, 1°16'57.1"W Suivez le circuit selon le sens des aiguilles d'une montre. Le balisage est de couleur vert. Le long du littoral, suivez le balisage du GR223 (rouge et blanc). Vous retrouverez ce circuit dans le topoguide "La Manche à pied" édité par la FFRandonnée et distribué dans les Bureaux d'information touristiques de l'Office de tourisme du Cotentin. Vous retrouverez aussi ce circuit dans le topoguide "Val-de-Saire - de Bretteville à Gatteville-Phare " de l'Office de tourisme du Cotentin.   Succession de passages sableux et de de cordons de galets où la marche est rendue plus difficile. Le circuit peut être raccourci en coupant par Gouberville, entre le Haut de la Rue et le Bas de la Rue. Ce sentier n'est pas desservie par le réseau de bus Cap Cotentin, il est néanmoins accessible en voiture avec un parking situé à proximité du départ. ]]></desc><author><name><![CDATA[Cotentin unique]]></name></author><link href="http://fichier0.cirkwi.com/image/photo/circuit/1300x1300/428166/fr/0.jpg"><text><![CDATA[|@MarcLerouge]]></text></link><link href="http://fichier0.cirkwi.com/image/photo/circuit/1300x1300/428166/fr/1.jpg"><text><![CDATA[|@Armelvrac]]></text></link><time>2026-08-25T14:17:53Z</time></metadata><trk><trkseg><trkpt lat="49.6868" lon="-1.28247"><ele>14.02</ele></trkpt><trkpt lat="49.6867" lon="-1.28255"><ele>14.1</ele></trkpt><trkpt lat="49.68652" lon="-1.28304"><ele>14.49</ele></trkpt><trkpt lat="49.68665" lon="-1.28305"><ele>14.35</ele></trkpt><trkpt lat="49.68679" lon="-1.28322"><ele>13.5</ele></trkpt><trkpt lat="49.68697" lon="-1.28359"><ele>12.61</ele></trkpt><trkpt lat="49.68722" lon="-1.28394"><ele>11.41</ele></trkpt><trkpt lat="49.68749" lon="-1.28442"><ele>11.28</ele></trkpt><trkpt lat="49.68755" lon="-1.28469"><ele>11.66</ele></trkpt><trkpt lat="49.68764" lon="-1.28534"><ele>12.75</ele></trkpt><trkpt lat="49.68762" lon="-1.28584"><ele>13.71</ele></trkpt><trkpt lat="49.68751" lon="-1.28627"><ele>13.61</ele></trkpt><trkpt lat="49.68749" lon="-1.28665"><ele>12.62</ele></trkpt><trkpt lat="49.68757" lon="-1.28722"><ele>11.88</ele></trkpt><trkpt lat="49.68791" lon="-1.28871"><ele>14.51</ele></trkpt><trkpt lat="49.68815" lon="-1.28958"><ele>16.77</ele></trkpt><trkpt lat="49.68776" lon="-1.29005"><ele>17.42</ele></trkpt><trkpt lat="49.68659" lon="-1.29179"><ele>13.97</ele></trkpt><trkpt lat="49.68621" lon="-1.29216"><ele>13.37</ele></trkpt><trkpt lat="49.68572" lon="-1.29286"><ele>14.64</ele></trkpt><trkpt lat="49.68508" lon="-1.2935"><ele>17.25</ele></trkpt><trkpt lat="49.6849" lon="-1.29359"><ele>17.74</ele></trkpt><trkpt lat="49.6847" lon="-1.29362"><ele>18.2</ele></trkpt><trkpt lat="49.68452" lon="-1.29455"><ele>14.74</ele></trkpt><trkpt lat="49.68441" lon="-1.29459"><ele>14.71</ele></trkpt><trkpt lat="49.6843" lon="-1.29478"><ele>14.5</ele></trkpt><trkpt lat="49.68347" lon="-1.29641"><ele>14</ele></trkpt><trkpt lat="49.68181" lon="-1.30139"><ele>13.8</ele></trkpt><trkpt lat="49.68208" lon="-1.30285"><ele>14.72</ele></trkpt><trkpt lat="49.6824" lon="-1.30435"><ele>16.26</ele></trkpt><trkpt lat="49.68259" lon="-1.30464"><ele>16.17</ele></trkpt><trkpt lat="49.68284" lon="-1.3051"><ele>16.51</ele></trkpt><trkpt lat="49.68301" lon="-1.30516"><ele>16.39</ele></trkpt><trkpt lat="49.68325" lon="-1.30532"><ele>17.35</ele></trkpt><trkpt lat="49.68349" lon="-1.30572"><ele>18.39</ele></trkpt><trkpt lat="49.68335" lon="-1.30607"><ele>20.38</ele></trkpt><trkpt lat="49.68311" lon="-1.30652"><ele>21.45</ele></trkpt><trkpt lat="49.68303" lon="-1.30679"><ele>21.68</ele></trkpt><trkpt lat="49.68283" lon="-1.30696"><ele>21.69</ele></trkpt><trkpt lat="49.68243" lon="-1.30725"><ele>21.7</ele></trkpt><trkpt lat="49.68209" lon="-1.30751"><ele>21.55</ele></trkpt><trkpt lat="49.68131" lon="-1.30847"><ele>21.74</ele></trkpt><trkpt lat="49.68062" lon="-1.30909"><ele>22.11</ele></trkpt><trkpt lat="49.68025" lon="-1.30948"><ele>22.33</ele></trkpt><trkpt lat="49.68004" lon="-1.30969"><ele>22.33</ele></trkpt><trkpt lat="49.67937" lon="-1.31"><ele>22.7</ele></trkpt><trkpt lat="49.67895" lon="-1.31033"><ele>23.04</ele></trkpt><trkpt lat="49.67865" lon="-1.31065"><ele>23.08</ele></trkpt><trkpt lat="49.67864" lon="-1.31108"><ele>22.98</ele></trkpt><trkpt lat="49.67839" lon="-1.31288"><ele>22.16</ele></trkpt><trkpt lat="49.67832" lon="-1.31506"><ele>23.05</ele></trkpt><trkpt lat="49.67832" lon="-1.31547"><ele>23.41</ele></trkpt><trkpt lat="49.67829" lon="-1.3163"><ele>25.07</ele></trkpt><trkpt lat="49.67836" lon="-1.31634"><ele>24.83</ele></trkpt><trkpt lat="49.67842" lon="-1.31658"><ele>23.6</ele></trkpt><trkpt lat="49.67905" lon="-1.31679"><ele>21.76</ele></trkpt><trkpt lat="49.67966" lon="-1.31684"><ele>17.99</ele></trkpt><trkpt lat="49.68004" lon="-1.31672"><ele>18.17</ele></trkpt><trkpt lat="49.6806" lon="-1.31665"><ele>16.64</ele></trkpt><trkpt lat="49.68201" lon="-1.31663"><ele>9.45</ele></trkpt><trkpt lat="49.68204" lon="-1.31687"><ele>9.35</ele></trkpt><trkpt lat="49.68232" lon="-1.3183"><ele>7.42</ele></trkpt><trkpt lat="49.68231" lon="-1.31852"><ele>7.39</ele></trkpt><trkpt lat="49.68194" lon="-1.31986"><ele>9.4</ele></trkpt><trkpt lat="49.68189" lon="-1.32052"><ele>9.41</ele></trkpt><trkpt lat="49.68182" lon="-1.32091"><ele>9.4</ele></trkpt><trkpt lat="49.68174" lon="-1.3213"><ele>9.76</ele></trkpt><trkpt lat="49.68165" lon="-1.32263"><ele>10.4</ele></trkpt><trkpt lat="49.68159" lon="-1.32292"><ele>10.81</ele></trkpt><trkpt lat="49.68102" lon="-1.32426"><ele>11.62</ele></trkpt><trkpt lat="49.68111" lon="-1.32458"><ele>10.61</ele></trkpt><trkpt lat="49.6814" lon="-1.32496"><ele>9.4</ele></trkpt><trkpt lat="49.68187" lon="-1.32534"><ele>9.61</ele></trkpt><trkpt lat="49.68242" lon="-1.3257"><ele>13.56</ele></trkpt><trkpt lat="49.68286" lon="-1.32619"><ele>16.44</ele></trkpt><trkpt lat="49.68342" lon="-1.3268"><ele>18.26</ele></trkpt><trkpt lat="49.68375" lon="-1.32706"><ele>17.57</ele></trkpt><trkpt lat="49.68356" lon="-1.32778"><ele>17.82</ele></trkpt><trkpt lat="49.68332" lon="-1.32841"><ele>17.79</ele></trkpt><trkpt lat="49.68253" lon="-1.33068"><ele>19.35</ele></trkpt><trkpt lat="49.68211" lon="-1.33142"><ele>19.84</ele></trkpt><trkpt lat="49.68298" lon="-1.33205"><ele>20.13</ele></trkpt><trkpt lat="49.68412" lon="-1.33298"><ele>15.88</ele></trkpt><trkpt lat="49.68424" lon="-1.33339"><ele>16</ele></trkpt><trkpt lat="49.68431" lon="-1.33362"><ele>16.44</ele></trkpt><trkpt lat="49.6852" lon="-1.33422"><ele>18.95</ele></trkpt><trkpt lat="49.68537" lon="-1.33445"><ele>19.2</ele></trkpt><trkpt lat="49.68547" lon="-1.33483"><ele>20</ele></trkpt><trkpt lat="49.68587" lon="-1.33575"><ele>22.15</ele></trkpt><trkpt lat="49.68626" lon="-1.33637"><ele>23.87</ele></trkpt><trkpt lat="49.68651" lon="-1.33704"><ele>24.45</ele></trkpt><trkpt lat="49.68667" lon="-1.33721"><ele>24.53</ele></trkpt><trkpt lat="49.68746" lon="-1.33687"><ele>23.19</ele></trkpt><trkpt lat="49.68778" lon="-1.33666"><ele>21.85</ele></trkpt><trkpt lat="49.68886" lon="-1.33638"><ele>21.71</ele></trkpt><trkpt lat="49.68902" lon="-1.33649"><ele>22.4</ele></trkpt><trkpt lat="49.68936" lon="-1.33664"><ele>22.24</ele></trkpt><trkpt lat="49.69069" lon="-1.33712"><ele>18.48</ele></trkpt><trkpt lat="49.6911" lon="-1.33742"><ele>15.5</ele></trkpt><trkpt lat="49.69136" lon="-1.33769"><ele>17.31</ele></trkpt><trkpt lat="49.69197" lon="-1.33855"><ele>20.62</ele></trkpt><trkpt lat="49.69232" lon="-1.33815"><ele>19.27</ele></trkpt><trkpt lat="49.69272" lon="-1.33798"><ele>16.7</ele></trkpt><trkpt lat="49.69284" lon="-1.33814"><ele>16.27</ele></trkpt><trkpt lat="49.69311" lon="-1.33839"><ele>15.67</ele></trkpt><trkpt lat="49.69331" lon="-1.33841"><ele>16</ele></trkpt><trkpt lat="49.69418" lon="-1.33834"><ele>17.04</ele></trkpt><trkpt lat="49.69457" lon="-1.33837"><ele>15.92</ele></trkpt><trkpt lat="49.6948" lon="-1.33865"><ele>16.23</ele></trkpt><trkpt lat="49.69497" lon="-1.33903"><ele>16.67</ele></trkpt><trkpt lat="49.69524" lon="-1.33978"><ele>16.5</ele></trkpt><trkpt lat="49.69551" lon="-1.34042"><ele>18.06</ele></trkpt><trkpt lat="49.6958" lon="-1.34062"><ele>17.69</ele></trkpt><trkpt lat="49.69658" lon="-1.3407"><ele>12.36</ele></trkpt><trkpt lat="49.69671" lon="-1.34065"><ele>10.7</ele></trkpt><trkpt lat="49.69881" lon="-1.34175"><ele>5.27</ele></trkpt><trkpt lat="49.69882" lon="-1.34206"><ele>6.55</ele></trkpt><trkpt lat="49.69892" lon="-1.34212"><ele>6.88</ele></trkpt><trkpt lat="49.69981" lon="-1.34336"><ele>5.28</ele></trkpt><trkpt lat="49.70012" lon="-1.34405"><ele>4.91</ele></trkpt><trkpt lat="49.70056" lon="-1.34456"><ele>4.03</ele></trkpt><trkpt lat="49.70053" lon="-1.34426"><ele>4.53</ele></trkpt><trkpt lat="49.70036" lon="-1.34365"><ele>3.97</ele></trkpt><trkpt lat="49.70037" lon="-1.34272"><ele>4.1</ele></trkpt><trkpt lat="49.70028" lon="-1.34173"><ele>3.63</ele></trkpt><trkpt lat="49.70022" lon="-1.34147"><ele>3.45</ele></trkpt><trkpt lat="49.70022" lon="-1.34101"><ele>3.33</ele></trkpt><trkpt lat="49.70026" lon="-1.34068"><ele>3.03</ele></trkpt><trkpt lat="49.7007" lon="-1.33809"><ele>2.76</ele></trkpt><trkpt lat="49.70073" lon="-1.33727"><ele>3.21</ele></trkpt><trkpt lat="49.70083" lon="-1.33673"><ele>3.7</ele></trkpt><trkpt lat="49.7009" lon="-1.3364"><ele>3.7</ele></trkpt><trkpt lat="49.70099" lon="-1.33628"><ele>4.62</ele></trkpt><trkpt lat="49.70114" lon="-1.33557"><ele>4.9</ele></trkpt><trkpt lat="49.70118" lon="-1.3351"><ele>4.74</ele></trkpt><trkpt lat="49.70127" lon="-1.33474"><ele>4.42</ele></trkpt><trkpt lat="49.7013" lon="-1.33434"><ele>3.95</ele></trkpt><trkpt lat="49.70144" lon="-1.33386"><ele>3.52</ele></trkpt><trkpt lat="49.70146" lon="-1.33353"><ele>2.87</ele></trkpt><trkpt lat="49.70146" lon="-1.33267"><ele>2.69</ele></trkpt><trkpt lat="49.70145" lon="-1.33248"><ele>2.76</ele></trkpt><trkpt lat="49.70084" lon="-1.33154"><ele>2.49</ele></trkpt><trkpt lat="49.70052" lon="-1.33125"><ele>2.47</ele></trkpt><trkpt lat="49.70041" lon="-1.33085"><ele>2.75</ele></trkpt><trkpt lat="49.7002" lon="-1.33048"><ele>3.12</ele></trkpt><trkpt lat="49.70019" lon="-1.33009"><ele>3.35</ele></trkpt><trkpt lat="49.70002" lon="-1.32976"><ele>3.46</ele></trkpt><trkpt lat="49.6998" lon="-1.32953"><ele>3.28</ele></trkpt><trkpt lat="49.6989" lon="-1.327"><ele>3.9</ele></trkpt><trkpt lat="49.69874" lon="-1.32673"><ele>3.63</ele></trkpt><trkpt lat="49.69854" lon="-1.32621"><ele>4.04</ele></trkpt><trkpt lat="49.69847" lon="-1.32576"><ele>3.95</ele></trkpt><trkpt lat="49.6985" lon="-1.32497"><ele>4.57</ele></trkpt><trkpt lat="49.69841" lon="-1.32459"><ele>4.6</ele></trkpt><trkpt lat="49.69839" lon="-1.3242"><ele>4.94</ele></trkpt><trkpt lat="49.69828" lon="-1.3236"><ele>4.83</ele></trkpt><trkpt lat="49.69833" lon="-1.32323"><ele>5.38</ele></trkpt><trkpt lat="49.69831" lon="-1.32286"><ele>5.15</ele></trkpt><trkpt lat="49.69828" lon="-1.32199"><ele>5.35</ele></trkpt><trkpt lat="49.69831" lon="-1.32114"><ele>5.54</ele></trkpt><trkpt lat="49.69824" lon="-1.32086"><ele>5.19</ele></trkpt><trkpt lat="49.69806" lon="-1.32047"><ele>4.83</ele></trkpt><trkpt lat="49.6981" lon="-1.32016"><ele>4.7</ele></trkpt><trkpt lat="49.69803" lon="-1.31977"><ele>4.43</ele></trkpt><trkpt lat="49.69802" lon="-1.31948"><ele>4.42</ele></trkpt><trkpt lat="49.69767" lon="-1.31802"><ele>4.54</ele></trkpt><trkpt lat="49.69766" lon="-1.31763"><ele>5.15</ele></trkpt><trkpt lat="49.6974" lon="-1.31669"><ele>5.16</ele></trkpt><trkpt lat="49.69715" lon="-1.31565"><ele>5.18</ele></trkpt><trkpt lat="49.69714" lon="-1.31535"><ele>5.42</ele></trkpt><trkpt lat="49.69655" lon="-1.31246"><ele>5.4</ele></trkpt><trkpt lat="49.69624" lon="-1.31054"><ele>7.58</ele></trkpt><trkpt lat="49.69614" lon="-1.30978"><ele>8.01</ele></trkpt><trkpt lat="49.69604" lon="-1.30929"><ele>7.43</ele></trkpt><trkpt lat="49.69589" lon="-1.30906"><ele>6.92</ele></trkpt><trkpt lat="49.69576" lon="-1.30879"><ele>7.07</ele></trkpt><trkpt lat="49.69495" lon="-1.30701"><ele>6.42</ele></trkpt><trkpt lat="49.69444" lon="-1.30694"><ele>6.18</ele></trkpt><trkpt lat="49.69414" lon="-1.30674"><ele>4.34</ele></trkpt><trkpt lat="49.69414" lon="-1.30634"><ele>3.91</ele></trkpt><trkpt lat="49.6942" lon="-1.30608"><ele>3.43</ele></trkpt><trkpt lat="49.69419" lon="-1.30588"><ele>3.18</ele></trkpt><trkpt lat="49.69409" lon="-1.30574"><ele>3.52</ele></trkpt><trkpt lat="49.69386" lon="-1.30564"><ele>2.93</ele></trkpt><trkpt lat="49.6938" lon="-1.30527"><ele>2.96</ele></trkpt><trkpt lat="49.69372" lon="-1.30499"><ele>3</ele></trkpt><trkpt lat="49.69337" lon="-1.30314"><ele>3.06</ele></trkpt><trkpt lat="49.69336" lon="-1.30272"><ele>3.75</ele></trkpt><trkpt lat="49.69329" lon="-1.30242"><ele>3.6</ele></trkpt><trkpt lat="49.69315" lon="-1.30176"><ele>3.24</ele></trkpt><trkpt lat="49.69309" lon="-1.30128"><ele>2.93</ele></trkpt><trkpt lat="49.69289" lon="-1.30007"><ele>2.97</ele></trkpt><trkpt lat="49.69274" lon="-1.29962"><ele>3.14</ele></trkpt><trkpt lat="49.69255" lon="-1.29924"><ele>3.68</ele></trkpt><trkpt lat="49.69245" lon="-1.29868"><ele>3.29</ele></trkpt><trkpt lat="49.69248" lon="-1.29798"><ele>3.17</ele></trkpt><trkpt lat="49.6923" lon="-1.29704"><ele>2.72</ele></trkpt><trkpt lat="49.69226" lon="-1.29663"><ele>2.81</ele></trkpt><trkpt lat="49.69218" lon="-1.29616"><ele>2.7</ele></trkpt><trkpt lat="49.69218" lon="-1.29592"><ele>2.68</ele></trkpt><trkpt lat="49.69222" lon="-1.2956"><ele>2.79</ele></trkpt><trkpt lat="49.69221" lon="-1.29464"><ele>2.86</ele></trkpt><trkpt lat="49.69202" lon="-1.29377"><ele>2.78</ele></trkpt><trkpt lat="49.69183" lon="-1.2927"><ele>2.83</ele></trkpt><trkpt lat="49.69177" lon="-1.29198"><ele>3.2</ele></trkpt><trkpt lat="49.6916" lon="-1.29138"><ele>2.72</ele></trkpt><trkpt lat="49.69152" lon="-1.29076"><ele>3</ele></trkpt><trkpt lat="49.6913" lon="-1.28932"><ele>5</ele></trkpt><trkpt lat="49.69191" lon="-1.28808"><ele>8.82</ele></trkpt><trkpt lat="49.69245" lon="-1.28722"><ele>9.82</ele></trkpt><trkpt lat="49.69251" lon="-1.28685"><ele>10.59</ele></trkpt><trkpt lat="49.69273" lon="-1.28656"><ele>10.69</ele></trkpt><trkpt lat="49.69293" lon="-1.28645"><ele>9.66</ele></trkpt><trkpt lat="49.69321" lon="-1.28594"><ele>8.37</ele></trkpt><trkpt lat="49.69335" lon="-1.28541"><ele>7.5</ele></trkpt><trkpt lat="49.69336" lon="-1.28451"><ele>6.61</ele></trkpt><trkpt lat="49.69339" lon="-1.28423"><ele>6.67</ele></trkpt><trkpt lat="49.69352" lon="-1.2836"><ele>6.75</ele></trkpt><trkpt lat="49.69383" lon="-1.28248"><ele>6.05</ele></trkpt><trkpt lat="49.69409" lon="-1.28149"><ele>5.92</ele></trkpt><trkpt lat="49.69408" lon="-1.28075"><ele>5.44</ele></trkpt><trkpt lat="49.69409" lon="-1.27964"><ele>4.98</ele></trkpt><trkpt lat="49.69409" lon="-1.27948"><ele>4.7</ele></trkpt><trkpt lat="49.694" lon="-1.27941"><ele>4.43</ele></trkpt><trkpt lat="49.69348" lon="-1.27932"><ele>4.49</ele></trkpt><trkpt lat="49.69311" lon="-1.27941"><ele>5.45</ele></trkpt><trkpt lat="49.69283" lon="-1.27944"><ele>4.15</ele></trkpt><trkpt lat="49.69269" lon="-1.27944"><ele>3.93</ele></trkpt><trkpt lat="49.69259" lon="-1.27936"><ele>3.99</ele></trkpt><trkpt lat="49.69245" lon="-1.27922"><ele>4.03</ele></trkpt><trkpt lat="49.69235" lon="-1.2788"><ele>4.34</ele></trkpt><trkpt lat="49.69223" lon="-1.27844"><ele>4.66</ele></trkpt><trkpt lat="49.6907" lon="-1.28061"><ele>8.41</ele></trkpt><trkpt lat="49.69045" lon="-1.2809"><ele>10.27</ele></trkpt><trkpt lat="49.69016" lon="-1.28139"><ele>11.14</ele></trkpt><trkpt lat="49.68951" lon="-1.28198"><ele>8.89</ele></trkpt><trkpt lat="49.6893" lon="-1.28208"><ele>9.05</ele></trkpt><trkpt lat="49.68899" lon="-1.28232"><ele>11.25</ele></trkpt><trkpt lat="49.68855" lon="-1.28214"><ele>11.5</ele></trkpt><trkpt lat="49.68828" lon="-1.2822"><ele>10.51</ele></trkpt><trkpt lat="49.68761" lon="-1.28231"><ele>10.33</ele></trkpt><trkpt lat="49.68727" lon="-1.28244"><ele>11.57</ele></trkpt><trkpt lat="49.6868" lon="-1.28247"><ele>14.02</ele></trkpt></trkseg></trk></gpx>
