<?xml version="1.0" encoding="UTF-8" standalone="no"?>
<gpx xmlns="http://www.topografix.com/GPX/1/1" version="1.1" xmlns:xsi="http://www.w3.org/2001/XMLSchema-instance" xsi:schemaLocation="http://www.topografix.com/GPX/1/1 http://www.topografix.com/GPX/1/1/gpx.xsd" creator="Cirkwi"><metadata><name><![CDATA[L'Oraille - n°135]]></name><desc><![CDATA[En allant à Cherbourg, en venant des Pieux ou de Bricquebec, faites un détour par Martinvast. Arrêtez-vous place de Pourtalés, point de départ d'une balade qui débute avec le panneau descriptif du circuit. A travers les petites routes et les chasses, vous découvrirez un environnement préservé au cœur du bocage normand entre collines et forêts. Partez de la Rue de l'Oraille (juste après le pont SNCF) puis montez la rue de l'Oraille jusqu'à tourner à gauche vers la Couespellerie (Martinvast). Autre départ possible : Partez de la place de Pourtalés, continuez jusqu'à l'église et tournez à gauche vers le lotissement.  Coordonnées GPS : 49°35'42.8"N, 1°39'51.1"W / 49°36'16.9"N, 1°39'28.5"W Suivez le circuit selon le sens des aiguilles d'une montre. Le balisage est de couleur bleu. Vous retrouverez ce circuit dans le topoguide "La Hague - Des Pieux et autour de Martinvast "de l'Office de tourisme du Cotentin.   Prudence lors de la traversée de la D900. Portion escarpée au niveau de la chasse Bonami. Départ accessible avec le réseau de bus Cap Cotentin aux arrêts "Martinvast - Le Pont" et "Martinvast - Mairie" (plus d'infos sur capcotentin.fr)]]></desc><author><name><![CDATA[Cotentin unique]]></name></author><link href="http://fichier0.cirkwi.com/image/photo/circuit/1300x1300/1063372/fr/0.jpg"><text><![CDATA[|Aymeric Picot]]></text></link><time>2026-08-17T12:06:09Z</time></metadata><trk><trkseg><trkpt lat="49.60456" lon="-1.65786"><ele>38.96</ele></trkpt><trkpt lat="49.60457" lon="-1.65784"><ele>38.96</ele></trkpt><trkpt lat="49.6046" lon="-1.65762"><ele>38.24</ele></trkpt><trkpt lat="49.6046" lon="-1.6576"><ele>38.18</ele></trkpt><trkpt lat="49.60461" lon="-1.65744"><ele>37.71</ele></trkpt><trkpt lat="49.60458" lon="-1.65728"><ele>37.88</ele></trkpt><trkpt lat="49.60439" lon="-1.65676"><ele>39.5</ele></trkpt><trkpt lat="49.60436" lon="-1.6567"><ele>39.78</ele></trkpt><trkpt lat="49.604" lon="-1.65607"><ele>42.29</ele></trkpt><trkpt lat="49.60407" lon="-1.65594"><ele>42.18</ele></trkpt><trkpt lat="49.60426" lon="-1.65532"><ele>42.39</ele></trkpt><trkpt lat="49.60419" lon="-1.65463"><ele>43.59</ele></trkpt><trkpt lat="49.60422" lon="-1.65389"><ele>46.08</ele></trkpt><trkpt lat="49.60446" lon="-1.65328"><ele>47.69</ele></trkpt><trkpt lat="49.6046" lon="-1.65266"><ele>51.31</ele></trkpt><trkpt lat="49.60434" lon="-1.65206"><ele>55.31</ele></trkpt><trkpt lat="49.60413" lon="-1.65151"><ele>58.37</ele></trkpt><trkpt lat="49.60368" lon="-1.65172"><ele>56.93</ele></trkpt><trkpt lat="49.60352" lon="-1.65225"><ele>51.98</ele></trkpt><trkpt lat="49.60338" lon="-1.65275"><ele>50.84</ele></trkpt><trkpt lat="49.60308" lon="-1.65322"><ele>53.55</ele></trkpt><trkpt lat="49.60265" lon="-1.6536"><ele>61.48</ele></trkpt><trkpt lat="49.60244" lon="-1.65408"><ele>63.42</ele></trkpt><trkpt lat="49.60211" lon="-1.6546"><ele>66.84</ele></trkpt><trkpt lat="49.60169" lon="-1.65495"><ele>69.2</ele></trkpt><trkpt lat="49.60127" lon="-1.65456"><ele>73.85</ele></trkpt><trkpt lat="49.60088" lon="-1.65419"><ele>79.89</ele></trkpt><trkpt lat="49.6006" lon="-1.6537"><ele>83.99</ele></trkpt><trkpt lat="49.60038" lon="-1.65309"><ele>88.18</ele></trkpt><trkpt lat="49.6002" lon="-1.65242"><ele>92.99</ele></trkpt><trkpt lat="49.59991" lon="-1.6518"><ele>100.08</ele></trkpt><trkpt lat="49.59953" lon="-1.65138"><ele>107.29</ele></trkpt><trkpt lat="49.5991" lon="-1.65112"><ele>112.86</ele></trkpt><trkpt lat="49.5987" lon="-1.65076"><ele>112.91</ele></trkpt><trkpt lat="49.59842" lon="-1.65022"><ele>109.78</ele></trkpt><trkpt lat="49.59831" lon="-1.64955"><ele>106.5</ele></trkpt><trkpt lat="49.59808" lon="-1.64895"><ele>103.02</ele></trkpt><trkpt lat="49.59787" lon="-1.64835"><ele>100.33</ele></trkpt><trkpt lat="49.59811" lon="-1.64772"><ele>97.15</ele></trkpt><trkpt lat="49.59831" lon="-1.6471"><ele>93.41</ele></trkpt><trkpt lat="49.59871" lon="-1.6472"><ele>93.87</ele></trkpt><trkpt lat="49.59915" lon="-1.64748"><ele>94.82</ele></trkpt><trkpt lat="49.59954" lon="-1.64785"><ele>94.3</ele></trkpt><trkpt lat="49.59994" lon="-1.64821"><ele>92.59</ele></trkpt><trkpt lat="49.60035" lon="-1.64849"><ele>88.71</ele></trkpt><trkpt lat="49.60077" lon="-1.64878"><ele>84.81</ele></trkpt><trkpt lat="49.60126" lon="-1.64899"><ele>78.74</ele></trkpt><trkpt lat="49.60165" lon="-1.64885"><ele>73.86</ele></trkpt><trkpt lat="49.60194" lon="-1.6483"><ele>72.27</ele></trkpt><trkpt lat="49.60212" lon="-1.6477"><ele>69.06</ele></trkpt><trkpt lat="49.60244" lon="-1.6473"><ele>69.53</ele></trkpt><trkpt lat="49.60282" lon="-1.64771"><ele>73.29</ele></trkpt><trkpt lat="49.60313" lon="-1.64829"><ele>77.72</ele></trkpt><trkpt lat="49.60335" lon="-1.64821"><ele>85.48</ele></trkpt><trkpt lat="49.6034" lon="-1.6475"><ele>92.97</ele></trkpt><trkpt lat="49.6035" lon="-1.64678"><ele>98.16</ele></trkpt><trkpt lat="49.60358" lon="-1.6461"><ele>101.28</ele></trkpt><trkpt lat="49.60365" lon="-1.6454"><ele>102.63</ele></trkpt><trkpt lat="49.60363" lon="-1.64463"><ele>102.91</ele></trkpt><trkpt lat="49.60356" lon="-1.64396"><ele>103.89</ele></trkpt><trkpt lat="49.60351" lon="-1.64328"><ele>104.66</ele></trkpt><trkpt lat="49.60345" lon="-1.64258"><ele>105.32</ele></trkpt><trkpt lat="49.6039" lon="-1.64239"><ele>104.83</ele></trkpt><trkpt lat="49.60434" lon="-1.64221"><ele>104.58</ele></trkpt><trkpt lat="49.6048" lon="-1.64205"><ele>104.45</ele></trkpt><trkpt lat="49.60517" lon="-1.64166"><ele>105.17</ele></trkpt><trkpt lat="49.60543" lon="-1.64108"><ele>106.48</ele></trkpt><trkpt lat="49.60583" lon="-1.64067"><ele>106.29</ele></trkpt><trkpt lat="49.60581" lon="-1.6402"><ele>105.55</ele></trkpt><trkpt lat="49.60566" lon="-1.63953"><ele>104.6</ele></trkpt><trkpt lat="49.60549" lon="-1.63879"><ele>103.16</ele></trkpt><trkpt lat="49.60534" lon="-1.63816"><ele>101.89</ele></trkpt><trkpt lat="49.60508" lon="-1.63755"><ele>101.13</ele></trkpt><trkpt lat="49.60485" lon="-1.63694"><ele>97.87</ele></trkpt><trkpt lat="49.60464" lon="-1.63624"><ele>84.93</ele></trkpt><trkpt lat="49.60433" lon="-1.63558"><ele>87.24</ele></trkpt><trkpt lat="49.60412" lon="-1.63496"><ele>95.27</ele></trkpt><trkpt lat="49.60387" lon="-1.63433"><ele>97.08</ele></trkpt><trkpt lat="49.60366" lon="-1.6337"><ele>92.91</ele></trkpt><trkpt lat="49.6034" lon="-1.63314"><ele>92.74</ele></trkpt><trkpt lat="49.60314" lon="-1.6325"><ele>96.39</ele></trkpt><trkpt lat="49.60288" lon="-1.63188"><ele>99.59</ele></trkpt><trkpt lat="49.60266" lon="-1.63123"><ele>103.24</ele></trkpt><trkpt lat="49.60244" lon="-1.63062"><ele>106.67</ele></trkpt><trkpt lat="49.60222" lon="-1.63004"><ele>109.25</ele></trkpt><trkpt lat="49.602" lon="-1.62944"><ele>112.82</ele></trkpt><trkpt lat="49.60177" lon="-1.62885"><ele>115.58</ele></trkpt><trkpt lat="49.60155" lon="-1.62823"><ele>117.76</ele></trkpt><trkpt lat="49.60127" lon="-1.62761"><ele>119.84</ele></trkpt><trkpt lat="49.60107" lon="-1.62699"><ele>121.43</ele></trkpt><trkpt lat="49.60089" lon="-1.62725"><ele>120.97</ele></trkpt><trkpt lat="49.60086" lon="-1.62796"><ele>119.71</ele></trkpt><trkpt lat="49.60086" lon="-1.62873"><ele>118.86</ele></trkpt><trkpt lat="49.60086" lon="-1.62957"><ele>118.22</ele></trkpt><trkpt lat="49.60086" lon="-1.63028"><ele>117.58</ele></trkpt><trkpt lat="49.60081" lon="-1.63103"><ele>116.66</ele></trkpt><trkpt lat="49.60081" lon="-1.63174"><ele>116</ele></trkpt><trkpt lat="49.60074" lon="-1.63251"><ele>115.34</ele></trkpt><trkpt lat="49.60074" lon="-1.63322"><ele>114.57</ele></trkpt><trkpt lat="49.60068" lon="-1.63403"><ele>112.15</ele></trkpt><trkpt lat="49.60066" lon="-1.63475"><ele>110.42</ele></trkpt><trkpt lat="49.60062" lon="-1.6355"><ele>109.08</ele></trkpt><trkpt lat="49.60061" lon="-1.63625"><ele>107.52</ele></trkpt><trkpt lat="49.60057" lon="-1.63694"><ele>106</ele></trkpt><trkpt lat="49.60057" lon="-1.63768"><ele>104.18</ele></trkpt><trkpt lat="49.6006" lon="-1.63839"><ele>102.36</ele></trkpt><trkpt lat="49.60034" lon="-1.63876"><ele>101.97</ele></trkpt><trkpt lat="49.59988" lon="-1.63896"><ele>102.12</ele></trkpt><trkpt lat="49.59947" lon="-1.63921"><ele>101.68</ele></trkpt><trkpt lat="49.59909" lon="-1.63962"><ele>97.74</ele></trkpt><trkpt lat="49.5987" lon="-1.64007"><ele>91.62</ele></trkpt><trkpt lat="49.59831" lon="-1.64049"><ele>86.06</ele></trkpt><trkpt lat="49.59805" lon="-1.64104"><ele>83.58</ele></trkpt><trkpt lat="49.59791" lon="-1.64168"><ele>82.29</ele></trkpt><trkpt lat="49.59771" lon="-1.64232"><ele>81.43</ele></trkpt><trkpt lat="49.59743" lon="-1.64286"><ele>83.18</ele></trkpt><trkpt lat="49.597" lon="-1.64324"><ele>86.31</ele></trkpt><trkpt lat="49.59667" lon="-1.6437"><ele>89.12</ele></trkpt><trkpt lat="49.59652" lon="-1.64443"><ele>89.29</ele></trkpt><trkpt lat="49.59623" lon="-1.64504"><ele>92.94</ele></trkpt><trkpt lat="49.59595" lon="-1.64561"><ele>93.92</ele></trkpt><trkpt lat="49.59567" lon="-1.64614"><ele>93.9</ele></trkpt><trkpt lat="49.59598" lon="-1.64671"><ele>94.06</ele></trkpt><trkpt lat="49.59632" lon="-1.64718"><ele>94.6</ele></trkpt><trkpt lat="49.59664" lon="-1.64717"><ele>94.3</ele></trkpt><trkpt lat="49.59689" lon="-1.64659"><ele>92.08</ele></trkpt><trkpt lat="49.59722" lon="-1.64692"><ele>93.25</ele></trkpt><trkpt lat="49.59752" lon="-1.64739"><ele>95.51</ele></trkpt><trkpt lat="49.59778" lon="-1.64801"><ele>99.19</ele></trkpt><trkpt lat="49.59805" lon="-1.64868"><ele>102.91</ele></trkpt><trkpt lat="49.59827" lon="-1.64932"><ele>105.16</ele></trkpt><trkpt lat="49.59839" lon="-1.65006"><ele>109.16</ele></trkpt><trkpt lat="49.59865" lon="-1.65066"><ele>112.74</ele></trkpt><trkpt lat="49.59905" lon="-1.65107"><ele>113.25</ele></trkpt><trkpt lat="49.59949" lon="-1.65144"><ele>106.68</ele></trkpt><trkpt lat="49.59989" lon="-1.65183"><ele>99.47</ele></trkpt><trkpt lat="49.60015" lon="-1.65244"><ele>93.1</ele></trkpt><trkpt lat="49.60037" lon="-1.65303"><ele>88.44</ele></trkpt><trkpt lat="49.60062" lon="-1.65364"><ele>84.37</ele></trkpt><trkpt lat="49.60093" lon="-1.65425"><ele>79.06</ele></trkpt><trkpt lat="49.60133" lon="-1.65463"><ele>73.28</ele></trkpt><trkpt lat="49.60172" lon="-1.65511"><ele>68.59</ele></trkpt><trkpt lat="49.60205" lon="-1.65464"><ele>66.7</ele></trkpt><trkpt lat="49.60237" lon="-1.65422"><ele>64.2</ele></trkpt><trkpt lat="49.60276" lon="-1.6546"><ele>59.41</ele></trkpt><trkpt lat="49.60274" lon="-1.65463"><ele>59.19</ele></trkpt><trkpt lat="49.60277" lon="-1.65469"><ele>58.57</ele></trkpt><trkpt lat="49.60293" lon="-1.65492"><ele>56.76</ele></trkpt><trkpt lat="49.60305" lon="-1.65504"><ele>55.83</ele></trkpt><trkpt lat="49.60313" lon="-1.65497"><ele>54.74</ele></trkpt><trkpt lat="49.60328" lon="-1.65485"><ele>52.61</ele></trkpt><trkpt lat="49.60343" lon="-1.65476"><ele>50.8</ele></trkpt><trkpt lat="49.60354" lon="-1.65473"><ele>48.91</ele></trkpt><trkpt lat="49.60357" lon="-1.65477"><ele>48.91</ele></trkpt><trkpt lat="49.6036" lon="-1.65485"><ele>47.94</ele></trkpt><trkpt lat="49.60367" lon="-1.65516"><ele>45.56</ele></trkpt><trkpt lat="49.60375" lon="-1.65546"><ele>44.36</ele></trkpt><trkpt lat="49.60377" lon="-1.65552"><ele>44.25</ele></trkpt><trkpt lat="49.60387" lon="-1.65578"><ele>43.35</ele></trkpt><trkpt lat="49.604" lon="-1.65607"><ele>42.29</ele></trkpt><trkpt lat="49.60422" lon="-1.65645"><ele>40.56</ele></trkpt><trkpt lat="49.60436" lon="-1.6567"><ele>39.78</ele></trkpt><trkpt lat="49.60439" lon="-1.65676"><ele>39.5</ele></trkpt><trkpt lat="49.60458" lon="-1.65728"><ele>37.88</ele></trkpt><trkpt lat="49.60461" lon="-1.65744"><ele>37.71</ele></trkpt><trkpt lat="49.6046" lon="-1.6576"><ele>38.18</ele></trkpt><trkpt lat="49.60457" lon="-1.65784"><ele>38.96</ele></trkpt><trkpt lat="49.60453" lon="-1.65796"><ele>39.58</ele></trkpt></trkseg></trk></gpx>
