<?xml version="1.0" encoding="UTF-8" standalone="no"?>
<gpx xmlns="http://www.topografix.com/GPX/1/1" version="1.1" xmlns:xsi="http://www.w3.org/2001/XMLSchema-instance" xsi:schemaLocation="http://www.topografix.com/GPX/1/1 http://www.topografix.com/GPX/1/1/gpx.xsd" creator="Cirkwi"><metadata><name><![CDATA[La Valaiserie - n°137]]></name><desc><![CDATA[Aux portes de Cherbourg-en-Cotentin, découvrez les chasses (petits chemins ruraux) et les paysages paisibles et ombragés du bocage normand. Chemins creux, vues panoramiques et vieilles pierres sauront vous ravir. Partez du parking de l'église et prenez la route montant le long du cimetière, puis tournez à gauche sur la route de la Croix Rouge (Nouainville). Coordonnées GPS : 49°37'29.5"N, 1°41'05.6"W Suivez le circuit selon le sens inverse des aiguilles d'une montre. Le balisage est de couleur violet (balisage incomplet).  Vous retrouverez ce circuit dans le topoguide "La Hague - Des Pieux et autour de Martinvast "de l'Office de tourisme du Cotentin.   Prudence lors de la traversée de la D64. Ce sentier n'est pas desservie par le réseau de bus Cap Cotentin, il est néanmoins accessible en voiture avec un parking situé à proximité du départ. ]]></desc><author><name><![CDATA[Cotentin unique]]></name></author><link href="http://fichier0.cirkwi.com/image/photo/circuit/1300x1300/352800/fr/0.jpg"><text><![CDATA[|CotentinUnique@Aymeric Picot]]></text></link><time>2026-08-14T10:06:39Z</time></metadata><trk><trkseg><trkpt lat="49.62499" lon="-1.68558"><ele>115.45</ele></trkpt><trkpt lat="49.625" lon="-1.6856"><ele>115.43</ele></trkpt><trkpt lat="49.62501" lon="-1.68562"><ele>115.43</ele></trkpt><trkpt lat="49.62504" lon="-1.68567"><ele>115.71</ele></trkpt><trkpt lat="49.62514" lon="-1.6858"><ele>116.09</ele></trkpt><trkpt lat="49.62518" lon="-1.68585"><ele>116.18</ele></trkpt><trkpt lat="49.6253" lon="-1.68598"><ele>116.04</ele></trkpt><trkpt lat="49.62532" lon="-1.68601"><ele>116.04</ele></trkpt><trkpt lat="49.62533" lon="-1.68602"><ele>115.83</ele></trkpt><trkpt lat="49.62537" lon="-1.68606"><ele>115.86</ele></trkpt><trkpt lat="49.62542" lon="-1.68612"><ele>115.46</ele></trkpt><trkpt lat="49.62544" lon="-1.68614"><ele>115.46</ele></trkpt><trkpt lat="49.62576" lon="-1.68646"><ele>113.96</ele></trkpt><trkpt lat="49.62595" lon="-1.68666"><ele>113.03</ele></trkpt><trkpt lat="49.626" lon="-1.68671"><ele>112.74</ele></trkpt><trkpt lat="49.62602" lon="-1.68673"><ele>112.47</ele></trkpt><trkpt lat="49.62604" lon="-1.68674"><ele>112.47</ele></trkpt><trkpt lat="49.62605" lon="-1.68675"><ele>112.43</ele></trkpt><trkpt lat="49.62607" lon="-1.68676"><ele>112.14</ele></trkpt><trkpt lat="49.62609" lon="-1.68676"><ele>112.14</ele></trkpt><trkpt lat="49.62612" lon="-1.68676"><ele>111.82</ele></trkpt><trkpt lat="49.62608" lon="-1.68692"><ele>112.11</ele></trkpt><trkpt lat="49.62606" lon="-1.68701"><ele>112.38</ele></trkpt><trkpt lat="49.62604" lon="-1.68708"><ele>112.57</ele></trkpt><trkpt lat="49.62597" lon="-1.68725"><ele>113.01</ele></trkpt><trkpt lat="49.62585" lon="-1.68742"><ele>113.64</ele></trkpt><trkpt lat="49.62584" lon="-1.68743"><ele>114.7</ele></trkpt><trkpt lat="49.62579" lon="-1.68751"><ele>114.77</ele></trkpt><trkpt lat="49.62576" lon="-1.68756"><ele>114.2</ele></trkpt><trkpt lat="49.62573" lon="-1.68762"><ele>114.56</ele></trkpt><trkpt lat="49.62571" lon="-1.68767"><ele>115.21</ele></trkpt><trkpt lat="49.62569" lon="-1.68771"><ele>114.64</ele></trkpt><trkpt lat="49.62565" lon="-1.6878"><ele>114.74</ele></trkpt><trkpt lat="49.62562" lon="-1.68787"><ele>114.9</ele></trkpt><trkpt lat="49.62553" lon="-1.68811"><ele>114.5</ele></trkpt><trkpt lat="49.62552" lon="-1.68814"><ele>114.29</ele></trkpt><trkpt lat="49.62547" lon="-1.68828"><ele>114.09</ele></trkpt><trkpt lat="49.62542" lon="-1.68844"><ele>113.98</ele></trkpt><trkpt lat="49.6254" lon="-1.68851"><ele>113.79</ele></trkpt><trkpt lat="49.62535" lon="-1.68866"><ele>113.75</ele></trkpt><trkpt lat="49.62528" lon="-1.68887"><ele>113.93</ele></trkpt><trkpt lat="49.62524" lon="-1.68901"><ele>114.11</ele></trkpt><trkpt lat="49.62516" lon="-1.68923"><ele>114.1</ele></trkpt><trkpt lat="49.6251" lon="-1.68952"><ele>114.67</ele></trkpt><trkpt lat="49.62507" lon="-1.68965"><ele>115.08</ele></trkpt><trkpt lat="49.62506" lon="-1.68967"><ele>115.24</ele></trkpt><trkpt lat="49.62504" lon="-1.68978"><ele>115.69</ele></trkpt><trkpt lat="49.62495" lon="-1.6899"><ele>116.2</ele></trkpt><trkpt lat="49.62492" lon="-1.68996"><ele>116.68</ele></trkpt><trkpt lat="49.62491" lon="-1.68996"><ele>116.68</ele></trkpt><trkpt lat="49.62479" lon="-1.69016"><ele>119.08</ele></trkpt><trkpt lat="49.62472" lon="-1.69027"><ele>120.46</ele></trkpt><trkpt lat="49.62467" lon="-1.69037"><ele>121.29</ele></trkpt><trkpt lat="49.62456" lon="-1.69053"><ele>122.9</ele></trkpt><trkpt lat="49.62454" lon="-1.69057"><ele>123.42</ele></trkpt><trkpt lat="49.62453" lon="-1.69058"><ele>123.42</ele></trkpt><trkpt lat="49.62441" lon="-1.69076"><ele>126.39</ele></trkpt><trkpt lat="49.62429" lon="-1.69096"><ele>127.61</ele></trkpt><trkpt lat="49.62403" lon="-1.69135"><ele>128.38</ele></trkpt><trkpt lat="49.62397" lon="-1.69144"><ele>128.27</ele></trkpt><trkpt lat="49.62365" lon="-1.69194"><ele>130.46</ele></trkpt><trkpt lat="49.62352" lon="-1.69213"><ele>131.5</ele></trkpt><trkpt lat="49.62346" lon="-1.69222"><ele>131.72</ele></trkpt><trkpt lat="49.62339" lon="-1.69233"><ele>133.09</ele></trkpt><trkpt lat="49.6233" lon="-1.69246"><ele>134.35</ele></trkpt><trkpt lat="49.62327" lon="-1.69253"><ele>135.08</ele></trkpt><trkpt lat="49.62315" lon="-1.69273"><ele>135.54</ele></trkpt><trkpt lat="49.62291" lon="-1.69315"><ele>137.03</ele></trkpt><trkpt lat="49.62285" lon="-1.69297"><ele>137.11</ele></trkpt><trkpt lat="49.62281" lon="-1.69285"><ele>137.28</ele></trkpt><trkpt lat="49.62275" lon="-1.69273"><ele>137.48</ele></trkpt><trkpt lat="49.62271" lon="-1.69262"><ele>137.61</ele></trkpt><trkpt lat="49.62257" lon="-1.69234"><ele>138.11</ele></trkpt><trkpt lat="49.6225" lon="-1.69221"><ele>138.34</ele></trkpt><trkpt lat="49.62242" lon="-1.69205"><ele>138.65</ele></trkpt><trkpt lat="49.62241" lon="-1.69204"><ele>138.58</ele></trkpt><trkpt lat="49.62219" lon="-1.69163"><ele>138.95</ele></trkpt><trkpt lat="49.62214" lon="-1.69154"><ele>138.98</ele></trkpt><trkpt lat="49.62212" lon="-1.69151"><ele>138.98</ele></trkpt><trkpt lat="49.62207" lon="-1.69142"><ele>139.05</ele></trkpt><trkpt lat="49.62203" lon="-1.69134"><ele>139.07</ele></trkpt><trkpt lat="49.62176" lon="-1.69083"><ele>139.08</ele></trkpt><trkpt lat="49.62166" lon="-1.69064"><ele>139.1</ele></trkpt><trkpt lat="49.62162" lon="-1.69056"><ele>139.08</ele></trkpt><trkpt lat="49.62157" lon="-1.69046"><ele>139.02</ele></trkpt><trkpt lat="49.62149" lon="-1.69031"><ele>138.78</ele></trkpt><trkpt lat="49.62143" lon="-1.69018"><ele>138.53</ele></trkpt><trkpt lat="49.62136" lon="-1.69004"><ele>138.06</ele></trkpt><trkpt lat="49.6212" lon="-1.68971"><ele>137.27</ele></trkpt><trkpt lat="49.62106" lon="-1.68941"><ele>136.79</ele></trkpt><trkpt lat="49.62098" lon="-1.6892"><ele>136.34</ele></trkpt><trkpt lat="49.62078" lon="-1.68875"><ele>135.94</ele></trkpt><trkpt lat="49.62109" lon="-1.68847"><ele>135.75</ele></trkpt><trkpt lat="49.62114" lon="-1.68842"><ele>135.75</ele></trkpt><trkpt lat="49.62124" lon="-1.68833"><ele>135.33</ele></trkpt><trkpt lat="49.6213" lon="-1.68827"><ele>135.5</ele></trkpt><trkpt lat="49.6214" lon="-1.6882"><ele>135.07</ele></trkpt><trkpt lat="49.6215" lon="-1.68812"><ele>135.18</ele></trkpt><trkpt lat="49.62152" lon="-1.6881"><ele>135.04</ele></trkpt><trkpt lat="49.62156" lon="-1.68807"><ele>134.74</ele></trkpt><trkpt lat="49.6216" lon="-1.68805"><ele>135.19</ele></trkpt><trkpt lat="49.62167" lon="-1.68801"><ele>134.9</ele></trkpt><trkpt lat="49.62173" lon="-1.68798"><ele>134.41</ele></trkpt><trkpt lat="49.62174" lon="-1.68797"><ele>134.41</ele></trkpt><trkpt lat="49.6218" lon="-1.68795"><ele>134.56</ele></trkpt><trkpt lat="49.62185" lon="-1.68794"><ele>133.83</ele></trkpt><trkpt lat="49.62189" lon="-1.68793"><ele>133.85</ele></trkpt><trkpt lat="49.62194" lon="-1.68793"><ele>133.61</ele></trkpt><trkpt lat="49.62199" lon="-1.68793"><ele>133.45</ele></trkpt><trkpt lat="49.62219" lon="-1.68794"><ele>132.16</ele></trkpt><trkpt lat="49.62222" lon="-1.68795"><ele>133.18</ele></trkpt><trkpt lat="49.62225" lon="-1.68795"><ele>132.59</ele></trkpt><trkpt lat="49.62226" lon="-1.68795"><ele>132.59</ele></trkpt><trkpt lat="49.62231" lon="-1.68794"><ele>131.05</ele></trkpt><trkpt lat="49.62243" lon="-1.6879"><ele>131.72</ele></trkpt><trkpt lat="49.62248" lon="-1.68788"><ele>130.84</ele></trkpt><trkpt lat="49.62252" lon="-1.68786"><ele>129.42</ele></trkpt><trkpt lat="49.6227" lon="-1.68776"><ele>128.67</ele></trkpt><trkpt lat="49.6227" lon="-1.68777"><ele>128.67</ele></trkpt><trkpt lat="49.62274" lon="-1.68774"><ele>129.03</ele></trkpt><trkpt lat="49.62278" lon="-1.68773"><ele>127.17</ele></trkpt><trkpt lat="49.62281" lon="-1.68773"><ele>126.98</ele></trkpt><trkpt lat="49.62307" lon="-1.68774"><ele>125.1</ele></trkpt><trkpt lat="49.62311" lon="-1.68773"><ele>124.95</ele></trkpt><trkpt lat="49.62315" lon="-1.68772"><ele>124.69</ele></trkpt><trkpt lat="49.62315" lon="-1.68771"><ele>124.69</ele></trkpt><trkpt lat="49.62318" lon="-1.6877"><ele>124.69</ele></trkpt><trkpt lat="49.6232" lon="-1.68768"><ele>124.44</ele></trkpt><trkpt lat="49.62322" lon="-1.68764"><ele>124.29</ele></trkpt><trkpt lat="49.62324" lon="-1.6876"><ele>123.9</ele></trkpt><trkpt lat="49.62327" lon="-1.68752"><ele>123.94</ele></trkpt><trkpt lat="49.62328" lon="-1.6875"><ele>123.65</ele></trkpt><trkpt lat="49.62332" lon="-1.68735"><ele>123.14</ele></trkpt><trkpt lat="49.62342" lon="-1.68702"><ele>121.73</ele></trkpt><trkpt lat="49.62347" lon="-1.68683"><ele>121.1</ele></trkpt><trkpt lat="49.62356" lon="-1.68654"><ele>119.46</ele></trkpt><trkpt lat="49.62357" lon="-1.68651"><ele>120.04</ele></trkpt><trkpt lat="49.6236" lon="-1.68641"><ele>118.67</ele></trkpt><trkpt lat="49.62363" lon="-1.68627"><ele>116.82</ele></trkpt><trkpt lat="49.62364" lon="-1.68626"><ele>116.82</ele></trkpt><trkpt lat="49.62364" lon="-1.68623"><ele>116.82</ele></trkpt><trkpt lat="49.62365" lon="-1.68619"><ele>116.64</ele></trkpt><trkpt lat="49.62366" lon="-1.68615"><ele>116.89</ele></trkpt><trkpt lat="49.62367" lon="-1.6861"><ele>116.21</ele></trkpt><trkpt lat="49.62368" lon="-1.68597"><ele>115.56</ele></trkpt><trkpt lat="49.62369" lon="-1.68581"><ele>114.98</ele></trkpt><trkpt lat="49.62369" lon="-1.68577"><ele>114.79</ele></trkpt><trkpt lat="49.62369" lon="-1.6857"><ele>114.43</ele></trkpt><trkpt lat="49.62372" lon="-1.68562"><ele>113.86</ele></trkpt><trkpt lat="49.62374" lon="-1.68557"><ele>113.9</ele></trkpt><trkpt lat="49.62376" lon="-1.68552"><ele>113.45</ele></trkpt><trkpt lat="49.62378" lon="-1.68548"><ele>113.38</ele></trkpt><trkpt lat="49.62379" lon="-1.68545"><ele>113</ele></trkpt><trkpt lat="49.6238" lon="-1.68542"><ele>113</ele></trkpt><trkpt lat="49.62381" lon="-1.68539"><ele>112.79</ele></trkpt><trkpt lat="49.62381" lon="-1.68536"><ele>112.68</ele></trkpt><trkpt lat="49.62382" lon="-1.68532"><ele>112.58</ele></trkpt><trkpt lat="49.62382" lon="-1.68525"><ele>112.33</ele></trkpt><trkpt lat="49.62383" lon="-1.68522"><ele>111.9</ele></trkpt><trkpt lat="49.62383" lon="-1.6852"><ele>111.9</ele></trkpt><trkpt lat="49.62383" lon="-1.68519"><ele>111.7</ele></trkpt><trkpt lat="49.62384" lon="-1.68517"><ele>111.7</ele></trkpt><trkpt lat="49.62391" lon="-1.68499"><ele>110.43</ele></trkpt><trkpt lat="49.62392" lon="-1.68495"><ele>110</ele></trkpt><trkpt lat="49.62394" lon="-1.68492"><ele>109.68</ele></trkpt><trkpt lat="49.62396" lon="-1.68488"><ele>109.21</ele></trkpt><trkpt lat="49.62398" lon="-1.68483"><ele>108.95</ele></trkpt><trkpt lat="49.62404" lon="-1.68474"><ele>108.65</ele></trkpt><trkpt lat="49.62401" lon="-1.68472"><ele>108.49</ele></trkpt><trkpt lat="49.62399" lon="-1.6847"><ele>108.27</ele></trkpt><trkpt lat="49.62398" lon="-1.68468"><ele>108.09</ele></trkpt><trkpt lat="49.62396" lon="-1.68466"><ele>108.09</ele></trkpt><trkpt lat="49.62396" lon="-1.68464"><ele>107.97</ele></trkpt><trkpt lat="49.62395" lon="-1.68463"><ele>108.02</ele></trkpt><trkpt lat="49.6239" lon="-1.6837"><ele>103.14</ele></trkpt><trkpt lat="49.62423" lon="-1.68248"><ele>96.94</ele></trkpt><trkpt lat="49.62424" lon="-1.68166"><ele>93.91</ele></trkpt><trkpt lat="49.62464" lon="-1.68099"><ele>91.31</ele></trkpt><trkpt lat="49.62512" lon="-1.68049"><ele>88.23</ele></trkpt><trkpt lat="49.62567" lon="-1.67984"><ele>85.96</ele></trkpt><trkpt lat="49.62578" lon="-1.67921"><ele>84.25</ele></trkpt><trkpt lat="49.62595" lon="-1.6788"><ele>82.77</ele></trkpt><trkpt lat="49.6261" lon="-1.67856"><ele>82.11</ele></trkpt><trkpt lat="49.62599" lon="-1.67798"><ele>82.79</ele></trkpt><trkpt lat="49.62584" lon="-1.6776"><ele>84.4</ele></trkpt><trkpt lat="49.62602" lon="-1.67724"><ele>84.22</ele></trkpt><trkpt lat="49.62618" lon="-1.67701"><ele>84.2</ele></trkpt><trkpt lat="49.6262" lon="-1.67659"><ele>85.32</ele></trkpt><trkpt lat="49.62615" lon="-1.67616"><ele>87.66</ele></trkpt><trkpt lat="49.62577" lon="-1.67454"><ele>93.91</ele></trkpt><trkpt lat="49.62554" lon="-1.67468"><ele>95.2</ele></trkpt><trkpt lat="49.62531" lon="-1.67482"><ele>95.87</ele></trkpt><trkpt lat="49.62509" lon="-1.675"><ele>96.16</ele></trkpt><trkpt lat="49.62494" lon="-1.67514"><ele>96.37</ele></trkpt><trkpt lat="49.6249" lon="-1.67517"><ele>96.55</ele></trkpt><trkpt lat="49.62474" lon="-1.67531"><ele>97.02</ele></trkpt><trkpt lat="49.62455" lon="-1.67548"><ele>98.03</ele></trkpt><trkpt lat="49.6244" lon="-1.67563"><ele>98.99</ele></trkpt><trkpt lat="49.62425" lon="-1.67575"><ele>99.73</ele></trkpt><trkpt lat="49.62407" lon="-1.67586"><ele>101.16</ele></trkpt><trkpt lat="49.62389" lon="-1.6758"><ele>102.15</ele></trkpt><trkpt lat="49.62368" lon="-1.67564"><ele>104.26</ele></trkpt><trkpt lat="49.62358" lon="-1.67554"><ele>105.25</ele></trkpt><trkpt lat="49.62352" lon="-1.67549"><ele>105.7</ele></trkpt><trkpt lat="49.62339" lon="-1.67538"><ele>108.46</ele></trkpt><trkpt lat="49.62317" lon="-1.6752"><ele>109.86</ele></trkpt><trkpt lat="49.62302" lon="-1.67509"><ele>110.85</ele></trkpt><trkpt lat="49.62285" lon="-1.67517"><ele>113.1</ele></trkpt><trkpt lat="49.62264" lon="-1.67536"><ele>115.34</ele></trkpt><trkpt lat="49.62256" lon="-1.67542"><ele>116.54</ele></trkpt><trkpt lat="49.62247" lon="-1.67545"><ele>117.23</ele></trkpt><trkpt lat="49.62237" lon="-1.67554"><ele>118.27</ele></trkpt><trkpt lat="49.62239" lon="-1.67558"><ele>118.25</ele></trkpt><trkpt lat="49.62244" lon="-1.67572"><ele>118.19</ele></trkpt><trkpt lat="49.62248" lon="-1.67579"><ele>117.93</ele></trkpt><trkpt lat="49.62256" lon="-1.6762"><ele>118.65</ele></trkpt><trkpt lat="49.62262" lon="-1.67652"><ele>117.79</ele></trkpt><trkpt lat="49.6227" lon="-1.67669"><ele>116.84</ele></trkpt><trkpt lat="49.62259" lon="-1.67684"><ele>117.77</ele></trkpt><trkpt lat="49.62243" lon="-1.67692"><ele>119.56</ele></trkpt><trkpt lat="49.62243" lon="-1.67693"><ele>119.56</ele></trkpt><trkpt lat="49.62239" lon="-1.67694"><ele>119.97</ele></trkpt><trkpt lat="49.6222" lon="-1.67697"><ele>122.14</ele></trkpt><trkpt lat="49.62203" lon="-1.67705"><ele>124.54</ele></trkpt><trkpt lat="49.62187" lon="-1.67722"><ele>128.2</ele></trkpt><trkpt lat="49.62185" lon="-1.67725"><ele>128.36</ele></trkpt><trkpt lat="49.62176" lon="-1.67735"><ele>129.57</ele></trkpt><trkpt lat="49.62163" lon="-1.67749"><ele>131.52</ele></trkpt><trkpt lat="49.62146" lon="-1.6776"><ele>133.53</ele></trkpt><trkpt lat="49.62125" lon="-1.67767"><ele>136.25</ele></trkpt><trkpt lat="49.62123" lon="-1.67767"><ele>136.25</ele></trkpt><trkpt lat="49.62108" lon="-1.67773"><ele>138.43</ele></trkpt><trkpt lat="49.62093" lon="-1.67785"><ele>140.28</ele></trkpt><trkpt lat="49.62071" lon="-1.67794"><ele>142.22</ele></trkpt><trkpt lat="49.62059" lon="-1.67802"><ele>142.98</ele></trkpt><trkpt lat="49.6204" lon="-1.67814"><ele>143.76</ele></trkpt><trkpt lat="49.62034" lon="-1.67816"><ele>144.03</ele></trkpt><trkpt lat="49.62016" lon="-1.67817"><ele>144.43</ele></trkpt><trkpt lat="49.61995" lon="-1.67821"><ele>145.2</ele></trkpt><trkpt lat="49.61987" lon="-1.6782"><ele>145.5</ele></trkpt><trkpt lat="49.61982" lon="-1.67822"><ele>145.55</ele></trkpt><trkpt lat="49.6197" lon="-1.67823"><ele>145.63</ele></trkpt><trkpt lat="49.61964" lon="-1.67822"><ele>145.63</ele></trkpt><trkpt lat="49.61945" lon="-1.67818"><ele>145.87</ele></trkpt><trkpt lat="49.61926" lon="-1.67817"><ele>146.13</ele></trkpt><trkpt lat="49.61918" lon="-1.67819"><ele>146.21</ele></trkpt><trkpt lat="49.61905" lon="-1.67822"><ele>146.27</ele></trkpt><trkpt lat="49.6189" lon="-1.67833"><ele>146.31</ele></trkpt><trkpt lat="49.61889" lon="-1.67835"><ele>146.35</ele></trkpt><trkpt lat="49.61872" lon="-1.67848"><ele>146.24</ele></trkpt><trkpt lat="49.61864" lon="-1.67861"><ele>146.04</ele></trkpt><trkpt lat="49.6186" lon="-1.67868"><ele>145.86</ele></trkpt><trkpt lat="49.61855" lon="-1.67877"><ele>145.64</ele></trkpt><trkpt lat="49.61852" lon="-1.67879"><ele>145.66</ele></trkpt><trkpt lat="49.61843" lon="-1.67888"><ele>145.55</ele></trkpt><trkpt lat="49.61827" lon="-1.67907"><ele>145.17</ele></trkpt><trkpt lat="49.61813" lon="-1.67924"><ele>145.23</ele></trkpt><trkpt lat="49.61793" lon="-1.67944"><ele>145.36</ele></trkpt><trkpt lat="49.61775" lon="-1.67962"><ele>145.29</ele></trkpt><trkpt lat="49.61772" lon="-1.67963"><ele>145.28</ele></trkpt><trkpt lat="49.61749" lon="-1.67976"><ele>145.36</ele></trkpt><trkpt lat="49.61746" lon="-1.67979"><ele>145.44</ele></trkpt><trkpt lat="49.61742" lon="-1.6798"><ele>145.27</ele></trkpt><trkpt lat="49.61726" lon="-1.67985"><ele>145.48</ele></trkpt><trkpt lat="49.61709" lon="-1.67991"><ele>145.62</ele></trkpt><trkpt lat="49.61701" lon="-1.67993"><ele>145.56</ele></trkpt><trkpt lat="49.61692" lon="-1.6799"><ele>145.59</ele></trkpt><trkpt lat="49.61689" lon="-1.67989"><ele>145.45</ele></trkpt><trkpt lat="49.61671" lon="-1.67975"><ele>145.49</ele></trkpt><trkpt lat="49.61666" lon="-1.67974"><ele>145.31</ele></trkpt><trkpt lat="49.61661" lon="-1.67971"><ele>145.23</ele></trkpt><trkpt lat="49.61647" lon="-1.67961"><ele>144.24</ele></trkpt><trkpt lat="49.61628" lon="-1.6795"><ele>143</ele></trkpt><trkpt lat="49.61611" lon="-1.67944"><ele>141.81</ele></trkpt><trkpt lat="49.61595" lon="-1.67936"><ele>140.63</ele></trkpt><trkpt lat="49.61577" lon="-1.67929"><ele>139.4</ele></trkpt><trkpt lat="49.61557" lon="-1.67917"><ele>137.87</ele></trkpt><trkpt lat="49.61549" lon="-1.67911"><ele>137.25</ele></trkpt><trkpt lat="49.6153" lon="-1.67897"><ele>135.85</ele></trkpt><trkpt lat="49.61528" lon="-1.67893"><ele>135.61</ele></trkpt><trkpt lat="49.61526" lon="-1.67887"><ele>135.51</ele></trkpt><trkpt lat="49.61527" lon="-1.67857"><ele>135.16</ele></trkpt><trkpt lat="49.61528" lon="-1.67827"><ele>134.81</ele></trkpt><trkpt lat="49.61532" lon="-1.67802"><ele>134.61</ele></trkpt><trkpt lat="49.61535" lon="-1.67785"><ele>134.78</ele></trkpt><trkpt lat="49.61537" lon="-1.67779"><ele>134.74</ele></trkpt><trkpt lat="49.61543" lon="-1.67748"><ele>135.28</ele></trkpt><trkpt lat="49.61543" lon="-1.67744"><ele>135.25</ele></trkpt><trkpt lat="49.61546" lon="-1.67712"><ele>135.23</ele></trkpt><trkpt lat="49.61543" lon="-1.67692"><ele>134.74</ele></trkpt><trkpt lat="49.61529" lon="-1.6767"><ele>133.61</ele></trkpt><trkpt lat="49.61517" lon="-1.67649"><ele>132.17</ele></trkpt><trkpt lat="49.61504" lon="-1.6763"><ele>130.71</ele></trkpt><trkpt lat="49.61498" lon="-1.67623"><ele>129.44</ele></trkpt><trkpt lat="49.61481" lon="-1.67605"><ele>127.27</ele></trkpt><trkpt lat="49.61476" lon="-1.67596"><ele>126.37</ele></trkpt><trkpt lat="49.61464" lon="-1.67577"><ele>123.74</ele></trkpt><trkpt lat="49.61448" lon="-1.67554"><ele>120.76</ele></trkpt><trkpt lat="49.61441" lon="-1.67526"><ele>118.58</ele></trkpt><trkpt lat="49.6144" lon="-1.67515"><ele>117.83</ele></trkpt><trkpt lat="49.61447" lon="-1.67493"><ele>117.01</ele></trkpt><trkpt lat="49.61449" lon="-1.67488"><ele>117.33</ele></trkpt><trkpt lat="49.61458" lon="-1.6747"><ele>117.05</ele></trkpt><trkpt lat="49.61476" lon="-1.6745"><ele>117.92</ele></trkpt><trkpt lat="49.61479" lon="-1.67443"><ele>118.21</ele></trkpt><trkpt lat="49.61482" lon="-1.67433"><ele>118.18</ele></trkpt><trkpt lat="49.61486" lon="-1.67431"><ele>118.89</ele></trkpt><trkpt lat="49.61492" lon="-1.67416"><ele>117.93</ele></trkpt><trkpt lat="49.61493" lon="-1.67412"><ele>117.69</ele></trkpt><trkpt lat="49.61494" lon="-1.67409"><ele>117.69</ele></trkpt><trkpt lat="49.615" lon="-1.67395"><ele>118.23</ele></trkpt><trkpt lat="49.61511" lon="-1.6738"><ele>118.93</ele></trkpt><trkpt lat="49.61518" lon="-1.67373"><ele>119.66</ele></trkpt><trkpt lat="49.61531" lon="-1.67357"><ele>120.85</ele></trkpt><trkpt lat="49.6154" lon="-1.67345"><ele>121.46</ele></trkpt><trkpt lat="49.61543" lon="-1.67343"><ele>121.86</ele></trkpt><trkpt lat="49.61548" lon="-1.67332"><ele>122.22</ele></trkpt><trkpt lat="49.61552" lon="-1.67323"><ele>122.64</ele></trkpt><trkpt lat="49.61556" lon="-1.67311"><ele>122.62</ele></trkpt><trkpt lat="49.6156" lon="-1.673"><ele>122.58</ele></trkpt><trkpt lat="49.61569" lon="-1.67281"><ele>123.09</ele></trkpt><trkpt lat="49.61571" lon="-1.67278"><ele>122.86</ele></trkpt><trkpt lat="49.61575" lon="-1.67267"><ele>123.1</ele></trkpt><trkpt lat="49.61586" lon="-1.67241"><ele>123.64</ele></trkpt><trkpt lat="49.61593" lon="-1.67215"><ele>123</ele></trkpt><trkpt lat="49.61597" lon="-1.67208"><ele>123.38</ele></trkpt><trkpt lat="49.61604" lon="-1.67196"><ele>124.3</ele></trkpt><trkpt lat="49.6162" lon="-1.67169"><ele>124.96</ele></trkpt><trkpt lat="49.61628" lon="-1.67149"><ele>124.88</ele></trkpt><trkpt lat="49.6163" lon="-1.67139"><ele>124.65</ele></trkpt><trkpt lat="49.61637" lon="-1.67122"><ele>124.71</ele></trkpt><trkpt lat="49.61645" lon="-1.67104"><ele>124.85</ele></trkpt><trkpt lat="49.61657" lon="-1.67073"><ele>124.42</ele></trkpt><trkpt lat="49.61669" lon="-1.67044"><ele>124.76</ele></trkpt><trkpt lat="49.6168" lon="-1.67015"><ele>125.15</ele></trkpt><trkpt lat="49.6169" lon="-1.66988"><ele>125.26</ele></trkpt><trkpt lat="49.61691" lon="-1.66985"><ele>125.17</ele></trkpt><trkpt lat="49.61703" lon="-1.66956"><ele>125.28</ele></trkpt><trkpt lat="49.61703" lon="-1.66955"><ele>125.28</ele></trkpt><trkpt lat="49.61711" lon="-1.66927"><ele>124.86</ele></trkpt><trkpt lat="49.61718" lon="-1.66897"><ele>124.52</ele></trkpt><trkpt lat="49.61721" lon="-1.66858"><ele>123.99</ele></trkpt><trkpt lat="49.61725" lon="-1.66822"><ele>124.3</ele></trkpt><trkpt lat="49.61736" lon="-1.66786"><ele>125.9</ele></trkpt><trkpt lat="49.61749" lon="-1.66757"><ele>127.06</ele></trkpt><trkpt lat="49.61763" lon="-1.66732"><ele>128.66</ele></trkpt><trkpt lat="49.6178" lon="-1.66711"><ele>130.44</ele></trkpt><trkpt lat="49.61798" lon="-1.66689"><ele>131.83</ele></trkpt><trkpt lat="49.61816" lon="-1.66665"><ele>133.03</ele></trkpt><trkpt lat="49.61833" lon="-1.66664"><ele>133.99</ele></trkpt><trkpt lat="49.61854" lon="-1.66668"><ele>135.45</ele></trkpt><trkpt lat="49.61882" lon="-1.66678"><ele>136.74</ele></trkpt><trkpt lat="49.61911" lon="-1.66689"><ele>136.23</ele></trkpt><trkpt lat="49.61928" lon="-1.66703"><ele>136.55</ele></trkpt><trkpt lat="49.61932" lon="-1.66706"><ele>136.52</ele></trkpt><trkpt lat="49.61938" lon="-1.66709"><ele>136.74</ele></trkpt><trkpt lat="49.61956" lon="-1.6672"><ele>137.05</ele></trkpt><trkpt lat="49.61976" lon="-1.66728"><ele>137.95</ele></trkpt><trkpt lat="49.61981" lon="-1.66731"><ele>137.58</ele></trkpt><trkpt lat="49.61985" lon="-1.66727"><ele>137.66</ele></trkpt><trkpt lat="49.61993" lon="-1.66699"><ele>137.77</ele></trkpt><trkpt lat="49.61997" lon="-1.6667"><ele>137.84</ele></trkpt><trkpt lat="49.62001" lon="-1.66657"><ele>137.82</ele></trkpt><trkpt lat="49.62004" lon="-1.66646"><ele>137.82</ele></trkpt><trkpt lat="49.62009" lon="-1.66654"><ele>137.79</ele></trkpt><trkpt lat="49.62012" lon="-1.66662"><ele>137.77</ele></trkpt><trkpt lat="49.62015" lon="-1.66666"><ele>138.11</ele></trkpt><trkpt lat="49.62029" lon="-1.66683"><ele>138.36</ele></trkpt><trkpt lat="49.62035" lon="-1.66689"><ele>138.48</ele></trkpt><trkpt lat="49.62037" lon="-1.66689"><ele>138.54</ele></trkpt><trkpt lat="49.6205" lon="-1.6666"><ele>138.84</ele></trkpt><trkpt lat="49.62054" lon="-1.66645"><ele>138.87</ele></trkpt><trkpt lat="49.62061" lon="-1.66618"><ele>138.82</ele></trkpt><trkpt lat="49.62066" lon="-1.66607"><ele>138.81</ele></trkpt><trkpt lat="49.62086" lon="-1.66594"><ele>138.46</ele></trkpt><trkpt lat="49.62097" lon="-1.66578"><ele>138.83</ele></trkpt><trkpt lat="49.62109" lon="-1.66567"><ele>138.16</ele></trkpt><trkpt lat="49.62113" lon="-1.66569"><ele>138.25</ele></trkpt><trkpt lat="49.62129" lon="-1.66586"><ele>138.06</ele></trkpt><trkpt lat="49.62132" lon="-1.66588"><ele>137.97</ele></trkpt><trkpt lat="49.62155" lon="-1.66607"><ele>137.2</ele></trkpt><trkpt lat="49.62158" lon="-1.6661"><ele>136.95</ele></trkpt><trkpt lat="49.62176" lon="-1.66629"><ele>135.46</ele></trkpt><trkpt lat="49.62197" lon="-1.66651"><ele>132.88</ele></trkpt><trkpt lat="49.62213" lon="-1.66669"><ele>129.83</ele></trkpt><trkpt lat="49.6222" lon="-1.66678"><ele>128.21</ele></trkpt><trkpt lat="49.62238" lon="-1.66699"><ele>125.63</ele></trkpt><trkpt lat="49.62245" lon="-1.66707"><ele>125.06</ele></trkpt><trkpt lat="49.62265" lon="-1.66727"><ele>123.03</ele></trkpt><trkpt lat="49.62289" lon="-1.66751"><ele>121.21</ele></trkpt><trkpt lat="49.62305" lon="-1.66767"><ele>119.7</ele></trkpt><trkpt lat="49.62321" lon="-1.66789"><ele>117.11</ele></trkpt><trkpt lat="49.62344" lon="-1.66803"><ele>115.17</ele></trkpt><trkpt lat="49.62354" lon="-1.66809"><ele>113.88</ele></trkpt><trkpt lat="49.62369" lon="-1.66814"><ele>112.69</ele></trkpt><trkpt lat="49.62372" lon="-1.66816"><ele>112.56</ele></trkpt><trkpt lat="49.62376" lon="-1.66819"><ele>111.74</ele></trkpt><trkpt lat="49.62396" lon="-1.66832"><ele>108.6</ele></trkpt><trkpt lat="49.62412" lon="-1.66847"><ele>105.08</ele></trkpt><trkpt lat="49.62418" lon="-1.66853"><ele>103.44</ele></trkpt><trkpt lat="49.62428" lon="-1.66869"><ele>101.3</ele></trkpt><trkpt lat="49.62429" lon="-1.66871"><ele>101.3</ele></trkpt><trkpt lat="49.6243" lon="-1.66878"><ele>100.65</ele></trkpt><trkpt lat="49.62428" lon="-1.66893"><ele>99.43</ele></trkpt><trkpt lat="49.62424" lon="-1.66914"><ele>99.08</ele></trkpt><trkpt lat="49.62421" lon="-1.66917"><ele>99.3</ele></trkpt><trkpt lat="49.62409" lon="-1.66935"><ele>99.14</ele></trkpt><trkpt lat="49.624" lon="-1.6695"><ele>100.35</ele></trkpt><trkpt lat="49.62385" lon="-1.66971"><ele>102.83</ele></trkpt><trkpt lat="49.62376" lon="-1.66987"><ele>103.97</ele></trkpt><trkpt lat="49.62372" lon="-1.6699"><ele>104.31</ele></trkpt><trkpt lat="49.62368" lon="-1.66996"><ele>104.64</ele></trkpt><trkpt lat="49.62365" lon="-1.67004"><ele>105.09</ele></trkpt><trkpt lat="49.6235" lon="-1.67047"><ele>105.43</ele></trkpt><trkpt lat="49.62335" lon="-1.67075"><ele>106.33</ele></trkpt><trkpt lat="49.62324" lon="-1.67087"><ele>106.95</ele></trkpt><trkpt lat="49.62317" lon="-1.67104"><ele>106.88</ele></trkpt><trkpt lat="49.62307" lon="-1.67121"><ele>107.47</ele></trkpt><trkpt lat="49.62296" lon="-1.67136"><ele>108.65</ele></trkpt><trkpt lat="49.62291" lon="-1.67145"><ele>109.02</ele></trkpt><trkpt lat="49.6228" lon="-1.67168"><ele>109.86</ele></trkpt><trkpt lat="49.62261" lon="-1.67198"><ele>111.58</ele></trkpt><trkpt lat="49.62225" lon="-1.67246"><ele>115.02</ele></trkpt><trkpt lat="49.62185" lon="-1.67298"><ele>118.95</ele></trkpt><trkpt lat="49.6217" lon="-1.67326"><ele>119.7</ele></trkpt><trkpt lat="49.62168" lon="-1.6733"><ele>119.98</ele></trkpt><trkpt lat="49.62162" lon="-1.67344"><ele>120.16</ele></trkpt><trkpt lat="49.62155" lon="-1.67351"><ele>120.75</ele></trkpt><trkpt lat="49.62152" lon="-1.67367"><ele>120.94</ele></trkpt><trkpt lat="49.62153" lon="-1.67368"><ele>120.94</ele></trkpt><trkpt lat="49.62173" lon="-1.67386"><ele>119.94</ele></trkpt><trkpt lat="49.62175" lon="-1.67389"><ele>120.09</ele></trkpt><trkpt lat="49.62179" lon="-1.67392"><ele>119.88</ele></trkpt><trkpt lat="49.62184" lon="-1.67398"><ele>119.66</ele></trkpt><trkpt lat="49.6219" lon="-1.67407"><ele>119.18</ele></trkpt><trkpt lat="49.62194" lon="-1.67416"><ele>119.17</ele></trkpt><trkpt lat="49.62205" lon="-1.67431"><ele>119.06</ele></trkpt><trkpt lat="49.62215" lon="-1.67445"><ele>118.7</ele></trkpt><trkpt lat="49.62222" lon="-1.67473"><ele>118.25</ele></trkpt><trkpt lat="49.62223" lon="-1.67482"><ele>118.34</ele></trkpt><trkpt lat="49.62228" lon="-1.67506"><ele>118.3</ele></trkpt><trkpt lat="49.62237" lon="-1.67531"><ele>117.74</ele></trkpt><trkpt lat="49.62239" lon="-1.67543"><ele>118.08</ele></trkpt><trkpt lat="49.62287" lon="-1.67508"><ele>112.76</ele></trkpt><trkpt lat="49.62304" lon="-1.67333"><ele>108.56</ele></trkpt><trkpt lat="49.62333" lon="-1.67264"><ele>105.46</ele></trkpt><trkpt lat="49.62387" lon="-1.67212"><ele>98.98</ele></trkpt><trkpt lat="49.62537" lon="-1.67039"><ele>86.14</ele></trkpt><trkpt lat="49.62681" lon="-1.67047"><ele>81.66</ele></trkpt><trkpt lat="49.6271" lon="-1.67074"><ele>84.51</ele></trkpt><trkpt lat="49.62725" lon="-1.67094"><ele>84.5</ele></trkpt><trkpt lat="49.62746" lon="-1.67148"><ele>86.77</ele></trkpt><trkpt lat="49.6277" lon="-1.67264"><ele>91.15</ele></trkpt><trkpt lat="49.62753" lon="-1.67287"><ele>91.78</ele></trkpt><trkpt lat="49.6276" lon="-1.67305"><ele>92.08</ele></trkpt><trkpt lat="49.62818" lon="-1.67608"><ele>84.32</ele></trkpt><trkpt lat="49.62794" lon="-1.67662"><ele>79.06</ele></trkpt><trkpt lat="49.62791" lon="-1.677"><ele>77.25</ele></trkpt><trkpt lat="49.62797" lon="-1.67717"><ele>76.79</ele></trkpt><trkpt lat="49.62806" lon="-1.67737"><ele>77.73</ele></trkpt><trkpt lat="49.6282" lon="-1.67792"><ele>82.8</ele></trkpt><trkpt lat="49.62826" lon="-1.67834"><ele>86.02</ele></trkpt><trkpt lat="49.62826" lon="-1.6785"><ele>87.55</ele></trkpt><trkpt lat="49.62823" lon="-1.67885"><ele>89.92</ele></trkpt><trkpt lat="49.6282" lon="-1.67891"><ele>89.72</ele></trkpt><trkpt lat="49.62818" lon="-1.67902"><ele>90.7</ele></trkpt><trkpt lat="49.62817" lon="-1.67933"><ele>92.06</ele></trkpt><trkpt lat="49.62814" lon="-1.67952"><ele>93.03</ele></trkpt><trkpt lat="49.6281" lon="-1.67971"><ele>93.6</ele></trkpt><trkpt lat="49.6281" lon="-1.67994"><ele>94.32</ele></trkpt><trkpt lat="49.62808" lon="-1.67997"><ele>94.39</ele></trkpt><trkpt lat="49.62805" lon="-1.6802"><ele>94.58</ele></trkpt><trkpt lat="49.62803" lon="-1.6803"><ele>94.06</ele></trkpt><trkpt lat="49.62801" lon="-1.68048"><ele>94.92</ele></trkpt><trkpt lat="49.62801" lon="-1.68069"><ele>96.18</ele></trkpt><trkpt lat="49.62799" lon="-1.681"><ele>96.94</ele></trkpt><trkpt lat="49.62797" lon="-1.68118"><ele>97.05</ele></trkpt><trkpt lat="49.62796" lon="-1.6812"><ele>97.05</ele></trkpt><trkpt lat="49.62792" lon="-1.6814"><ele>97.5</ele></trkpt><trkpt lat="49.62787" lon="-1.68167"><ele>97.95</ele></trkpt><trkpt lat="49.62782" lon="-1.68186"><ele>98.37</ele></trkpt><trkpt lat="49.62774" lon="-1.68207"><ele>98.75</ele></trkpt><trkpt lat="49.62762" lon="-1.68237"><ele>98.62</ele></trkpt><trkpt lat="49.62763" lon="-1.68252"><ele>99.65</ele></trkpt><trkpt lat="49.62774" lon="-1.68266"><ele>99.86</ele></trkpt><trkpt lat="49.62774" lon="-1.68278"><ele>100.04</ele></trkpt><trkpt lat="49.62775" lon="-1.68295"><ele>100.44</ele></trkpt><trkpt lat="49.62776" lon="-1.68323"><ele>100.34</ele></trkpt><trkpt lat="49.62783" lon="-1.68371"><ele>99.07</ele></trkpt><trkpt lat="49.62785" lon="-1.68401"><ele>97.48</ele></trkpt><trkpt lat="49.6279" lon="-1.6844"><ele>94.21</ele></trkpt><trkpt lat="49.62792" lon="-1.68458"><ele>92.64</ele></trkpt><trkpt lat="49.62791" lon="-1.68485"><ele>91.91</ele></trkpt><trkpt lat="49.62791" lon="-1.68523"><ele>90.55</ele></trkpt><trkpt lat="49.62796" lon="-1.68552"><ele>89.9</ele></trkpt><trkpt lat="49.62788" lon="-1.68568"><ele>90.79</ele></trkpt><trkpt lat="49.62786" lon="-1.6857"><ele>91.09</ele></trkpt><trkpt lat="49.6277" lon="-1.68596"><ele>92.33</ele></trkpt><trkpt lat="49.62769" lon="-1.68598"><ele>93.01</ele></trkpt><trkpt lat="49.62765" lon="-1.68608"><ele>92.49</ele></trkpt><trkpt lat="49.62751" lon="-1.68606"><ele>94.99</ele></trkpt><trkpt lat="49.6274" lon="-1.68591"><ele>95.02</ele></trkpt><trkpt lat="49.62739" lon="-1.68589"><ele>95.02</ele></trkpt><trkpt lat="49.62731" lon="-1.68584"><ele>97.27</ele></trkpt><trkpt lat="49.62717" lon="-1.68571"><ele>102.71</ele></trkpt><trkpt lat="49.62702" lon="-1.68555"><ele>104.51</ele></trkpt><trkpt lat="49.627" lon="-1.68552"><ele>105.27</ele></trkpt><trkpt lat="49.62683" lon="-1.68541"><ele>105.71</ele></trkpt><trkpt lat="49.62676" lon="-1.68539"><ele>105.77</ele></trkpt><trkpt lat="49.62668" lon="-1.68548"><ele>108.45</ele></trkpt><trkpt lat="49.6266" lon="-1.68562"><ele>108.61</ele></trkpt><trkpt lat="49.62629" lon="-1.68636"><ele>111.21</ele></trkpt><trkpt lat="49.62612" lon="-1.68678"><ele>111.82</ele></trkpt><trkpt lat="49.62578" lon="-1.68643"><ele>114.11</ele></trkpt><trkpt lat="49.62559" lon="-1.68622"><ele>115.6</ele></trkpt><trkpt lat="49.62545" lon="-1.68617"><ele>115.43</ele></trkpt><trkpt lat="49.62535" lon="-1.68598"><ele>115.99</ele></trkpt><trkpt lat="49.62534" lon="-1.68601"><ele>115.99</ele></trkpt><trkpt lat="49.62533" lon="-1.686"><ele>115.99</ele></trkpt><trkpt lat="49.6253" lon="-1.68597"><ele>116.24</ele></trkpt><trkpt lat="49.62519" lon="-1.68584"><ele>116.19</ele></trkpt><trkpt lat="49.62519" lon="-1.68583"><ele>116.19</ele></trkpt><trkpt lat="49.62515" lon="-1.68579"><ele>116.09</ele></trkpt><trkpt lat="49.62508" lon="-1.6857"><ele>115.9</ele></trkpt><trkpt lat="49.62505" lon="-1.6856"><ele>115.78</ele></trkpt><trkpt lat="49.62503" lon="-1.68556"><ele>115.92</ele></trkpt><trkpt lat="49.62502" lon="-1.68555"><ele>115.45</ele></trkpt><trkpt lat="49.62503" lon="-1.68556"><ele>115.92</ele></trkpt><trkpt lat="49.62503" lon="-1.68557"><ele>115.92</ele></trkpt><trkpt lat="49.62503" lon="-1.68556"><ele>115.92</ele></trkpt><trkpt lat="49.62502" lon="-1.68554"><ele>115.6</ele></trkpt></trkseg></trk></gpx>
