<?xml version="1.0" encoding="UTF-8" standalone="no"?>
<gpx xmlns="http://www.topografix.com/GPX/1/1" version="1.1" xmlns:xsi="http://www.w3.org/2001/XMLSchema-instance" xsi:schemaLocation="http://www.topografix.com/GPX/1/1 http://www.topografix.com/GPX/1/1/gpx.xsd" creator="Cirkwi"><metadata><name><![CDATA[Les Maraîchers du littoral]]></name><desc><![CDATA[Offrez-vous une balade entre terre et mer grâce au circuit de Montfarville. Côté terre, admirez les œuvres du talentueux peintre Guillaume Fouace dans l’église de Montfarville et explorez cette commune agréablement fleurie. Côté mer, longez la côte. La lumière changeante et le panorama sur le phare de Gatteville vous offrent un spectacle unique sur l’horizon. Nature et patrimoine sont au rendez-vous pour vous étonner ! Partez du parking face à l'église, place du 8 mai. Prenez la rue des Pestils sur la droite, puis le chemin sur la droite (Montfarville). Coordonnées GPS : 49°39'17.445"N, 1°16'7.455"W Suivez le circuit selon le sens des aiguilles d'une montre. Le balisage est de couleur jaune. Vous retrouverez ce circuit dans les topoguides "Val-de-Saire - de Barfleur aux plages du D-DAY" et " Hors des Sentiers Battus " de l'Office de tourisme du Cotentin.   Certains chemins peuvent être humides en hiver, prévoyez des chaussures adaptées. Certains portions littorales sont soumises à l'érosion. Départ accessible avec le réseau de bus Cap Cotentin à l'arrêt "Montfarville- Mairie" (à 300 m du départ) (plus d'infos sur capcotentin.fr)]]></desc><author><name><![CDATA[Cotentin unique]]></name></author><link href="http://fichier0.cirkwi.com/image/photo/circuit/1300x1300/220503/fr/0.jpg"><text><![CDATA[|]]></text></link><link href="http://fichier0.cirkwi.com/image/photo/circuit/1300x1300/220503/fr/1.jpg"><text><![CDATA[|]]></text></link><link href="http://fichier0.cirkwi.com/image/photo/circuit/1300x1300/220503/fr/2.jpg"><text><![CDATA[|]]></text></link><time>2026-08-06T09:18:38Z</time></metadata><trk><trkseg><trkpt lat="49.65483" lon="-1.26967"><ele>12.79</ele></trkpt><trkpt lat="49.65484" lon="-1.26972"><ele>12.72</ele></trkpt><trkpt lat="49.65484" lon="-1.26991"><ele>12.45</ele></trkpt><trkpt lat="49.65492" lon="-1.26994"><ele>12.33</ele></trkpt><trkpt lat="49.65499" lon="-1.26997"><ele>12.21</ele></trkpt><trkpt lat="49.6551" lon="-1.27003"><ele>12.12</ele></trkpt><trkpt lat="49.65544" lon="-1.27017"><ele>11.88</ele></trkpt><trkpt lat="49.65563" lon="-1.27018"><ele>11.71</ele></trkpt><trkpt lat="49.65601" lon="-1.27022"><ele>12.16</ele></trkpt><trkpt lat="49.65605" lon="-1.27025"><ele>12.28</ele></trkpt><trkpt lat="49.65606" lon="-1.27018"><ele>12.44</ele></trkpt><trkpt lat="49.65608" lon="-1.27014"><ele>12.46</ele></trkpt><trkpt lat="49.65612" lon="-1.27012"><ele>12.63</ele></trkpt><trkpt lat="49.65627" lon="-1.27006"><ele>13</ele></trkpt><trkpt lat="49.65631" lon="-1.27005"><ele>13.25</ele></trkpt><trkpt lat="49.65638" lon="-1.27002"><ele>13.73</ele></trkpt><trkpt lat="49.65645" lon="-1.26995"><ele>14.2</ele></trkpt><trkpt lat="49.65663" lon="-1.26974"><ele>14.5</ele></trkpt><trkpt lat="49.65689" lon="-1.26943"><ele>15.34</ele></trkpt><trkpt lat="49.65691" lon="-1.26941"><ele>15.34</ele></trkpt><trkpt lat="49.65714" lon="-1.26911"><ele>15.59</ele></trkpt><trkpt lat="49.65717" lon="-1.26907"><ele>15.5</ele></trkpt><trkpt lat="49.65739" lon="-1.26876"><ele>15.47</ele></trkpt><trkpt lat="49.65739" lon="-1.26871"><ele>15.17</ele></trkpt><trkpt lat="49.65741" lon="-1.26871"><ele>15.17</ele></trkpt><trkpt lat="49.65741" lon="-1.26869"><ele>15.11</ele></trkpt><trkpt lat="49.65756" lon="-1.26871"><ele>15.78</ele></trkpt><trkpt lat="49.65763" lon="-1.26875"><ele>16.02</ele></trkpt><trkpt lat="49.65789" lon="-1.26887"><ele>15.85</ele></trkpt><trkpt lat="49.65817" lon="-1.26899"><ele>15.5</ele></trkpt><trkpt lat="49.65841" lon="-1.26909"><ele>15.04</ele></trkpt><trkpt lat="49.65854" lon="-1.26915"><ele>14.74</ele></trkpt><trkpt lat="49.6589" lon="-1.26937"><ele>14.08</ele></trkpt><trkpt lat="49.65927" lon="-1.26963"><ele>13.84</ele></trkpt><trkpt lat="49.65949" lon="-1.26988"><ele>13.8</ele></trkpt><trkpt lat="49.65961" lon="-1.27006"><ele>13.51</ele></trkpt><trkpt lat="49.65971" lon="-1.27026"><ele>13.31</ele></trkpt><trkpt lat="49.6598" lon="-1.27035"><ele>12.96</ele></trkpt><trkpt lat="49.65992" lon="-1.27041"><ele>12.68</ele></trkpt><trkpt lat="49.66037" lon="-1.27056"><ele>12.18</ele></trkpt><trkpt lat="49.66069" lon="-1.27066"><ele>11.68</ele></trkpt><trkpt lat="49.66083" lon="-1.27057"><ele>11.55</ele></trkpt><trkpt lat="49.66126" lon="-1.27037"><ele>11.38</ele></trkpt><trkpt lat="49.6615" lon="-1.27031"><ele>11.28</ele></trkpt><trkpt lat="49.66189" lon="-1.27023"><ele>10.55</ele></trkpt><trkpt lat="49.6621" lon="-1.27013"><ele>10.06</ele></trkpt><trkpt lat="49.6622" lon="-1.27006"><ele>10.04</ele></trkpt><trkpt lat="49.66221" lon="-1.26986"><ele>10</ele></trkpt><trkpt lat="49.66215" lon="-1.26971"><ele>9.88</ele></trkpt><trkpt lat="49.66199" lon="-1.26942"><ele>9.73</ele></trkpt><trkpt lat="49.66179" lon="-1.26909"><ele>10.35</ele></trkpt><trkpt lat="49.66167" lon="-1.26888"><ele>10.64</ele></trkpt><trkpt lat="49.66164" lon="-1.26876"><ele>10.24</ele></trkpt><trkpt lat="49.66168" lon="-1.26864"><ele>9.92</ele></trkpt><trkpt lat="49.66191" lon="-1.26829"><ele>9.79</ele></trkpt><trkpt lat="49.66225" lon="-1.26783"><ele>9.46</ele></trkpt><trkpt lat="49.66243" lon="-1.26759"><ele>9.33</ele></trkpt><trkpt lat="49.66247" lon="-1.26751"><ele>9.08</ele></trkpt><trkpt lat="49.66249" lon="-1.2674"><ele>9.08</ele></trkpt><trkpt lat="49.66246" lon="-1.2673"><ele>9.04</ele></trkpt><trkpt lat="49.6624" lon="-1.26716"><ele>8.75</ele></trkpt><trkpt lat="49.66224" lon="-1.26677"><ele>8.46</ele></trkpt><trkpt lat="49.66212" lon="-1.2664"><ele>8.23</ele></trkpt><trkpt lat="49.66197" lon="-1.266"><ele>8.08</ele></trkpt><trkpt lat="49.66183" lon="-1.26559"><ele>7.92</ele></trkpt><trkpt lat="49.66174" lon="-1.26532"><ele>7.62</ele></trkpt><trkpt lat="49.66168" lon="-1.26506"><ele>7.37</ele></trkpt><trkpt lat="49.66165" lon="-1.26483"><ele>7.1</ele></trkpt><trkpt lat="49.66161" lon="-1.26447"><ele>6.49</ele></trkpt><trkpt lat="49.66155" lon="-1.26402"><ele>5.76</ele></trkpt><trkpt lat="49.6615" lon="-1.26372"><ele>5.28</ele></trkpt><trkpt lat="49.66141" lon="-1.26343"><ele>5.02</ele></trkpt><trkpt lat="49.66127" lon="-1.26316"><ele>4.68</ele></trkpt><trkpt lat="49.66121" lon="-1.26284"><ele>4.78</ele></trkpt><trkpt lat="49.66121" lon="-1.26264"><ele>4.93</ele></trkpt><trkpt lat="49.66121" lon="-1.26232"><ele>5.26</ele></trkpt><trkpt lat="49.6612" lon="-1.26188"><ele>5.89</ele></trkpt><trkpt lat="49.66117" lon="-1.26114"><ele>6.49</ele></trkpt><trkpt lat="49.6613" lon="-1.26114"><ele>6.6</ele></trkpt><trkpt lat="49.66155" lon="-1.26116"><ele>6.75</ele></trkpt><trkpt lat="49.66191" lon="-1.26122"><ele>7.07</ele></trkpt><trkpt lat="49.6622" lon="-1.26126"><ele>6.98</ele></trkpt><trkpt lat="49.66239" lon="-1.26133"><ele>6.89</ele></trkpt><trkpt lat="49.66261" lon="-1.26138"><ele>6.84</ele></trkpt><trkpt lat="49.66266" lon="-1.26118"><ele>7.36</ele></trkpt><trkpt lat="49.66267" lon="-1.26094"><ele>7.91</ele></trkpt><trkpt lat="49.66267" lon="-1.26082"><ele>8.34</ele></trkpt><trkpt lat="49.66269" lon="-1.26077"><ele>8.46</ele></trkpt><trkpt lat="49.6628" lon="-1.2606"><ele>8.92</ele></trkpt><trkpt lat="49.66296" lon="-1.26029"><ele>8.92</ele></trkpt><trkpt lat="49.66307" lon="-1.26009"><ele>8.64</ele></trkpt><trkpt lat="49.66323" lon="-1.25989"><ele>8.27</ele></trkpt><trkpt lat="49.66335" lon="-1.25979"><ele>8.15</ele></trkpt><trkpt lat="49.66357" lon="-1.25959"><ele>8</ele></trkpt><trkpt lat="49.66383" lon="-1.2593"><ele>7.64</ele></trkpt><trkpt lat="49.66402" lon="-1.25911"><ele>7.63</ele></trkpt><trkpt lat="49.66433" lon="-1.25884"><ele>7.88</ele></trkpt><trkpt lat="49.66468" lon="-1.25854"><ele>7.75</ele></trkpt><trkpt lat="49.66496" lon="-1.25836"><ele>7.59</ele></trkpt><trkpt lat="49.6651" lon="-1.25824"><ele>7.2</ele></trkpt><trkpt lat="49.66516" lon="-1.25824"><ele>7.15</ele></trkpt><trkpt lat="49.66535" lon="-1.25833"><ele>7.13</ele></trkpt><trkpt lat="49.66541" lon="-1.25821"><ele>7.02</ele></trkpt><trkpt lat="49.66556" lon="-1.25792"><ele>6.54</ele></trkpt><trkpt lat="49.6658" lon="-1.2577"><ele>6.11</ele></trkpt><trkpt lat="49.66622" lon="-1.25731"><ele>5.18</ele></trkpt><trkpt lat="49.66635" lon="-1.25717"><ele>4.99</ele></trkpt><trkpt lat="49.66641" lon="-1.25695"><ele>4.95</ele></trkpt><trkpt lat="49.66648" lon="-1.25673"><ele>5.06</ele></trkpt><trkpt lat="49.66644" lon="-1.25664"><ele>4.44</ele></trkpt><trkpt lat="49.66638" lon="-1.25658"><ele>4.25</ele></trkpt><trkpt lat="49.66636" lon="-1.25652"><ele>4.28</ele></trkpt><trkpt lat="49.66629" lon="-1.25649"><ele>4.31</ele></trkpt><trkpt lat="49.66621" lon="-1.25646"><ele>4.26</ele></trkpt><trkpt lat="49.66613" lon="-1.25639"><ele>4.24</ele></trkpt><trkpt lat="49.6661" lon="-1.25632"><ele>4.69</ele></trkpt><trkpt lat="49.66609" lon="-1.25623"><ele>4.43</ele></trkpt><trkpt lat="49.66604" lon="-1.25615"><ele>4.36</ele></trkpt><trkpt lat="49.66598" lon="-1.25608"><ele>4.48</ele></trkpt><trkpt lat="49.66595" lon="-1.25602"><ele>4.58</ele></trkpt><trkpt lat="49.6659" lon="-1.25597"><ele>4.48</ele></trkpt><trkpt lat="49.66584" lon="-1.25592"><ele>4.09</ele></trkpt><trkpt lat="49.66573" lon="-1.25588"><ele>4.26</ele></trkpt><trkpt lat="49.66563" lon="-1.2559"><ele>4.53</ele></trkpt><trkpt lat="49.66555" lon="-1.25588"><ele>4.42</ele></trkpt><trkpt lat="49.66546" lon="-1.25584"><ele>4.6</ele></trkpt><trkpt lat="49.66538" lon="-1.25583"><ele>4.83</ele></trkpt><trkpt lat="49.66527" lon="-1.25581"><ele>4.65</ele></trkpt><trkpt lat="49.66512" lon="-1.25573"><ele>4.9</ele></trkpt><trkpt lat="49.66496" lon="-1.25561"><ele>5.18</ele></trkpt><trkpt lat="49.6649" lon="-1.25553"><ele>5.27</ele></trkpt><trkpt lat="49.66487" lon="-1.25545"><ele>5.4</ele></trkpt><trkpt lat="49.66482" lon="-1.25543"><ele>5.81</ele></trkpt><trkpt lat="49.66476" lon="-1.25535"><ele>5.49</ele></trkpt><trkpt lat="49.6647" lon="-1.25528"><ele>5.61</ele></trkpt><trkpt lat="49.6646" lon="-1.25522"><ele>6.42</ele></trkpt><trkpt lat="49.66458" lon="-1.25515"><ele>6.29</ele></trkpt><trkpt lat="49.66453" lon="-1.25508"><ele>5.87</ele></trkpt><trkpt lat="49.66448" lon="-1.25504"><ele>5.71</ele></trkpt><trkpt lat="49.66436" lon="-1.25491"><ele>5.73</ele></trkpt><trkpt lat="49.66423" lon="-1.25477"><ele>5.8</ele></trkpt><trkpt lat="49.6641" lon="-1.25461"><ele>5.61</ele></trkpt><trkpt lat="49.66402" lon="-1.25451"><ele>5.89</ele></trkpt><trkpt lat="49.66394" lon="-1.2544"><ele>5.63</ele></trkpt><trkpt lat="49.66389" lon="-1.25431"><ele>5.24</ele></trkpt><trkpt lat="49.66383" lon="-1.25421"><ele>4.79</ele></trkpt><trkpt lat="49.66369" lon="-1.25395"><ele>4.93</ele></trkpt><trkpt lat="49.66358" lon="-1.25378"><ele>5.33</ele></trkpt><trkpt lat="49.6635" lon="-1.25371"><ele>5.15</ele></trkpt><trkpt lat="49.66342" lon="-1.25359"><ele>5.11</ele></trkpt><trkpt lat="49.66339" lon="-1.25332"><ele>4.81</ele></trkpt><trkpt lat="49.6634" lon="-1.25307"><ele>4.94</ele></trkpt><trkpt lat="49.66334" lon="-1.25289"><ele>5.01</ele></trkpt><trkpt lat="49.66322" lon="-1.25277"><ele>4.85</ele></trkpt><trkpt lat="49.66311" lon="-1.25266"><ele>4.79</ele></trkpt><trkpt lat="49.66304" lon="-1.25252"><ele>4.54</ele></trkpt><trkpt lat="49.66295" lon="-1.25229"><ele>4.53</ele></trkpt><trkpt lat="49.66288" lon="-1.25223"><ele>4.49</ele></trkpt><trkpt lat="49.66279" lon="-1.25226"><ele>4.32</ele></trkpt><trkpt lat="49.66272" lon="-1.25234"><ele>4.43</ele></trkpt><trkpt lat="49.66256" lon="-1.25249"><ele>4.43</ele></trkpt><trkpt lat="49.66244" lon="-1.25253"><ele>4.46</ele></trkpt><trkpt lat="49.66235" lon="-1.25253"><ele>4.5</ele></trkpt><trkpt lat="49.66227" lon="-1.25253"><ele>4.3</ele></trkpt><trkpt lat="49.6622" lon="-1.25258"><ele>4.16</ele></trkpt><trkpt lat="49.66213" lon="-1.25266"><ele>4.19</ele></trkpt><trkpt lat="49.66204" lon="-1.2526"><ele>4.4</ele></trkpt><trkpt lat="49.66192" lon="-1.25254"><ele>4.28</ele></trkpt><trkpt lat="49.6618" lon="-1.2525"><ele>4.57</ele></trkpt><trkpt lat="49.66173" lon="-1.25246"><ele>4.91</ele></trkpt><trkpt lat="49.66166" lon="-1.25236"><ele>4.95</ele></trkpt><trkpt lat="49.66162" lon="-1.25226"><ele>5.46</ele></trkpt><trkpt lat="49.66157" lon="-1.25219"><ele>5.23</ele></trkpt><trkpt lat="49.66156" lon="-1.25212"><ele>5.34</ele></trkpt><trkpt lat="49.66154" lon="-1.25207"><ele>5.12</ele></trkpt><trkpt lat="49.66148" lon="-1.25194"><ele>5.16</ele></trkpt><trkpt lat="49.66141" lon="-1.25185"><ele>5.18</ele></trkpt><trkpt lat="49.66127" lon="-1.25163"><ele>5.46</ele></trkpt><trkpt lat="49.66109" lon="-1.25134"><ele>5.26</ele></trkpt><trkpt lat="49.66098" lon="-1.25114"><ele>5.57</ele></trkpt><trkpt lat="49.66086" lon="-1.25098"><ele>5.13</ele></trkpt><trkpt lat="49.66079" lon="-1.25084"><ele>5.48</ele></trkpt><trkpt lat="49.66073" lon="-1.25063"><ele>4.87</ele></trkpt><trkpt lat="49.66071" lon="-1.25048"><ele>5.14</ele></trkpt><trkpt lat="49.66068" lon="-1.25026"><ele>5.23</ele></trkpt><trkpt lat="49.66064" lon="-1.25004"><ele>5.41</ele></trkpt><trkpt lat="49.66062" lon="-1.24984"><ele>5.38</ele></trkpt><trkpt lat="49.66064" lon="-1.24968"><ele>5.79</ele></trkpt><trkpt lat="49.66072" lon="-1.24951"><ele>5.8</ele></trkpt><trkpt lat="49.66078" lon="-1.24933"><ele>5.59</ele></trkpt><trkpt lat="49.6608" lon="-1.24909"><ele>6.41</ele></trkpt><trkpt lat="49.6608" lon="-1.24903"><ele>6.68</ele></trkpt><trkpt lat="49.66074" lon="-1.24896"><ele>6.94</ele></trkpt><trkpt lat="49.66065" lon="-1.24888"><ele>7.18</ele></trkpt><trkpt lat="49.66056" lon="-1.2488"><ele>6.05</ele></trkpt><trkpt lat="49.66051" lon="-1.24878"><ele>5.92</ele></trkpt><trkpt lat="49.66045" lon="-1.24878"><ele>5.87</ele></trkpt><trkpt lat="49.66034" lon="-1.24883"><ele>5.44</ele></trkpt><trkpt lat="49.66024" lon="-1.24884"><ele>5.87</ele></trkpt><trkpt lat="49.66013" lon="-1.24884"><ele>5.66</ele></trkpt><trkpt lat="49.66002" lon="-1.24884"><ele>5.75</ele></trkpt><trkpt lat="49.65993" lon="-1.24879"><ele>5.13</ele></trkpt><trkpt lat="49.65973" lon="-1.24866"><ele>5.06</ele></trkpt><trkpt lat="49.65965" lon="-1.24866"><ele>5.56</ele></trkpt><trkpt lat="49.65956" lon="-1.24866"><ele>5.63</ele></trkpt><trkpt lat="49.65947" lon="-1.24869"><ele>5.6</ele></trkpt><trkpt lat="49.65941" lon="-1.24856"><ele>5.54</ele></trkpt><trkpt lat="49.65933" lon="-1.24836"><ele>4.92</ele></trkpt><trkpt lat="49.65922" lon="-1.24825"><ele>5.03</ele></trkpt><trkpt lat="49.6591" lon="-1.24813"><ele>5.03</ele></trkpt><trkpt lat="49.65906" lon="-1.24805"><ele>5.47</ele></trkpt><trkpt lat="49.65897" lon="-1.24798"><ele>5.46</ele></trkpt><trkpt lat="49.65887" lon="-1.24779"><ele>5.42</ele></trkpt><trkpt lat="49.65877" lon="-1.24767"><ele>5.51</ele></trkpt><trkpt lat="49.65869" lon="-1.24754"><ele>5.56</ele></trkpt><trkpt lat="49.65863" lon="-1.24751"><ele>5.52</ele></trkpt><trkpt lat="49.65857" lon="-1.24737"><ele>5.72</ele></trkpt><trkpt lat="49.65849" lon="-1.24726"><ele>5.85</ele></trkpt><trkpt lat="49.65846" lon="-1.24707"><ele>6.03</ele></trkpt><trkpt lat="49.65837" lon="-1.24693"><ele>5.61</ele></trkpt><trkpt lat="49.65831" lon="-1.24681"><ele>5.5</ele></trkpt><trkpt lat="49.65828" lon="-1.24666"><ele>5.7</ele></trkpt><trkpt lat="49.65825" lon="-1.24645"><ele>5.48</ele></trkpt><trkpt lat="49.65818" lon="-1.24628"><ele>6.26</ele></trkpt><trkpt lat="49.65798" lon="-1.24597"><ele>6.27</ele></trkpt><trkpt lat="49.65785" lon="-1.24576"><ele>6.19</ele></trkpt><trkpt lat="49.65785" lon="-1.24552"><ele>6.5</ele></trkpt><trkpt lat="49.65782" lon="-1.24544"><ele>5.66</ele></trkpt><trkpt lat="49.65778" lon="-1.24531"><ele>5.79</ele></trkpt><trkpt lat="49.65769" lon="-1.2452"><ele>5.73</ele></trkpt><trkpt lat="49.65767" lon="-1.24508"><ele>5.58</ele></trkpt><trkpt lat="49.65762" lon="-1.24493"><ele>5.55</ele></trkpt><trkpt lat="49.65749" lon="-1.24472"><ele>5.66</ele></trkpt><trkpt lat="49.6574" lon="-1.24452"><ele>5.42</ele></trkpt><trkpt lat="49.65734" lon="-1.2445"><ele>5.22</ele></trkpt><trkpt lat="49.6572" lon="-1.24453"><ele>5.33</ele></trkpt><trkpt lat="49.65703" lon="-1.24452"><ele>5.39</ele></trkpt><trkpt lat="49.6569" lon="-1.24445"><ele>5.53</ele></trkpt><trkpt lat="49.65672" lon="-1.24441"><ele>5.41</ele></trkpt><trkpt lat="49.65652" lon="-1.24429"><ele>5.14</ele></trkpt><trkpt lat="49.65632" lon="-1.24411"><ele>5.32</ele></trkpt><trkpt lat="49.65611" lon="-1.24384"><ele>5.56</ele></trkpt><trkpt lat="49.65602" lon="-1.2437"><ele>5.53</ele></trkpt><trkpt lat="49.65595" lon="-1.24358"><ele>5.14</ele></trkpt><trkpt lat="49.65583" lon="-1.24343"><ele>5.16</ele></trkpt><trkpt lat="49.6557" lon="-1.24333"><ele>5.42</ele></trkpt><trkpt lat="49.65564" lon="-1.24327"><ele>5.51</ele></trkpt><trkpt lat="49.65558" lon="-1.24313"><ele>5.72</ele></trkpt><trkpt lat="49.65549" lon="-1.24303"><ele>5.89</ele></trkpt><trkpt lat="49.65529" lon="-1.24279"><ele>6.05</ele></trkpt><trkpt lat="49.6552" lon="-1.24269"><ele>6.08</ele></trkpt><trkpt lat="49.65505" lon="-1.24245"><ele>5.37</ele></trkpt><trkpt lat="49.65497" lon="-1.24228"><ele>5.62</ele></trkpt><trkpt lat="49.65489" lon="-1.24203"><ele>5.77</ele></trkpt><trkpt lat="49.65487" lon="-1.24185"><ele>6.06</ele></trkpt><trkpt lat="49.65483" lon="-1.24138"><ele>6.99</ele></trkpt><trkpt lat="49.65483" lon="-1.24117"><ele>7.51</ele></trkpt><trkpt lat="49.65481" lon="-1.24099"><ele>7.18</ele></trkpt><trkpt lat="49.65475" lon="-1.2406"><ele>7.22</ele></trkpt><trkpt lat="49.65468" lon="-1.24032"><ele>6.67</ele></trkpt><trkpt lat="49.65463" lon="-1.24016"><ele>6.54</ele></trkpt><trkpt lat="49.65453" lon="-1.23997"><ele>6.44</ele></trkpt><trkpt lat="49.65442" lon="-1.23981"><ele>6.04</ele></trkpt><trkpt lat="49.65426" lon="-1.23973"><ele>6.4</ele></trkpt><trkpt lat="49.65405" lon="-1.23972"><ele>6.32</ele></trkpt><trkpt lat="49.65397" lon="-1.23975"><ele>6.03</ele></trkpt><trkpt lat="49.65388" lon="-1.23981"><ele>5.8</ele></trkpt><trkpt lat="49.65381" lon="-1.23982"><ele>5.79</ele></trkpt><trkpt lat="49.65365" lon="-1.23979"><ele>5.62</ele></trkpt><trkpt lat="49.65326" lon="-1.23968"><ele>5.68</ele></trkpt><trkpt lat="49.65322" lon="-1.23969"><ele>5.32</ele></trkpt><trkpt lat="49.6531" lon="-1.23977"><ele>5.81</ele></trkpt><trkpt lat="49.65297" lon="-1.23992"><ele>5.7</ele></trkpt><trkpt lat="49.65288" lon="-1.24002"><ele>5.54</ele></trkpt><trkpt lat="49.65281" lon="-1.24005"><ele>5.88</ele></trkpt><trkpt lat="49.65266" lon="-1.24008"><ele>5.3</ele></trkpt><trkpt lat="49.65259" lon="-1.24008"><ele>5.27</ele></trkpt><trkpt lat="49.65248" lon="-1.24009"><ele>5.57</ele></trkpt><trkpt lat="49.65235" lon="-1.24007"><ele>5.21</ele></trkpt><trkpt lat="49.65228" lon="-1.24004"><ele>5.43</ele></trkpt><trkpt lat="49.65219" lon="-1.24001"><ele>5.2</ele></trkpt><trkpt lat="49.65209" lon="-1.24001"><ele>5.23</ele></trkpt><trkpt lat="49.65201" lon="-1.24002"><ele>5.37</ele></trkpt><trkpt lat="49.65183" lon="-1.23998"><ele>5.61</ele></trkpt><trkpt lat="49.65171" lon="-1.23993"><ele>5.33</ele></trkpt><trkpt lat="49.65158" lon="-1.23987"><ele>5.25</ele></trkpt><trkpt lat="49.65145" lon="-1.23979"><ele>5.27</ele></trkpt><trkpt lat="49.6513" lon="-1.23967"><ele>5.4</ele></trkpt><trkpt lat="49.65116" lon="-1.23955"><ele>5.69</ele></trkpt><trkpt lat="49.65112" lon="-1.23946"><ele>5.73</ele></trkpt><trkpt lat="49.65109" lon="-1.23945"><ele>5.73</ele></trkpt><trkpt lat="49.65107" lon="-1.2395"><ele>5.79</ele></trkpt><trkpt lat="49.65099" lon="-1.23967"><ele>5.68</ele></trkpt><trkpt lat="49.65092" lon="-1.23985"><ele>5.73</ele></trkpt><trkpt lat="49.65092" lon="-1.23997"><ele>5.76</ele></trkpt><trkpt lat="49.65091" lon="-1.24006"><ele>5.79</ele></trkpt><trkpt lat="49.6509" lon="-1.24038"><ele>6.12</ele></trkpt><trkpt lat="49.65088" lon="-1.24083"><ele>6.07</ele></trkpt><trkpt lat="49.65083" lon="-1.2413"><ele>6.09</ele></trkpt><trkpt lat="49.6508" lon="-1.24149"><ele>5.95</ele></trkpt><trkpt lat="49.65076" lon="-1.2417"><ele>5.72</ele></trkpt><trkpt lat="49.65071" lon="-1.24189"><ele>5.79</ele></trkpt><trkpt lat="49.65064" lon="-1.24209"><ele>5.59</ele></trkpt><trkpt lat="49.65057" lon="-1.24223"><ele>5.56</ele></trkpt><trkpt lat="49.65044" lon="-1.24239"><ele>5.52</ele></trkpt><trkpt lat="49.65022" lon="-1.24267"><ele>5.21</ele></trkpt><trkpt lat="49.65013" lon="-1.2428"><ele>5.39</ele></trkpt><trkpt lat="49.65004" lon="-1.24297"><ele>6.34</ele></trkpt><trkpt lat="49.64989" lon="-1.24327"><ele>7.2</ele></trkpt><trkpt lat="49.64971" lon="-1.24364"><ele>8.5</ele></trkpt><trkpt lat="49.64956" lon="-1.24392"><ele>9.47</ele></trkpt><trkpt lat="49.64934" lon="-1.24436"><ele>10.61</ele></trkpt><trkpt lat="49.6493" lon="-1.24453"><ele>11.06</ele></trkpt><trkpt lat="49.6492" lon="-1.24473"><ele>11.54</ele></trkpt><trkpt lat="49.6491" lon="-1.24497"><ele>11.94</ele></trkpt><trkpt lat="49.64898" lon="-1.24527"><ele>12.19</ele></trkpt><trkpt lat="49.64885" lon="-1.24556"><ele>12.18</ele></trkpt><trkpt lat="49.64879" lon="-1.24566"><ele>12.11</ele></trkpt><trkpt lat="49.64868" lon="-1.24583"><ele>11.62</ele></trkpt><trkpt lat="49.64858" lon="-1.24598"><ele>10.9</ele></trkpt><trkpt lat="49.64851" lon="-1.24609"><ele>10.11</ele></trkpt><trkpt lat="49.64847" lon="-1.24622"><ele>9.53</ele></trkpt><trkpt lat="49.64844" lon="-1.24637"><ele>9.24</ele></trkpt><trkpt lat="49.64838" lon="-1.2466"><ele>9.07</ele></trkpt><trkpt lat="49.64835" lon="-1.24695"><ele>8.95</ele></trkpt><trkpt lat="49.64833" lon="-1.2471"><ele>8.68</ele></trkpt><trkpt lat="49.64828" lon="-1.2476"><ele>8.83</ele></trkpt><trkpt lat="49.64829" lon="-1.24786"><ele>9.91</ele></trkpt><trkpt lat="49.64833" lon="-1.24817"><ele>10.62</ele></trkpt><trkpt lat="49.64836" lon="-1.24847"><ele>11.51</ele></trkpt><trkpt lat="49.64838" lon="-1.24867"><ele>13.26</ele></trkpt><trkpt lat="49.64837" lon="-1.24896"><ele>14.57</ele></trkpt><trkpt lat="49.64834" lon="-1.24922"><ele>15.62</ele></trkpt><trkpt lat="49.6483" lon="-1.24958"><ele>16.15</ele></trkpt><trkpt lat="49.64828" lon="-1.24979"><ele>15.62</ele></trkpt><trkpt lat="49.64826" lon="-1.2499"><ele>15.48</ele></trkpt><trkpt lat="49.6482" lon="-1.25005"><ele>14.85</ele></trkpt><trkpt lat="49.64808" lon="-1.25032"><ele>13.86</ele></trkpt><trkpt lat="49.64796" lon="-1.2506"><ele>12.23</ele></trkpt><trkpt lat="49.64791" lon="-1.25077"><ele>11.54</ele></trkpt><trkpt lat="49.64789" lon="-1.25096"><ele>10.22</ele></trkpt><trkpt lat="49.64787" lon="-1.25113"><ele>9.48</ele></trkpt><trkpt lat="49.64768" lon="-1.25139"><ele>7.86</ele></trkpt><trkpt lat="49.64756" lon="-1.25154"><ele>7.64</ele></trkpt><trkpt lat="49.64752" lon="-1.25163"><ele>7.3</ele></trkpt><trkpt lat="49.64746" lon="-1.25179"><ele>7.15</ele></trkpt><trkpt lat="49.64742" lon="-1.25187"><ele>7.02</ele></trkpt><trkpt lat="49.64738" lon="-1.25209"><ele>6.9</ele></trkpt><trkpt lat="49.64735" lon="-1.25232"><ele>6.97</ele></trkpt><trkpt lat="49.64735" lon="-1.25259"><ele>7.21</ele></trkpt><trkpt lat="49.64738" lon="-1.25283"><ele>7.51</ele></trkpt><trkpt lat="49.6474" lon="-1.25317"><ele>8.31</ele></trkpt><trkpt lat="49.64743" lon="-1.25368"><ele>9.7</ele></trkpt><trkpt lat="49.64745" lon="-1.2541"><ele>10.45</ele></trkpt><trkpt lat="49.64747" lon="-1.25438"><ele>11.22</ele></trkpt><trkpt lat="49.64749" lon="-1.2547"><ele>11.36</ele></trkpt><trkpt lat="49.64749" lon="-1.25488"><ele>11.59</ele></trkpt><trkpt lat="49.64749" lon="-1.25506"><ele>11.86</ele></trkpt><trkpt lat="49.64753" lon="-1.25538"><ele>12.18</ele></trkpt><trkpt lat="49.64755" lon="-1.25579"><ele>12.58</ele></trkpt><trkpt lat="49.64758" lon="-1.25626"><ele>12.96</ele></trkpt><trkpt lat="49.64767" lon="-1.25686"><ele>13.54</ele></trkpt><trkpt lat="49.64774" lon="-1.25722"><ele>14.4</ele></trkpt><trkpt lat="49.64778" lon="-1.25753"><ele>14.98</ele></trkpt><trkpt lat="49.64781" lon="-1.25794"><ele>14.97</ele></trkpt><trkpt lat="49.64789" lon="-1.25872"><ele>15.17</ele></trkpt><trkpt lat="49.64777" lon="-1.25877"><ele>15.18</ele></trkpt><trkpt lat="49.64766" lon="-1.25881"><ele>14.81</ele></trkpt><trkpt lat="49.64746" lon="-1.25878"><ele>15</ele></trkpt><trkpt lat="49.64726" lon="-1.25874"><ele>15.66</ele></trkpt><trkpt lat="49.64717" lon="-1.25876"><ele>14.81</ele></trkpt><trkpt lat="49.6471" lon="-1.25879"><ele>14.84</ele></trkpt><trkpt lat="49.64706" lon="-1.25884"><ele>14.26</ele></trkpt><trkpt lat="49.64697" lon="-1.25898"><ele>13.49</ele></trkpt><trkpt lat="49.64691" lon="-1.25912"><ele>13.09</ele></trkpt><trkpt lat="49.64681" lon="-1.25937"><ele>12.79</ele></trkpt><trkpt lat="49.64675" lon="-1.25964"><ele>12.42</ele></trkpt><trkpt lat="49.64664" lon="-1.2599"><ele>11.88</ele></trkpt><trkpt lat="49.64657" lon="-1.26004"><ele>11.35</ele></trkpt><trkpt lat="49.64648" lon="-1.26027"><ele>10.76</ele></trkpt><trkpt lat="49.64639" lon="-1.26051"><ele>9.59</ele></trkpt><trkpt lat="49.64634" lon="-1.26074"><ele>9.15</ele></trkpt><trkpt lat="49.64625" lon="-1.2611"><ele>9.75</ele></trkpt><trkpt lat="49.64625" lon="-1.26116"><ele>9.9</ele></trkpt><trkpt lat="49.64628" lon="-1.26128"><ele>10.15</ele></trkpt><trkpt lat="49.64633" lon="-1.26139"><ele>10.59</ele></trkpt><trkpt lat="49.64628" lon="-1.26151"><ele>11.33</ele></trkpt><trkpt lat="49.64616" lon="-1.26166"><ele>12.32</ele></trkpt><trkpt lat="49.64607" lon="-1.26175"><ele>12.33</ele></trkpt><trkpt lat="49.64592" lon="-1.26189"><ele>10.74</ele></trkpt><trkpt lat="49.64589" lon="-1.26194"><ele>10.75</ele></trkpt><trkpt lat="49.64596" lon="-1.26222"><ele>10.99</ele></trkpt><trkpt lat="49.64607" lon="-1.26224"><ele>11.06</ele></trkpt><trkpt lat="49.64614" lon="-1.26236"><ele>11.5</ele></trkpt><trkpt lat="49.64628" lon="-1.26273"><ele>11.75</ele></trkpt><trkpt lat="49.64636" lon="-1.26298"><ele>11.99</ele></trkpt><trkpt lat="49.64642" lon="-1.26321"><ele>11.91</ele></trkpt><trkpt lat="49.64649" lon="-1.2633"><ele>12.35</ele></trkpt><trkpt lat="49.64658" lon="-1.26357"><ele>13</ele></trkpt><trkpt lat="49.64679" lon="-1.26412"><ele>13.51</ele></trkpt><trkpt lat="49.64694" lon="-1.2645"><ele>14.22</ele></trkpt><trkpt lat="49.64713" lon="-1.2649"><ele>14.91</ele></trkpt><trkpt lat="49.64721" lon="-1.26514"><ele>15.13</ele></trkpt><trkpt lat="49.64735" lon="-1.26557"><ele>15.79</ele></trkpt><trkpt lat="49.64742" lon="-1.26573"><ele>15.81</ele></trkpt><trkpt lat="49.64743" lon="-1.2659"><ele>15.93</ele></trkpt><trkpt lat="49.64748" lon="-1.26614"><ele>16.42</ele></trkpt><trkpt lat="49.64759" lon="-1.26648"><ele>17.3</ele></trkpt><trkpt lat="49.64774" lon="-1.26686"><ele>17.88</ele></trkpt><trkpt lat="49.64808" lon="-1.26768"><ele>19.04</ele></trkpt><trkpt lat="49.64822" lon="-1.26809"><ele>18.86</ele></trkpt><trkpt lat="49.64831" lon="-1.26807"><ele>18.7</ele></trkpt><trkpt lat="49.64841" lon="-1.26802"><ele>18.71</ele></trkpt><trkpt lat="49.64857" lon="-1.26788"><ele>18.32</ele></trkpt><trkpt lat="49.64891" lon="-1.26753"><ele>17.66</ele></trkpt><trkpt lat="49.64906" lon="-1.26733"><ele>17.44</ele></trkpt><trkpt lat="49.64912" lon="-1.26742"><ele>17.52</ele></trkpt><trkpt lat="49.64927" lon="-1.26769"><ele>17.7</ele></trkpt><trkpt lat="49.64938" lon="-1.2679"><ele>18</ele></trkpt><trkpt lat="49.64953" lon="-1.26816"><ele>18.49</ele></trkpt><trkpt lat="49.64968" lon="-1.26841"><ele>19.2</ele></trkpt><trkpt lat="49.64975" lon="-1.26852"><ele>19.52</ele></trkpt><trkpt lat="49.64999" lon="-1.26854"><ele>19.86</ele></trkpt><trkpt lat="49.65044" lon="-1.26856"><ele>20.88</ele></trkpt><trkpt lat="49.65082" lon="-1.26856"><ele>21.32</ele></trkpt><trkpt lat="49.65094" lon="-1.26854"><ele>21.44</ele></trkpt><trkpt lat="49.65104" lon="-1.26851"><ele>21.21</ele></trkpt><trkpt lat="49.65118" lon="-1.26853"><ele>21.19</ele></trkpt><trkpt lat="49.65136" lon="-1.26861"><ele>21.12</ele></trkpt><trkpt lat="49.65161" lon="-1.26873"><ele>21.26</ele></trkpt><trkpt lat="49.6517" lon="-1.26876"><ele>21.27</ele></trkpt><trkpt lat="49.65233" lon="-1.26905"><ele>20.16</ele></trkpt><trkpt lat="49.65233" lon="-1.26907"><ele>20.16</ele></trkpt><trkpt lat="49.6525" lon="-1.26915"><ele>20</ele></trkpt><trkpt lat="49.65274" lon="-1.26929"><ele>19.61</ele></trkpt><trkpt lat="49.65282" lon="-1.26938"><ele>19.42</ele></trkpt><trkpt lat="49.65289" lon="-1.26949"><ele>18.83</ele></trkpt><trkpt lat="49.65296" lon="-1.26962"><ele>18.67</ele></trkpt><trkpt lat="49.65304" lon="-1.26983"><ele>17.37</ele></trkpt><trkpt lat="49.65328" lon="-1.26971"><ele>16.88</ele></trkpt><trkpt lat="49.65373" lon="-1.26949"><ele>15.1</ele></trkpt><trkpt lat="49.65379" lon="-1.26946"><ele>14.91</ele></trkpt><trkpt lat="49.65403" lon="-1.2696"><ele>14.34</ele></trkpt><trkpt lat="49.65406" lon="-1.26946"><ele>14.62</ele></trkpt><trkpt lat="49.65419" lon="-1.26912"><ele>14.97</ele></trkpt><trkpt lat="49.65426" lon="-1.26903"><ele>14.74</ele></trkpt><trkpt lat="49.65432" lon="-1.26898"><ele>14.62</ele></trkpt><trkpt lat="49.65439" lon="-1.26896"><ele>14.45</ele></trkpt><trkpt lat="49.6544" lon="-1.26902"><ele>14.56</ele></trkpt><trkpt lat="49.65442" lon="-1.26901"><ele>14.56</ele></trkpt><trkpt lat="49.65468" lon="-1.26892"><ele>14.08</ele></trkpt><trkpt lat="49.6548" lon="-1.26956"><ele>13.07</ele></trkpt></trkseg></trk></gpx>
